"STATION","DATE","REPORT_TYPE","SOURCE","AWND","BackupDirection","BackupDistance","BackupDistanceUnit","BackupElements","BackupElevation","BackupElevationUnit","BackupEquipment","BackupLatitude","BackupLongitude","BackupName","CDSD","CLDD","DSNW","DailyAverageDewPointTemperature","DailyAverageDryBulbTemperature","DailyAverageRelativeHumidity","DailyAverageSeaLevelPressure","DailyAverageStationPressure","DailyAverageWetBulbTemperature","DailyAverageWindSpeed","DailyCoolingDegreeDays","DailyDepartureFromNormalAverageTemperature","DailyHeatingDegreeDays","DailyMaximumDryBulbTemperature","DailyMinimumDryBulbTemperature","DailyPeakWindDirection","DailyPeakWindSpeed","DailyPrecipitation","DailySnowDepth","DailySnowfall","DailySustainedWindDirection","DailySustainedWindSpeed","DailyWeather","HDSD","HTDD","HeavyFog","HourlyAltimeterSetting","HourlyDewPointTemperature","HourlyDryBulbTemperature","HourlyPrecipitation","HourlyPresentWeatherType","HourlyPressureChange","HourlyPressureTendency","HourlyRelativeHumidity","HourlySeaLevelPressure","HourlySkyConditions","HourlyStationPressure","HourlyVisibility","HourlyWetBulbTemperature","HourlyWindDirection","HourlyWindGustSpeed","HourlyWindSpeed","MonthlyAverageRH","MonthlyDaysWithGT001Precip","MonthlyDaysWithGT010Precip","MonthlyDaysWithGT32Temp","MonthlyDaysWithGT90Temp","MonthlyDaysWithLT0Temp","MonthlyDaysWithLT32Temp","MonthlyDepartureFromNormalAverageTemperature","MonthlyDepartureFromNormalCoolingDegreeDays","MonthlyDepartureFromNormalHeatingDegreeDays","MonthlyDepartureFromNormalMaximumTemperature","MonthlyDepartureFromNormalMinimumTemperature","MonthlyDepartureFromNormalPrecipitation","MonthlyDewpointTemperature","MonthlyGreatestPrecip","MonthlyGreatestPrecipDate","MonthlyGreatestSnowDepth","MonthlyGreatestSnowDepthDate","MonthlyGreatestSnowfall","MonthlyGreatestSnowfallDate","MonthlyMaxSeaLevelPressureValue","MonthlyMaxSeaLevelPressureValueDate","MonthlyMaxSeaLevelPressureValueTime","MonthlyMaximumTemperature","MonthlyMeanTemperature","MonthlyMinSeaLevelPressureValue","MonthlyMinSeaLevelPressureValueDate","MonthlyMinSeaLevelPressureValueTime","MonthlyMinimumTemperature","MonthlySeaLevelPressure","MonthlyStationPressure","MonthlyTotalLiquidPrecipitation","MonthlyTotalSnowfall","MonthlyWetBulb","NormalsCoolingDegreeDay","NormalsHeatingDegreeDay","REM","REPORT_TYPE","SOURCE","ShortDurationEndDate005","ShortDurationEndDate010","ShortDurationEndDate015","ShortDurationEndDate020","ShortDurationEndDate030","ShortDurationEndDate045","ShortDurationEndDate060","ShortDurationEndDate080","ShortDurationEndDate100","ShortDurationEndDate120","ShortDurationEndDate150","ShortDurationEndDate180","ShortDurationPrecipitationValue005","ShortDurationPrecipitationValue010","ShortDurationPrecipitationValue015","ShortDurationPrecipitationValue020","ShortDurationPrecipitationValue030","ShortDurationPrecipitationValue045","ShortDurationPrecipitationValue060","ShortDurationPrecipitationValue080","ShortDurationPrecipitationValue100","ShortDurationPrecipitationValue120","ShortDurationPrecipitationValue150","ShortDurationPrecipitationValue180","Sunrise","Sunset","TStorms","WindEquipmentChangeDate"
"72202012839","2020-06-01T00:53:00","FM-15","7",,,,,,,,,,,,,,,,,,,,,,,,,,,,,,,,,,,,,,"30.02","72","80","0.00",,"+0.03","8","76","30.01","SCT:04 250","29.99","10.00","75","120",,"3",,,,,,,,,,,,,,,,,,,,,,,,,,,,,,,,,,,,,"MET11606/01/20 00:53:02 METAR KMIA 010553Z 12003KT 10SM SCT250 27/22 A3002 RMK AO2 SLP164 T02670222 10278 20261 58009 (GR)","FM-15","7",,,,,,,,,,,,,,,,,,,,,,,,,,,,"2009-07-14"
"72202012839","2020-06-01T01:00:00","FM-12","4",,,,,,,,,,,,,,,,,,,,,,,,,,,,,,,,,,,,,,,"72","80",,,"+0.03","8","76","30.01",,"29.99","9.94","75","120",,"3",,,,,,,,,,,,,,,,,,,,,,,,,,,,,,,,,,,,,"SYN08072202 32966 41203 10267 20222 30156 40164 58009 90553 333 10317 20261 555 90106=","FM-12","4",,,,,,,,,,,,,,,,,,,,,,,,,,,,"2009-07-14"
"72202012839","2020-06-01T01:53:00","FM-15","7",,,,,,,,,,,,,,,,,,,,,,,,,,,,,,,,,,,,,,"30.00","73","80","0.00",,,,"79","30.00","FEW:02 25 BKN:07 250","29.97","10.00","75","000",,"0",,,,,,,,,,,,,,,,,,,,,,,,,,,,,,,,,,,,,"MET10506/01/20 01:53:02 METAR KMIA 010653Z 00000KT 10SM FEW025 BKN250 27/23 A3000 RMK AO2 SLP159 T02670228 (GR)","FM-15","7",,,,,,,,,,,,,,,,,,,,,,,,,,,,"2009-07-14"
"72202012839","2020-06-01T02:53:00","FM-15","7",,,,,,,,,,,,,,,,,,,,,,,,,,,,,,,,,,,,,,"30.00","73","79","0.00",,,,"82","30.00","FEW:02 21 SCT:04 25 BKN:07 250","29.97","10.00","75","000",,"0",,,,,,,,,,,,,,,,,,,,,,,,,,,,,,,,,,,,,"MET11206/01/20 02:53:02 METAR KMIA 010753Z 00000KT 10SM FEW021 SCT025 BKN250 26/23 A3000 RMK AO2 SLP158 T02610228 (GR)","FM-15","7",,,,,,,,,,,,,,,,,,,,,,,,,,,,"2009-07-14"
"72202012839","2020-06-01T03:53:00","FM-15","7",,,,,,,,,,,,,,,,,,,,,,,,,,,,,,,,,,,,,,"30.00","73","80","0.00",,"+0.02","6","79","30.00","FEW:02 21 FEW:02 26 SCT:04 250","29.97","10.00","75","000",,"0",,,,,,,,,,,,,,,,,,,,,,,,,,,,,,,,,,,,,"MET11806/01/20 03:53:02 METAR KMIA 010853Z 00000KT 10SM FEW021 FEW026 SCT250 27/23 A3000 RMK AO2 SLP158 T02670228 56006 (GR)","FM-15","7",,,,,,,,,,,,,,,,,,,,,,,,,,,,"2009-07-14"
"72202012839","2020-06-01T04:00:00","FM-12","4",,,,,,,,,,,,,,,,,,,,,,,,,,,,,,,,,,,,,,,"73","80",,,"+0.02","6","79","30.00","26","29.97","9.94","75","000",,"0",,,,,,,,,,,,,,,,,,,,,,,,,,,,,,,,,,,,,"SYN06472202 32566 40000 10267 20228 30149 40158 56006 90853 555 90109=","FM-12","4",,,,,,,,,,,,,,,,,,,,,,,,,,,,"2009-07-14"
"72202012839","2020-06-01T04:53:00","FM-15","7",,,,,,,,,,,,,,,,,,,,,,,,,,,,,,,,,,,,,,"30.01","73","79","0.00",,,,"82","30.01","FEW:02 20 SCT:04 27 SCT:04 250","29.98","10.00","75","360",,"3",,,,,,,,,,,,,,,,,,,,,,,,,,,,,,,,,,,,,"MET11206/01/20 04:53:02 METAR KMIA 010953Z 36003KT 10SM FEW020 SCT027 SCT250 26/23 A3001 RMK AO2 SLP163 T02610228 (GR)","FM-15","7",,,,,,,,,,,,,,,,,,,,,,,,,,,,"2009-07-14"
"72202012839","2020-06-01T05:53:00","FM-15","7",,,,,,,,,,,,,,,,,,,,,,,,,,,,,,,,,,,,,,"30.02","74","79","0.00",,,,"85","30.02","FEW:02 20 OVC:08 250","29.99","10.00","76","000",,"0",,,,,,,,,,,,,,,,,,,,,,,,,,,,,,,,,,,,,"MET10506/01/20 05:53:02 METAR KMIA 011053Z 00000KT 10SM FEW020 OVC250 26/23 A3002 RMK AO2 SLP166 T02610233 (EM)","FM-15","7",,,,,,,,,,,,,,,,,,,,,,,,,,,,"2009-07-14"
"72202012839","2020-06-01T06:53:00","FM-15","7",,,,,,,,,,,,,,,,,,,,,,,,,,,,,,,,,,,,,,"30.04","75","82","0.00",,"-0.04","3","79","30.03","FEW:02 20 FEW:02 200 OVC:08 250","30.01","10.00","77","000",,"0",,,,,,,,,,,,,,,,,,,,,,,,,,,,,,,,,,,,,"MET13006/01/20 06:53:02 METAR KMIA 011153Z 00000KT 10SM FEW020 FEW200 OVC250 28/24 A3004 RMK AO2 SLP171 T02780239 10278 20250 53013 (EM)","FM-15","7",,,,,,,,,,,,,,,,,,,,,,,,,,,,"2009-07-14"
"72202012839","2020-06-01T07:00:00","FM-12","4",,,,,,,,,,,,,,,,,,,,,,,,,,,,,,,,,,,,,,,"75","82",,,"-0.04","3","79","30.03","26","30.01","9.94","77","000",,"0",,,,,,,,,,,,,,,,,,,,,,,,,,,,,,,,,,,,,"SYN08072202 32566 80000 10278 20239 30163 40171 53013 91153 333 10317 20250 555 90112=","FM-12","4",,,,,,,,,,,,,,,,,,,,,,,,,,,,"2009-07-14"
"72202012839","2020-06-01T07:53:00","FM-15","7",,,,,,,,,,,,,,,,,,,,,,,,,,,,,,,,,,,,,,"30.06","75","84","0.00",,,,"74","30.06","SCT:04 20 SCT:04 200 OVC:08 250","30.03","10.00","78","000",,"0",,,,,,,,,,,,,,,,,,,,,,,,,,,,,,,,,,,,,"MET11206/01/20 07:53:02 METAR KMIA 011253Z 00000KT 10SM SCT020 SCT200 OVC250 29/24 A3006 RMK AO2 SLP178 T02890239 (EM)","FM-15","7",,,,,,,,,,,,,,,,,,,,,,,,,,,,"2009-07-14"
"72202012839","2020-06-01T08:53:00","FM-15","7",,,,,,,,,,,,,,,,,,,,,,,,,,,,,,,,,,,,,,"30.07","75","86","0.00",,,,"70","30.06","SCT:04 23 BKN:07 250","30.04","10.00","78","VRB",,"6",,,,,,,,,,,,,,,,,,,,,,,,,,,,,,,,,,,,,"MET10506/01/20 08:53:02 METAR KMIA 011353Z VRB05KT 10SM SCT023 BKN250 30/24 A3007 RMK AO2 SLP181 T03000239 (EM)","FM-15","7",,,,,,,,,,,,,,,,,,,,,,,,,,,,"2009-07-14"
"72202012839","2020-06-01T09:53:00","FM-15","7",,,,,,,,,,,,,,,,,,,,,,,,,,,,,,,,,,,,,,"30.06","72","87","0.00",,"-0.03","0","61","30.06","SCT:04 30 BKN:07 250","30.03","10.00","77","VRB",,"3",,,,,,,,,,,,,,,,,,,,,,,,,,,,,,,,,,,,,"MET11106/01/20 09:53:02 METAR KMIA 011453Z VRB03KT 10SM SCT030 BKN250 31/22 A3006 RMK AO2 SLP180 T03060222 50009 (EM)","FM-15","7",,,,,,,,,,,,,,,,,,,,,,,,,,,,"2009-07-14"
"72202012839","2020-06-01T10:00:00","FM-12","4",,,,,,,,,,,,,,,,,,,,,,,,,,,,,,,,,,,,,,,"72","87",,,"0.03","9","61","30.06","26","30.03","9.94","77",,,"3",,,,,,,,,,,,,,,,,,,,,,,,,,,,,,,,,,,,,"SYN06472202 32566 6//03 10306 20222 30169 40180 50009 91453 555 90115=","FM-12","4",,,,,,,,,,,,,,,,,,,,,,,,,,,,"2009-07-14"
"72202012839","2020-06-01T10:53:00","FM-15","7",,,,,,,,,,,,,,,,,,,,,,,,,,,,,,,,,,,,,,"30.06","74","89","0.00",,,,"61","30.06","SCT:04 35 BKN:07 250","30.03","10.00","78","100",,"9",,,,,,,,,,,,,,,,,,,,,,,,,,,,,,,,,,,,,"MET10506/01/20 10:53:02 METAR KMIA 011553Z 10008KT 10SM SCT035 BKN250 32/23 A3006 RMK AO2 SLP181 T03170233 (EM)","FM-15","7",,,,,,,,,,,,,,,,,,,,,,,,,,,,"2009-07-14"
"72202012839","2020-06-01T11:53:00","FM-15","7",,,,,,,,,,,,,,,,,,,,,,,,,,,,,,,,,,,,,,"30.06","73","89","0.00",,,,"59","30.06","SCT:04 32 BKN:07 250","30.03","10.00","78","090",,"8",,,,,,,,,,,,,,,,,,,,,,,,,,,,,,,,,,,,,"MET10506/01/20 11:53:02 METAR KMIA 011653Z 09007KT 10SM SCT032 BKN250 32/23 A3006 RMK AO2 SLP179 T03170228 (EM)","FM-15","7",,,,,,,,,,,,,,,,,,,,,,,,,,,,"2009-07-14"
"72202012839","2020-06-01T12:53:00","FM-15","7",,,,,,,,,,,,,,,,,,,,,,,,,,,,,,,,,,,,,,"30.06","72","90","0.00",,"+0.01","8","56","30.06","SCT:04 35 BKN:07 250","30.03","10.00","77","VRB",,"9",,,,,,,,,,,,,,,,,,,,,,,,,,,,,,,,,,,,,"MET12306/01/20 12:53:02 METAR KMIA 011753Z 08008KT 10SM SCT035 BKN250 32/22 A3006 RMK AO2 SLP178 T03220222 10322 20278 58002 (EM)","FM-15","7",,,,,,,,,,,,,,,,,,,,,,,,,,,,"2009-07-14"
"72202012839","2020-06-01T13:00:00","FM-12","4",,,,,,,,,,,,,,,,,,,,,,,,,,,,,,,,,,,,,,,"72","90",,,"+0.01","8","56","30.06","41","30.03","9.94","77","080",,"9",,,,,,,,,,,,,,,,,,,,,,,,,,,,,,,,,,,,,"SYN08072202 32666 60808 10322 20222 30169 40178 58002 91753 333 10322 20278 555 90118=","FM-12","4",,,,,,,,,,,,,,,,,,,,,,,,,,,,"2009-07-14"
"72202012839","2020-06-01T13:53:00","FM-15","7",,,,,,,,,,,,,,,,,,,,,,,,,,,,,,,,,,,,,,"30.04","71","89","0.00",,,,"55","30.04","SCT:04 35 SCT:04 180 BKN:07 250","30.01","10.00","76","080",,"10",,,,,,,,,,,,,,,,,,,,,,,,,,,,,,,,,,,,,"MET12406/01/20 13:53:02 METAR KMIA 011853Z 08009KT 10SM SCT035 SCT180 BKN250 32/22 A3004 RMK AO2 SLP173 TCU DSNT E T03170217 (RDR)","FM-15","7",,,,,,,,,,,,,,,,,,,,,,,,,,,,"2009-07-14"
"72202012839","2020-06-01T14:53:00","FM-15","7",,,,,,,,,,,,,,,,,,,,,,,,,,,,,,,,,,,,,,"30.03","73","89","0.00",,,,"59","30.03","SCT:04 34 SCT:04 180 BKN:07 250","30.00","10.00","78","080","20","14",,,,,,,,,,,,,,,,,,,,,,,,,,,,,,,,,,,,,"MET11606/01/20 14:53:02 METAR KMIA 011953Z 08012G17KT 10SM SCT034 SCT180 BKN250 32/23 A3003 RMK AO2 SLP170 T03170228 (RDR)","FM-15","7",,,,,,,,,,,,,,,,,,,,,,,,,,,,"2009-07-14"
"72202012839","2020-06-01T15:53:00","FM-15","7",,,,,,,,,,,,,,,,,,,,,,,,,,,,,,,,,,,,,,"30.03","73","87","0.00",,"+0.03","6","63","30.03","SCT:04 34 BKN:07 250","30.00","10.00","77","070","21","13",,,,,,,,,,,,,,,,,,,,,,,,,,,,,,,,,,,,,"MET11506/01/20 15:53:02 METAR KMIA 012053Z 07011G18KT 10SM SCT034 BKN250 31/23 A3003 RMK AO2 SLP169 T03060228 56009 (RDR)","FM-15","7",,,,,,,,,,,,,,,,,,,,,,,,,,,,"2009-07-14"
"72202012839","2020-06-01T16:00:00","FM-12","4",,,,,,,,,,,,,,,,,,,,,,,,,,,,,,,,,,,,,,,"73","87",,,"+0.03","6","63","30.03","41","30.00","9.94","77","070",,"13",,,,,,,,,,,,,,,,,,,,,,,,,,,,,,,,,,,,,"SYN07472202 32666 60711 10306 20228 30159 40169 56009 92053 333 91018 555 90121=","FM-12","4",,,,,,,,,,,,,,,,,,,,,,,,,,,,"2009-07-14"
"72202012839","2020-06-01T16:53:00","FM-15","7",,,,,,,,,,,,,,,,,,,,,,,,,,,,,,,,,,,,,,"30.03","73","85","0.00",,,,"68","30.03","SCT:04 33 SCT:04 110 BKN:07 250","30.00","10.00","77","080","21","14",,,,,,,,,,,,,,,,,,,,,,,,,,,,,,,,,,,,,"MET11606/01/20 16:53:02 METAR KMIA 012153Z 08012G18KT 10SM SCT033 SCT110 BKN250 29/23 A3003 RMK AO2 SLP168 T02940228 (RDR)","FM-15","7",,,,,,,,,,,,,,,,,,,,,,,,,,,,"2009-07-14"
"72202012839","2020-06-01T17:53:00","FM-15","7",,,,,,,,,,,,,,,,,,,,,,,,,,,,,,,,,,,,,,"30.03","71","84","0.00",,,,"65","30.03","FEW:02 30 SCT:04 130 BKN:07 250","30.00","10.00","75","090",,"16",,,,,,,,,,,,,,,,,,,,,,,,,,,,,,,,,,,,,"MET11306/01/20 17:53:02 METAR KMIA 012253Z 09014KT 10SM FEW030 SCT130 BKN250 29/22 A3003 RMK AO2 SLP169 T02890217 (RDR)","FM-15","7",,,,,,,,,,,,,,,,,,,,,,,,,,,,"2009-07-14"
"72202012839","2020-06-01T18:53:00","FM-15","7",,,,,,,,,,,,,,,,,,,,,,,,,,,,,,,,,,,,,,"30.04","73","83","0.00",,"-0.01","3","72","30.04","SCT:04 26 SCT:04 130 OVC:08 250","30.01","10.00","76","090",,"14",,,,,,,,,,,,,,,,,,,,,,,,,,,,,,,,,,,,,"MET13106/01/20 18:53:02 METAR KMIA 012353Z 09012KT 10SM SCT026 SCT130 OVC250 28/23 A3004 RMK AO2 SLP174 T02830228 10322 20283 53005 (RDR)","FM-15","7",,,,,,,,,,,,,,,,,,,,,,,,,,,,"2009-07-14"
"72202012839","2020-06-01T19:00:00","FM-12","4",,,,,,,,,,,,,,,,,,,,,,,,,,,,,,,,,,,,,,,"73","83",,,"-0.01","3","72","30.04","26","30.01","9.94","76","090",,"14",,,,,,,,,,,,,,,,,,,,,,,,,,,,,,,,,,,,,"SYN08072202 32566 80912 10283 20228 30163 40174 53005 92353 333 10322 20250 555 90200=","FM-12","4",,,,,,,,,,,,,,,,,,,,,,,,,,,,"2009-07-14"
"72202012839","2020-06-01T19:53:00","FM-15","7",,,,,,,,,,,,,,,,,,,,,,,,,,,,,,,,,,,,,,"30.06","73","83","0.00",,,,"72","30.06","FEW:02 26 OVC:08 250","30.03","10.00","76","080",,"10",,,,,,,,,,,,,,,,,,,,,,,,,,,,,,,,,,,,,"MET10006/01/20 19:53:01 METAR KMIA 020053Z 08009KT 10SM FEW026 OVC250 28/23 A3006 RMK AO2 SLP178 T02830228","FM-15","7",,,,,,,,,,,,,,,,,,,,,,,,,,,,"2009-07-14"
"72202012839","2020-06-01T20:53:00","FM-15","7",,,,,,,,,,,,,,,,,,,,,,,,,,,,,,,,,,,,,,"30.08","73","83","0.00",,,,"72","30.08","SCT:04 26 OVC:08 250","30.05","10.00","76","090",,"13",,,,,,,,,,,,,,,,,,,,,,,,,,,,,,,,,,,,,"MET10006/01/20 20:53:01 METAR KMIA 020153Z 09011KT 10SM SCT026 OVC250 28/23 A3008 RMK AO2 SLP186 T02830228","FM-15","7",,,,,,,,,,,,,,,,,,,,,,,,,,,,"2009-07-14"
"72202012839","2020-06-01T21:53:00","FM-15","7",,,,,,,,,,,,,,,,,,,,,,,,,,,,,,,,,,,,,,"30.09","73","82","0.00",,"-0.04","1","74","30.09","FEW:02 30 SCT:04 90 OVC:08 250","30.06","10.00","76","090",,"11",,,,,,,,,,,,,,,,,,,,,,,,,,,,,,,,,,,,,"MET11306/01/20 21:53:02 METAR KMIA 020253Z 09010KT 10SM FEW030 SCT090 OVC250 28/23 A3009 RMK AO2 SLP189 T02780228 51015","FM-15","7",,,,,,,,,,,,,,,,,,,,,,,,,,,,"2009-07-14"
"72202012839","2020-06-01T22:00:00","FM-12","4",,,,,,,,,,,,,,,,,,,,,,,,,,,,,,,,,,,,,,,"73","82",,,"-0.04","1","74","30.09","26","30.06","9.94","76","090",,"11",,,,,,,,,,,,,,,,,,,,,,,,,,,,,,,,,,,,,"SYN06472202 32566 80910 10278 20228 30179 40189 51015 90253 555 90203=","FM-12","4",,,,,,,,,,,,,,,,,,,,,,,,,,,,"2009-07-14"
"72202012839","2020-06-01T22:53:00","FM-15","7",,,,,,,,,,,,,,,,,,,,,,,,,,,,,,,,,,,,,,"30.08","72","82","0.00",,,,"72","30.08","FEW:02 30 SCT:04 120 BKN:07 250","30.05","10.00","75","090",,"9",,,,,,,,,,,,,,,,,,,,,,,,,,,,,,,,,,,,,"MET10706/01/20 22:53:02 METAR KMIA 020353Z 09008KT 10SM FEW030 SCT120 BKN250 28/22 A3008 RMK AO2 SLP187 T02780222","FM-15","7",,,,,,,,,,,,,,,,,,,,,,,,,,,,"2009-07-14"
"72202012839","2020-06-01T23:53:00","FM-15","7",,,,,,,,,,,,,,,,,,,,,,,,,,,,,,,,,,,,,,"30.07","70","81","0.00",,,,"69","30.07","BKN:07 250","30.04","10.00","74","090",,"9",,,,,,,,,,,,,,,,,,,,,,,,,,,,,,,,,,,,,"MET10306/01/20 23:53:02 METAR KMIA 020453Z 09008KT 10SM BKN250 27/21 A3007 RMK AO2 SLP184 T02720211 403220250","FM-15","7",,,,,,,,,,,,,,,,,,,,,,,,,,,,"2009-07-14"
"72202012839","2020-06-01T23:59:00","SOD  ","6",,,,,,,,,,,,,,,"73","84","70","30.04","30.00","76","7.3","19","2.1","0","90","77","120","21","0.00",,,"100","17",,,,,,,,,,,,,,,,,,,,,,,,,,,,,,,,,,,,,,,,,,,,,,,,,,,,,,,,,"SOD73924 HR PRECIPITATION (IN): 0.00 SNOW DEPTH (IN):0     24 HR SNOWFALL (IN):0.0  24 HR MAX TEMP (F): 9024 HR MIN TEMP (F): 77AVERAGE STATION PRESSURE:30.000 MINIMUM SEA LEVEL PRESSURE:29.99 TIME OF OCCURRENCE:0336 PEAK WIND SPEED (MPH): 21 PEAK WIND DIR (DEG):120 PEAK WIND TIME (LST):      FASTEST 2MIN SPEED (MPH): 17FASTEST 2MIN DIR (DEG):100 FASTEST 2MIN TIME (LST):     AVERAGE WIND SPEED (MPH): 7.3 24 HR AVG TEMP (F): 84DEPART FROM NORMAL:  2  HEATING DEGREE DAYS:  0 COOLING DEGREE DAYS: 19 LATEST DAY MAX TEMP (0700-1900 LST):90  LATEST NIGHT MIN TEMP(1900-0800 LST):77 HOURLY INCREMENTAL PRECIPITATION VALUES (IN):.00 0.00 0.00 0.00 0.00 0.00 0.00 0.00 0.00 0.00 0.00 0.00 0.00 0.00 0.00 0.00 0.00 0.00 0.00 0.00 0.00 0.00 0.00 0.00","SOD  ","6",,,,,,,,,,,,,,,,,,,,,,,,,"0530","1909",,"2009-07-14"
"72202012839","2020-06-02T00:53:00","FM-15","7",,,,,,,,,,,,,,,,,,,,,,,,,,,,,,,,,,,,,,"30.06","69","81","0.00",,"+0.03","8","67","30.06","BKN:07 120 BKN:07 250","30.03","10.00","73","080",,"7",,,,,,,,,,,,,,,,,,,,,,,,,,,,,,,,,,,,,"MET12306/02/20 00:53:02 METAR KMIA 020553Z 08006KT 10SM BKN120 BKN250 27/21 A3006 RMK AO2 SLP178 T02720206 10283 20272 58011 (AM)","FM-15","7",,,,,,,,,,,,,,,,,,,,,,,,,,,,"2009-07-14"
"72202012839","2020-06-02T01:00:00","FM-12","4",,,,,,,,,,,,,,,,,,,,,,,,,,,,,,,,,,,,,,,"69","81",,,"+0.03","8","67","30.06",,"30.03","9.94","73","080",,"7",,,,,,,,,,,,,,,,,,,,,,,,,,,,,,,,,,,,,"SYN08072202 32966 60806 10272 20206 30169 40178 58011 90553 333 10283 20250 555 90206=","FM-12","4",,,,,,,,,,,,,,,,,,,,,,,,,,,,"2009-07-14"
"72202012839","2020-06-02T01:53:00","FM-15","7",,,,,,,,,,,,,,,,,,,,,,,,,,,,,,,,,,,,,,"30.05","72","80","0.00",,,,"76","30.04","FEW:02 30 BKN:07 120 OVC:08 250","30.02","10.00","75","090",,"6",,,,,,,,,,,,,,,,,,,,,,,,,,,,,,,,,,,,,"MET11206/02/20 01:53:02 METAR KMIA 020653Z 09005KT 10SM FEW030 BKN120 OVC250 27/22 A3005 RMK AO2 SLP174 T02670222 (AM)","FM-15","7",,,,,,,,,,,,,,,,,,,,,,,,,,,,"2009-07-14"
"72202012839","2020-06-02T02:53:00","FM-15","7",,,,,,,,,,,,,,,,,,,,,,,,,,,,,,,,,,,,,,"30.04","73","81","0.00",,,,"77","30.04","FEW:02 22 BKN:07 250","30.01","10.00","75","090",,"8",,,,,,,,,,,,,,,,,,,,,,,,,,,,,,,,,,,,,"MET10506/02/20 02:53:02 METAR KMIA 020753Z 09007KT 10SM FEW022 BKN250 27/23 A3004 RMK AO2 SLP172 T02720228 (AM)","FM-15","7",,,,,,,,,,,,,,,,,,,,,,,,,,,,"2009-07-14"
"72202012839","2020-06-02T03:53:00","FM-15","7",,,,,,,,,,,,,,,,,,,,,,,,,,,,,,,,,,,,,,"30.04","73","81","0.00",,"+0.02","6","77","30.04","SCT:04 27 BKN:07 250","30.01","10.00","75","090",,"10",,,,,,,,,,,,,,,,,,,,,,,,,,,,,,,,,,,,,"MET11106/02/20 03:53:02 METAR KMIA 020853Z 09009KT 10SM SCT027 BKN250 27/23 A3004 RMK AO2 SLP172 T02720228 56006 (AM)","FM-15","7",,,,,,,,,,,,,,,,,,,,,,,,,,,,"2009-07-14"
"72202012839","2020-06-02T04:00:00","FM-12","4",,,,,,,,,,,,,,,,,,,,,,,,,,,,,,,,,,,,,,,"73","81",,,"+0.02","6","77","30.04","26","30.01","9.94","75","090",,"10",,,,,,,,,,,,,,,,,,,,,,,,,,,,,,,,,,,,,"SYN06472202 32566 60909 10272 20228 30163 40172 56006 90853 555 90209=","FM-12","4",,,,,,,,,,,,,,,,,,,,,,,,,,,,"2009-07-14"
"72202012839","2020-06-02T04:53:00","FM-15","7",,,,,,,,,,,,,,,,,,,,,,,,,,,,,,,,,,,,,,"30.03","73","81","0.00",,,,"77","30.03","FEW:02 25 BKN:07 250","30.00","10.00","75","090",,"8",,,,,,,,,,,,,,,,,,,,,,,,,,,,,,,,,,,,,"MET10506/02/20 04:53:02 METAR KMIA 020953Z 09007KT 10SM FEW025 BKN250 27/23 A3003 RMK AO2 SLP170 T02720228 (AM)","FM-15","7",,,,,,,,,,,,,,,,,,,,,,,,,,,,"2009-07-14"
"72202012839","2020-06-02T05:53:00","FM-15","7",,,,,,,,,,,,,,,,,,,,,,,,,,,,,,,,,,,,,,"30.05","73","81","0.00",,,,"77","30.05","SCT:04 23 BKN:07 250","30.02","10.00","75","080",,"10",,,,,,,,,,,,,,,,,,,,,,,,,,,,,,,,,,,,,"MET10606/02/20 05:53:02 METAR KMIA 021053Z 08009KT 10SM SCT023 BKN250 27/23 A3005 RMK AO2 SLP177 T02720228 (RLW)","FM-15","7",,,,,,,,,,,,,,,,,,,,,,,,,,,,"2009-07-14"
"72202012839","2020-06-02T06:53:00","FM-15","7",,,,,,,,,,,,,,,,,,,,,,,,,,,,,,,,,,,,,,"30.07","74","82","0.00",,"-0.03","3","77","30.06","SCT:04 22 BKN:07 250","30.04","10.00","76","090",,"9",,,,,,,,,,,,,,,,,,,,,,,,,,,,,,,,,,,,,"MET12406/02/20 06:53:02 METAR KMIA 021153Z 09008KT 10SM SCT022 BKN250 28/23 A3007 RMK AO2 SLP181 T02780233 10278 20267 53009 (RLW)","FM-15","7",,,,,,,,,,,,,,,,,,,,,,,,,,,,"2009-07-14"
"72202012839","2020-06-02T07:00:00","FM-12","4",,,,,,,,,,,,,,,,,,,,,,,,,,,,,,,,,,,,,,,"74","82",,,"-0.03","3","77","30.06","26","30.04","9.94","76","090",,"9",,,,,,,,,,,,,,,,,,,,,,,,,,,,,,,,,,,,,"SYN08072202 32566 60908 10278 20233 30173 40181 53009 91153 333 10322 20267 555 90212=","FM-12","4",,,,,,,,,,,,,,,,,,,,,,,,,,,,"2009-07-14"
"72202012839","2020-06-02T07:53:00","FM-15","7",,,,,,,,,,,,,,,,,,,,,,,,,,,,,,,,,,,,,,"30.08","74","84","0.00",,,,"72","30.08","SCT:04 24 BKN:07 250","30.05","10.00","77","110",,"10",,,,,,,,,,,,,,,,,,,,,,,,,,,,,,,,,,,,,"MET10606/02/20 07:53:02 METAR KMIA 021253Z 11009KT 10SM SCT024 BKN250 29/23 A3008 RMK AO2 SLP186 T02890233 (RLW)","FM-15","7",,,,,,,,,,,,,,,,,,,,,,,,,,,,"2009-07-14"
"72202012839","2020-06-02T08:53:00","FM-15","7",,,,,,,,,,,,,,,,,,,,,,,,,,,,,,,,,,,,,,"30.09","73","86","0.00",,,,"65","30.09","SCT:04 25 BKN:07 250","30.06","10.00","77","110",,"10",,,,,,,,,,,,,,,,,,,,,,,,,,,,,,,,,,,,,"MET10606/02/20 08:53:02 METAR KMIA 021353Z 11009KT 10SM SCT025 BKN250 30/23 A3009 RMK AO2 SLP190 T03000228 (RLW)","FM-15","7",,,,,,,,,,,,,,,,,,,,,,,,,,,,"2009-07-14"
"72202012839","2020-06-02T09:26:00","FM-16","7",,,,,,,,,,,,,,,,,,,,,,,,,,,,,,,,,,,,,,"30.09","74","86",,,,,"67",,"BKN:07 26 BKN:07 36 BKN:07 60","30.06","10.00","78","090",,"14",,,,,,,,,,,,,,,,,,,,,,,,,,,,,,,,,,,,,"MET10606/02/20 09:26:02 SPECI KMIA 021426Z 09012KT 10SM BKN026 BKN036 BKN060 30/23 A3009 RMK AO2 T03000233 (RLW)","FM-16","7",,,,,,,,,,,,,,,,,,,,,,,,,,,,"2009-07-14"
"72202012839","2020-06-02T09:37:00","FM-16","7",,,,,,,,,,,,,,,,,,,,,,,,,,,,,,,,,,,,,,"30.09","73","86",,,,,"65",,"SCT:04 27 SCT:04 38 BKN:07 250","30.06","10.00","77","100",,"14",,,,,,,,,,,,,,,,,,,,,,,,,,,,,,,,,,,,,"MET10606/02/20 09:37:02 SPECI KMIA 021437Z 10012KT 10SM SCT027 SCT038 BKN250 30/23 A3009 RMK AO2 T03000228 (RLW)","FM-16","7",,,,,,,,,,,,,,,,,,,,,,,,,,,,"2009-07-14"
"72202012839","2020-06-02T09:53:00","FM-15","7",,,,,,,,,,,,,,,,,,,,,,,,,,,,,,,,,,,,,,"30.09","74","86","0.00",,"-0.02","0","67","30.09","SCT:04 26 SCT:04 47 BKN:07 250","30.06","10.00","78","100",,"11",,,,,,,,,,,,,,,,,,,,,,,,,,,,,,,,,,,,,"MET11906/02/20 09:53:02 METAR KMIA 021453Z 10010KT 10SM SCT026 SCT047 BKN250 30/23 A3009 RMK AO2 SLP189 T03000233 50008 (RLW)","FM-15","7",,,,,,,,,,,,,,,,,,,,,,,,,,,,"2009-07-14"
"72202012839","2020-06-02T10:00:00","FM-12","4",,,,,,,,,,,,,,,,,,,,,,,,,,,,,,,,,,,,,,,"74","86",,,"0.02","9","67","30.09","26","30.06","9.94","78","100",,"11",,,,,,,,,,,,,,,,,,,,,,,,,,,,,,,,,,,,,"SYN06472202 32566 61010 10300 20233 30179 40189 50008 91453 555 90215=","FM-12","4",,,,,,,,,,,,,,,,,,,,,,,,,,,,"2009-07-14"
"72202012839","2020-06-02T10:53:00","FM-15","7",,,,,,,,,,,,,,,,,,,,,,,,,,,,,,,,,,,,,,"30.09","73","84","0.00",,,,"70","30.09","FEW:02 26 BKN:07 39 BKN:07 60","30.06","10.00","76","110",,"14",,,,,,,,,,,,,,,,,,,,,,,,,,,,,,,,,,,,,"MET11306/02/20 10:53:02 METAR KMIA 021553Z 11012KT 10SM FEW026 BKN039 BKN060 29/23 A3009 RMK AO2 SLP189 T02890228 (RLW)","FM-15","7",,,,,,,,,,,,,,,,,,,,,,,,,,,,"2009-07-14"
"72202012839","2020-06-02T11:53:00","FM-15","7",,,,,,,,,,,,,,,,,,,,,,,,,,,,,,,,,,,,,,"30.08","74","85","0.00",,,,"70","30.08","SCT:04 22 BKN:07 30","30.05","10.00","77","130",,"13",,,,,,,,,,,,,,,,,,,,,,,,,,,,,,,,,,,,,"MET12306/02/20 11:53:02 METAR KMIA 021653Z 13011KT 10SM SCT022TCU BKN030 BKN 29/23 A3008 RMK AO2 SLP186 TCU SE-SW T02940233 (RLW)","FM-15","7",,,,,,,,,,,,,,,,,,,,,,,,,,,,"2009-07-14"
"72202012839","2020-06-02T12:53:00","FM-15","7",,,,,,,,,,,,,,,,,,,,,,,,,,,,,,,,,,,,,,"30.06","73","87","T",,"+0.03","8","63","30.06","FEW:02 22 SCT:04 26 BKN:07 50","30.03","10.00","77","120",,"15",,,,,,,,,,,,,,,,,,,,,,,,,,,,,,,,,,,,,"MET15206/02/20 12:53:02 METAR KMIA 021753Z 12013KT 10SM FEW022 SCT026 BKN050 31/23 A3006 RMK AO2 RAB16E25 SLP179 P0000 60000 T03060228 10311 20278 58010 (RLW)","FM-15","7",,,,,,,,,,,,,,,,,,,,,,,,,,,,"2009-07-14"
"72202012839","2020-06-02T13:00:00","FM-12","4",,,,,,,,,,,,,,,,,,,,,,,,,,,,,,,,,,,,,,,"73","87",,,"+0.03","8","63","30.06","26","30.03","9.94","77","120",,"15",,,,,,,,,,,,,,,,,,,,,,,,,,,,,,,,,,,,,"SYN08672202 12566 61213 10306 20228 30169 40179 58010 69901 91753 333 10311 20278 555 90218=","FM-12","4",,,,,,,,,,,,,,,,,,,,,,,,,,,,"2009-07-14"
"72202012839","2020-06-02T13:53:00","FM-15","7",,,,,,,,,,,,,,,,,,,,,,,,,,,,,,,,,,,,,,"30.05","76","80","0.07","-RA:02 |RA |RA",,,"87","30.05","SCT:04 26 BKN:07 34 OVC:08 250","30.02","10.00","77","120",,"13",,,,,,,,,,,,,,,,,,,,,,,,,,,,,,,,,,,,,"MET14606/02/20 13:53:02 METAR KMIA 021853Z 12011KT 10SM R09/2400VP6000FT -RA SCT026 BKN034 OVC250 27/24 A3005 RMK AO2 RAB43 SLP176 P0004 T02670244 (RDR)","FM-15","7",,,,,,,,,,,,,,,,,,,,,,,,,,,,"2009-07-14"
"72202012839","2020-06-02T14:53:00","FM-15","7",,,,,,,,,,,,,,,,,,,,,,,,,,,,,,,,,,,,,,"30.04","75","82","T",,,,"79","30.03","SCT:04 21 BKN:07 40","30.01","10.00","77","080",,"16",,,,,,,,,,,,,,,,,,,,,,,,,,,,,,,,,,,,,"MET13606/02/20 14:53:02 METAR KMIA 021953Z 08014KT 10SM SCT021CB BKN040 BKN0 28/24 A3004 RMK AO2 SLP171 CB NW-NE-E MOV W P0003 T02780239 (RDR)","FM-15","7",,,,,,,,,,,,,,,,,,,,,,,,,,,,"2009-07-14"
"72202012839","2020-06-02T15:53:00","FM-15","7",,,,,,,,,,,,,,,,,,,,,,,,,,,,,,,,,,,,,,"30.02","76","79","0.02","|RA |RA","+0.04","8","90","30.02","FEW:02 21 SCT:04 40","29.99","10.00","77","130",,"8",,,,,,,,,,,,,,,,,,,,,,,,,,,,,,,,,,,,,"MET18706/02/20 15:53:02 METAR KMIA 022053Z 13007KT 10SM -RA FEW021CB SCT040 BKN0 26/24 A3002 RMK AO2 RAE1954B18 SLP166 CB SE-SW MOV W CB DSNT NE-E AND NW MOV W P0002 60009 T02610244 58014 (RDR)","FM-15","7",,,,,,,,,,,,,,,,,,,,,,,,,,,,"2009-07-14"
"72202012839","2020-06-02T16:00:00","FM-12","4",,,,,,,,,,,,,,,,,,,,,,,,,,,,,,,,,,,,,,,"76","79",,"||RA","+0.04","8","90","30.02","26","29.99","9.94","77","130",,"8",,,,,,,,,,,,,,,,,,,,,,,,,,,,,,,,,,,,,"SYN07672202 11566 81307 10261 20244 30156 40166 58014 60027 761// 92053 555 90221=","FM-12","4",,,,,,,,,,,,,,,,,,,,,,,,,,,,"2009-07-14"
"72202012839","2020-06-02T16:53:00","FM-15","7",,,,,,,,,,,,,,,,,,,,,,,,,,,,,,,,,,,,,,"30.02","75","81","0.00",,,,"82","30.02","FEW:02 21 FEW:02 55 SCT:04 110","29.99","10.00","77","090",,"9",,,,,,,,,,,,,,,,,,,,,,,,,,,,,,,,,,,,,"MET14606/02/20 16:53:02 METAR KMIA 022153Z 09008KT 10SM FEW021 FEW055 SCT110 27/24 A3002 RMK AO2 RAE2058 SLP165 CB DSNT NE-E MOV W P0000 T02720239 (RDR)","FM-15","7",,,,,,,,,,,,,,,,,,,,,,,,,,,,"2009-07-14"
"72202012839","2020-06-02T17:53:00","FM-15","7",,,,,,,,,,,,,,,,,,,,,,,,,,,,,,,,,,,,,,"30.02","74","78","0.19","+RA:02 BR:1 |RA |RA",,,"87","30.02","FEW:02 19 SCT:04 28","29.99","3.00","75","070","24","14",,,,,,,,,,,,,,,,,,,,,,,,,,,,,,,,,,,,,"MET16406/02/20 17:53:02 METAR KMIA 022253Z 07012G21KT 3SM R09/2600VP6000FT +RA BR FEW019 SCT028CB BKN0 26/23 A3002 RMK AO2 RAB45 SLP166 CB OHD MOV W P0009 T02560233 (RDR)","FM-15","7",,,,,,,,,,,,,,,,,,,,,,,,,,,,"2009-07-14"
"72202012839","2020-06-02T18:53:00","FM-15","7",,,,,,,,,,,,,,,,,,,,,,,,,,,,,,,,,,,,,,"30.03","76","80","T",,"-0.01","3","87","30.03","FEW:02 22 FEW:02 40 SCT:04 110","30.00","10.00","77","060",,"8",,,,,,,,,,,,,,,,,,,,,,,,,,,,,,,,,,,,,"MET14906/02/20 18:53:02 METAR KMIA 022353Z 06007KT 10SM FEW022 FEW040 SCT110 27/24 A3003 RMK AO2 RAE23 SLP168 P0010 60028 T02670244 10317 20250 53003 (RDR)","FM-15","7",,,,,,,,,,,,,,,,,,,,,,,,,,,,"2009-07-14"
"72202012839","2020-06-02T19:00:00","FM-12","4",,,,,,,,,,,,,,,,,,,,,,,,,,,,,,,,,,,,,,,"76","80",,,"-0.01","3","87","30.03","26","30.00","9.94","77","060",,"8",,,,,,,,,,,,,,,,,,,,,,,,,,,,,,,,,,,,,"SYN08672202 12566 80607 10267 20244 30159 40168 53003 60071 92353 333 10317 20250 555 90300=","FM-12","4",,,,,,,,,,,,,,,,,,,,,,,,,,,,"2009-07-14"
"72202012839","2020-06-02T19:53:00","FM-15","7",,,,,,,,,,,,,,,,,,,,,,,,,,,,,,,,,,,,,,"30.05","76","80","0.00",,,,"87","30.05","FEW:02 22 SCT:04 40 SCT:04 80","30.02","10.00","77","090",,"10",,,,,,,,,,,,,,,,,,,,,,,,,,,,,,,,,,,,,"MET14006/02/20 19:53:01 METAR KMIA 030053Z 09009KT 10SM FEW022 SCT040 SCT080 27/24 A3005 RMK AO2 LTG DSNT S SLP175 CB DSNT NE-SE-S MOV W T02670244","FM-15","7",,,,,,,,,,,,,,,,,,,,,,,,,,,,"2009-07-14"
"72202012839","2020-06-02T20:53:00","FM-15","7",,,,,,,,,,,,,,,,,,,,,,,,,,,,,,,,,,,,,,"30.05","74","79","0.01","-RA:02 |RA |RA",,,"85","30.05","SCT:04 23 BKN:07 37 OVC:08 130","30.02","5.00","76","140",,"8",,,,,,,,,,,,,,,,,,,,,,,,,,,,,,,,,,,,,"MET14906/02/20 20:53:01 METAR KMIA 030153Z 14007KT 5SM -RA SCT023CB BKN037 OVC130 26/23 A3005 RMK AO2 LTG DSNT SW RAB51 SLP177 CB OHD MOV W P0001 T02610233","FM-15","7",,,,,,,,,,,,,,,,,,,,,,,,,,,,"2009-07-14"
"72202012839","2020-06-02T20:56:00","FM-16","7",,,,,,,,,,,,,,,,,,,,,,,,,,,,,,,,,,,,,,"30.06","74","79","T","RA:02 |RA |RA",,,"85",,"SCT:04 23 BKN:07 37 OVC:08 130","30.03","2.50","76","110",,"8",,,,,,,,,,,,,,,,,,,,,,,,,,,,,,,,,,,,,"MET12706/02/20 20:56:01 SPECI KMIA 030156Z 11007KT 2 1/2SM RA SCT023CB BKN037 OVC130 26/23 A3006 RMK AO2 CB OHD MOV W P0000 T02610233","FM-16","7",,,,,,,,,,,,,,,,,,,,,,,,,,,,"2009-07-14"
"72202012839","2020-06-02T21:02:00","FM-16","7",,,,,,,,,,,,,,,,,,,,,,,,,,,,,,,,,,,,,,"30.05","74","79","T","-RA:02 |RA |RA",,,"85",,"SCT:04 23 BKN:07 37 OVC:08 130","30.02","5.00","76","100",,"7",,,,,,,,,,,,,,,,,,,,,,,,,,,,,,,,,,,,,"MET12406/02/20 21:02:01 SPECI KMIA 030202Z 10006KT 5SM -RA SCT023CB BKN037 OVC130 26/23 A3005 RMK AO2 CB NW MOV NW P0000 T02610233","FM-16","7",,,,,,,,,,,,,,,,,,,,,,,,,,,,"2009-07-14"
"72202012839","2020-06-02T21:34:00","FM-16","7",,,,,,,,,,,,,,,,,,,,,,,,,,,,,,,,,,,,,,"30.07","74","78","T","||RA",,,"87",,"FEW:02 23 BKN:07 60 BKN:07 120","30.04","10.00","75","060",,"5",,,,,,,,,,,,,,,,,,,,,,,,,,,,,,,,,,,,,"MET17206/02/20 21:34:01 SPECI KMIA 030234Z 06004KT 10SM VCTS FEW023 BKN060 BKN120 26/23 A3007 RMK AO2 LTG DSNT SE RAE07 OCNL LTGICCC DSNT E-SE CB DSNT E-SE MOV NW P0000 T02560233","FM-16","7",,,,,,,,,,,,,,,,,,,,,,,,,,,,"2009-07-14"
"72202012839","2020-06-02T21:47:00","FM-16","7",,,,,,,,,,,,,,,,,,,,,,,,,,,,,,,,,,,,,,"30.08","73","79","T","|TS |RA",,,"84",,"FEW:02 23 BKN:07 60","30.05","10.00","75","040",,"5",,,,,,,,,,,,,,,,,,,,,,,,,,,,,,,,,,,,,"MET16206/02/20 21:47:01 SPECI KMIA 030247Z 04004KT 10SM TS FEW023CB BKN060 BKN1 26/23 A3008 RMK AO2 LTG DSNT E AND SE RAE07 TSB47 OCNL LTGICCC E-SE TS E-SE MOV NW P0000","FM-16","7",,,,,,,,,,,,,,,,,,,,,,,,,,,,"2009-07-14"
"72202012839","2020-06-02T21:53:00","FM-15","7",,,,,,,,,,,,,,,,,,,,,,,,,,,,,,,,,,,,,,"30.08","74","78","T","|TS |RA","-0.05","3","87","30.08","FEW:02 23 BKN:07 60","30.05","10.00","75","040",,"3",,,,,,,,,,,,,,,,,,,,,,,,,,,,,,,,,,,,,"MET19106/02/20 21:53:01 METAR KMIA 030253Z 04003KT 10SM TS FEW023CB BKN060 BKN1 26/23 A3008 RMK AO2 LTG DSNT E AND SE RAE07 TSB47 SLP186 OCNL LTGICCC E-SE TS E-SE MOV NW P0000 60001 T02560233 53018","FM-15","7",,,,,,,,,,,,,,,,,,,,,,,,,,,,"2009-07-14"
"72202012839","2020-06-02T22:00:00","FM-12","4",,,,,,,,,,,,,,,,,,,,,,,,,,,,,,,,,,,,,,,"74","78",,"||TS","-0.05","3","87","30.08","26","30.05","9.94","75","040",,"3",,,,,,,,,,,,,,,,,,,,,,,,,,,,,,,,,,,,,"SYN07672202 11566 60403 10256 20233 30176 40186 53018 69937 795// 90253 555 90303=","FM-12","4",,,,,,,,,,,,,,,,,,,,,,,,,,,,"2009-07-14"
"72202012839","2020-06-02T22:24:00","FM-16","7",,,,,,,,,,,,,,,,,,,,,,,,,,,,,,,,,,,,,,"30.07","74","78",,,,,"87",,"BKN:07 36 BKN:07 65 BKN:07 120","30.04","10.00","75","080",,"6",,,,,,,,,,,,,,,,,,,,,,,,,,,,,,,,,,,,,"MET13206/02/20 22:24:02 SPECI KMIA 030324Z 08005KT 10SM BKN036 BKN065 BKN120 26/23 A3007 RMK AO2 LTG DSNT N TSE24 CB E-SE DSIPTD T02560233","FM-16","7",,,,,,,,,,,,,,,,,,,,,,,,,,,,"2009-07-14"
"72202012839","2020-06-02T22:53:00","FM-15","7",,,,,,,,,,,,,,,,,,,,,,,,,,,,,,,,,,,,,,"30.07","74","78","0.00",,,,"87","30.07","FEW:02 21 FEW:02 30 BKN:07 95","30.04","10.00","75","050",,"6",,,,,,,,,,,,,,,,,,,,,,,,,,,,,,,,,,,,,"MET12606/02/20 22:53:02 METAR KMIA 030353Z 05005KT 10SM FEW021 FEW030 BKN095 26/23 A3007 RMK AO2 LTG DSNT N TSE24 SLP183 T02560233 $","FM-15","7",,,,,,,,,,,,,,,,,,,,,,,,,,,,"2009-07-14"
"72202012839","2020-06-02T23:09:00","FM-16","7",,,,,,,,,,,,,,,,,,,,,,,,,,,,,,,,,,,,,,"30.06","75","78",,,,,"90",,"FEW:02 7 FEW:02 33 BKN:07 90","30.03","10.00","76","090",,"6",,,,,,,,,,,,,,,,,,,,,,,,,,,,,,,,,,,,,"MET13206/02/20 23:09:02 SPECI KMIA 030409Z 09005KT 10SM FEW007 FEW033 BKN090 26/24 A3006 RMK AO2 OCNL LTGICCC DSNT N CB DSNT N T02560239 $","FM-16","7",,,,,,,,,,,,,,,,,,,,,,,,,,,,"2009-07-14"
"72202012839","2020-06-02T23:53:00","FM-15","7",,,,,,,,,,,,,,,,,,,,,,,,,,,,,,,,,,,,,,"30.04","74","77","T",,,,"90","30.04","FEW:02 20 FEW:02 50 BKN:07 80","30.01","10.00","75","000",,"0",,,,,,,,,,,,,,,,,,,,,,,,,,,,,,,,,,,,,"MET13406/02/20 23:53:02 METAR KMIA 030453Z 00000KT 10SM FEW020 FEW050 BKN080 25/23 A3004 RMK AO2 RAB15E25 SLP173 P0000 T02500233 403170244 $","FM-15","7",,,,,,,,,,,,,,,,,,,,,,,,,,,,"2009-07-14"
"72202012839","2020-06-02T23:59:00","SOD  ","6",,,,,,,,,,,,,,,"74","83","79","30.05","30.01","76","9.5","18","1.0","0","89","76","090","27","0.29",,,"100","23","RA BR TS",,,,,,,,,,,,,,,,,,,,,,,,,,,,,,,,,,,,,,,,,,,,,,,,,,,,,,,,"SOD75424 HR PRECIPITATION (IN): 0.29 SNOW DEPTH (IN):0     24 HR SNOWFALL (IN):0.0  WEATHER(CODE):13  24 HR MAX TEMP (F): 8924 HR MIN TEMP (F): 76AVERAGE STATION PRESSURE:30.015 MINIMUM SEA LEVEL PRESSURE:30.01 TIME OF OCCURRENCE:1819 PEAK WIND SPEED (MPH): 27 PEAK WIND DIR (DEG): 90 PEAK WIND TIME (LST):      FASTEST 2MIN SPEED (MPH): 23FASTEST 2MIN DIR (DEG):100 FASTEST 2MIN TIME (LST):     AVERAGE WIND SPEED (MPH): 9.5 24 HR AVG TEMP (F): 83DEPART FROM NORMAL:  1  HEATING DEGREE DAYS:  0 COOLING DEGREE DAYS: 18 LATEST DAY MAX TEMP (0700-1900 LST):89  LATEST NIGHT MIN TEMP(1900-0800 LST):80 HOURLY INCREMENTAL PRECIPITATION VALUES (IN):.00 0.00 0.00 0.00 0.00 0.00 0.00 0.00 0.00 0.00 0.00 0.00 T    0.07 T    0.02 0.00 0.19 T    0.00 0.01 T    0.00 T","SOD  ","6",,,,,,,,,,,,,,,,,,,,,,,,,"0530","1909",,"2009-07-14"
"72202012839","2020-06-03T00:53:00","FM-15","7",,,,,,,,,,,,,,,,,,,,,,,,,,,,,,,,,,,,,,"30.02","73","77","0.00",,"+0.06","8","88","30.02","SCT:04 28 SCT:04 45 BKN:07 120","29.99","10.00","74","030",,"3",,,,,,,,,,,,,,,,,,,,,,,,,,,,,,,,,,,,,"MET17906/03/20 00:53:02 METAR KMIA 030553Z 03003KT 10SM SCT028 SCT045 BKN120 25/23 A3002 RMK AO2 LTG DSNT N SLP167 OCNL LTGICCC DSNT N CB DSNT N 60001 T02500228 10267 20244 58019 $ (AM)","FM-15","7",,,,,,,,,,,,,,,,,,,,,,,,,,,,"2009-07-14"
"72202012839","2020-06-03T01:00:00","FM-12","4",,,,,,,,,,,,,,,,,,,,,,,,,,,,,,,,,,,,,,,"73","77",,,"+0.06","8","88","30.02","26","29.99","9.94","74","030",,"3",,,,,,,,,,,,,,,,,,,,,,,,,,,,,,,,,,,,,"SYN08672202 12566 80303 10250 20228 30156 40167 58019 69931 90553 333 10278 20244 555 90306=","FM-12","4",,,,,,,,,,,,,,,,,,,,,,,,,,,,"2009-07-14"
"72202012839","2020-06-03T01:53:00","FM-15","7",,,,,,,,,,,,,,,,,,,,,,,,,,,,,,,,,,,,,,"30.01","74","77","0.00",,,,"90","30.01","FEW:02 27 FEW:02 45","29.98","10.00","75","000",,"0",,,,,,,,,,,,,,,,,,,,,,,,,,,,,,,,,,,,,"MET13206/03/20 01:53:02 METAR KMIA 030653Z 00000KT 10SM FEW027TCU FEW045 BKN 25/23 A3001 RMK AO2 LTG DSNT N SLP161 TCU SE T02500233 $ (AM)","FM-15","7",,,,,,,,,,,,,,,,,,,,,,,,,,,,"2009-07-14"
"72202012839","2020-06-03T02:25:00","FM-16","7",,,,,,,,,,,,,,,,,,,,,,,,,,,,,,,,,,,,,,"30.01","75","77",,"|TS |RA",,,"94",,"SCT:04 20 BKN:07 35","29.98","10.00","76","000",,"0",,,,,,,,,,,,,,,,,,,,,,,,,,,,,,,,,,,,,"MET16206/03/20 02:25:02 SPECI KMIA 030725Z 00000KT 10SM TS SCT020CB BKN035 BKN1 25/24 A3001 RMK AO2 LTG DSNT N TSB25 OCNL LTGICCG NE-SE TS NE-SE MOV NW T02500239 $ (AM)","FM-16","7",,,,,,,,,,,,,,,,,,,,,,,,,,,,"2009-07-14"
"72202012839","2020-06-03T02:34:00","FM-16","7",,,,,,,,,,,,,,,,,,,,,,,,,,,,,,,,,,,,,,"30.01","75","78","T","|TS |RA",,,"90",,"BKN:07 20 BKN:07 35","29.98","5.00","76","080",,"11",,,,,,,,,,,,,,,,,,,,,,,,,,,,,,,,,,,,,"MET22406/03/20 02:34:02 SPECI KMIA 030734Z 08010KT 5SM R09/3000VP6000FT -TSRA BR BKN020CB BKN035 BKN1 26/24 A3001 RMK AO2 LTG DSNT N RAB33 TSB25 OCNL LTGICCG NE-SE AND DSNT S TS NE-SE MOV NW CB DSNT S MOV NW P0000 T02560239 $ (AM)","FM-16","7",,,,,,,,,,,,,,,,,,,,,,,,,,,,"2009-07-14"
"72202012839","2020-06-03T02:51:00","FM-16","7",,,,,,,,,,,,,,,,,,,,,,,,,,,,,,,,,,,,,,"30.01","73","77","0.16","TS:7 RA:02 BR:1 |RA TS |RA",,,"89",,"BKN:07 20 BKN:07 35 OVC:08 90","29.98","2.00","74","130","20","11",,,,,,,,,,,,,,,,,,,,,,,,,,,,,,,,,,,,,"MET22006/03/20 02:51:02 SPECI KMIA 030751Z 13010G17KT 2SM R09/2600VP6000FT TSRA BR BKN020CB BKN035 OVC090 25/23 A3001 RMK AO2 LTG DSNT N RAB33 TSB25 OCNL LTGICCG N-NE AND DSNT E-S TS N-NE MOV NW CB DSNT E-S MOV NW P0016 $ (AM)","FM-16","7",,,,,,,,,,,,,,,,,,,,,,,,,,,,"2009-07-14"
"72202012839","2020-06-03T02:53:00","FM-15","7",,,,,,,,,,,,,,,,,,,,,,,,,,,,,,,,,,,,,,"30.01","75","77","0.44","TS:7 +RA:02 BR:1 |RA TS |RA",,,"94","30.01","BKN:07 20 BKN:07 30 OVC:08 50","29.98","1.50","76","100","20","10",,,,,,,,,,,,,,,,,,,,,,,,,,,,,,,,,,,,,"MET23706/03/20 02:53:02 METAR KMIA 030753Z 10009G17KT 1 1/2SM R09/2600VP6000FT +TSRA BR BKN020CB BKN030 OVC050 25/24 A3001 RMK AO2 LTG DSNT N RAB33 TSB25 SLP163 OCNL LTGICCG N-NE AND DSNT E-S TS N-NE MOV NW CB OHD MOV NW CB DSNT E-S MOV NW P $","FM-15","7",,,,,,,,,,,,,,,,,,,,,,,,,,,,"2009-07-14"
"72202012839","2020-06-03T03:02:00","FM-16","7",,,,,,,,,,,,,,,,,,,,,,,,,,,,,,,,,,,,,,"30.00","76","78","0.38","TS:7 -RA:02 BR:1 |RA TS |RA",,,"93",,"BKN:07 20 BKN:07 35 OVC:08 90","29.97","6.00","77","080",,"5",,,,,,,,,,,,,,,,,,,,,,,,,,,,,,,,,,,,,"MET20506/03/20 03:02:02 SPECI KMIA 030802Z 08004KT 6SM R09/2800VP6000FT -TSRA BR BKN020CB BKN035 OVC090 26/24 A3000 RMK AO2 OCNL LTGICCG N-NE AND S-SW TS N-NE AND S-SW MOV NW CB OHD MOV NW P0038 T02560244 $ (AM)","FM-16","7",,,,,,,,,,,,,,,,,,,,,,,,,,,,"2009-07-14"
"72202012839","2020-06-03T03:23:00","FM-16","7",,,,,,,,,,,,,,,,,,,,,,,,,,,,,,,,,,,,,,"30.00","76","77","0.39",,,,"96",,"FEW:02 17 SCT:04 35 BKN:07 120","29.97","10.00","76","000",,"0",,,,,,,,,,,,,,,,,,,,,,,,,,,,,,,,,,,,,"MET15706/03/20 03:23:02 SPECI KMIA 030823Z 00000KT 10SM FEW017 SCT035 BKN120 25/24 A3000 RMK AO2 LTG DSNT N RAE23 TSE23 CB DSNT SW-NW MOV NW P0039 T02500244 $ (AM)","FM-16","7",,,,,,,,,,,,,,,,,,,,,,,,,,,,"2009-07-14"
"72202012839","2020-06-03T03:53:00","FM-15","7",,,,,,,,,,,,,,,,,,,,,,,,,,,,,,,,,,,,,,"30.00","76","77","0.12",,"+0.02","6","96","30.00","SCT:04 24 BKN:07 48 BKN:07 120","29.97","10.00","76","000",,"0",,,,,,,,,,,,,,,,,,,,,,,,,,,,,,,,,,,,,"MET14406/03/20 03:53:02 METAR KMIA 030853Z 00000KT 10SM SCT024 BKN048 BKN120 25/24 A3000 RMK AO2 RAE23 TSE23 SLP159 P0039 60056 T02500244 56008 $ (AM)","FM-15","7",,,,,,,,,,,,,,,,,,,,,,,,,,,,"2009-07-14"
"72202012839","2020-06-03T04:00:00","FM-12","4",,,,,,,,,,,,,,,,,,,,,,,,,,,,,,,,,,,,,,,"76","77",,,"+0.02","6","96","30.00","26","29.97","9.94","76","000",,"0",,,,,,,,,,,,,,,,,,,,,,,,,,,,,,,,,,,,,"SYN07072202 12566 80000 10250 20244 30149 40159 56008 60147 90853 555 90309=","FM-12","4",,,,,,,,,,,,,,,,,,,,,,,,,,,,"2009-07-14"
"72202012839","2020-06-03T04:53:00","FM-15","7",,,,,,,,,,,,,,,,,,,,,,,,,,,,,,,,,,,,,,"30.01","76","79","0.00",,,,"90","30.00","SCT:04 23 SCT:04 48 BKN:07 120","29.98","10.00","77","100",,"8",,,,,,,,,,,,,,,,,,,,,,,,,,,,,,,,,,,,,"MET17506/03/20 04:53:02 METAR KMIA 030953Z 10007KT 10SM SCT023 SCT048 BKN120 26/24 A3001 RMK AO2 LTG DSNT N AND NE SLP160 OCNL LTGICCC DSNT NE-S CB DSNT NE-S MOV NW T02610244 $ (AM)","FM-15","7",,,,,,,,,,,,,,,,,,,,,,,,,,,,"2009-07-14"
"72202012839","2020-06-03T05:53:00","FM-15","7",,,,,,,,,,,,,,,,,,,,,,,,,,,,,,,,,,,,,,"30.01","75","79","0.00",,,,"88","30.00","FEW:02 11 SCT:04 16 BKN:07 250","29.98","10.00","76","090",,"6",,,,,,,,,,,,,,,,,,,,,,,,,,,,,,,,,,,,,"MET15106/03/20 05:53:02 METAR KMIA 031053Z 09005KT 10SM FEW011 SCT016 BKN250 26/24 A3001 RMK AO2 LTG DSNT ALQDS SLP160 CB DSNT ALQDS MOV NW T02610239 $ (RLW)","FM-15","7",,,,,,,,,,,,,,,,,,,,,,,,,,,,"2009-07-14"
"72202012839","2020-06-03T06:44:00","FM-16","7",,,,,,,,,,,,,,,,,,,,,,,,,,,,,,,,,,,,,,"30.02","75","78",,,,,"90",,"BKN:07 22 BKN:07 33 BKN:07 250","29.99","10.00","76","230",,"7",,,,,,,,,,,,,,,,,,,,,,,,,,,,,,,,,,,,,"MET16506/03/20 06:44:02 SPECI KMIA 031144Z 23006KT 10SM BKN022CB BKN033 BKN250 26/24 A3002 RMK AO2 LTG DSNT NE AND E CB S-SW MOV NW CB DSNT N-E-SE MOV NW T02560239 $ (RLW)","FM-16","7",,,,,,,,,,,,,,,,,,,,,,,,,,,,"2009-07-14"
"72202012839","2020-06-03T06:53:00","FM-15","7",,,,,,,,,,,,,,,,,,,,,,,,,,,,,,,,,,,,,,"30.02","75","78","0.00",,"-0.02","3","90","30.02","BKN:07 20 BKN:07 55 BKN:07 250","29.99","10.00","76","240",,"6",,,,,,,,,,,,,,,,,,,,,,,,,,,,,,,,,,,,,"MET19906/03/20 06:53:02 METAR KMIA 031153Z 24005KT 10SM BKN020CB BKN055 BKN250 26/24 A3002 RMK AO2 LTG DSNT NE AND E SLP165 CB S-SW MOV NW CB DSNT N-E MOV NW 60056 70085 T02560239 10267 20250 53006 $ (RLW)","FM-15","7",,,,,,,,,,,,,,,,,,,,,,,,,,,,"2009-07-14"
"72202012839","2020-06-03T07:00:00","FM-12","4",,,,,,,,,,,,,,,,,,,,,,,,,,,,,,,,,,,,,,,"75","78",,,"-0.02","3","90","30.02","26","29.99","9.94","76","240",,"6",,,,,,,,,,,,,,,,,,,,,,,,,,,,,,,,,,,,,"SYN09272202 12566 62405 10256 20239 30156 40165 53006 60141 91153 333 10317 20244 70216 555 90312=","FM-12","4",,,,,,,,,,,,,,,,,,,,,,,,,,,,"2009-07-14"
"72202012839","2020-06-03T07:53:00","FM-15","7",,,,,,,,,,,,,,,,,,,,,,,,,,,,,,,,,,,,,,"30.03","75","78","0.03","|RA |RA",,,"90","30.03","BKN:07 20 BKN:07 50 BKN:07 110","30.00","10.00","76","000",,"0",,,,,,,,,,,,,,,,,,,,,,,,,,,,,,,,,,,,,"MET16206/03/20 07:53:02 METAR KMIA 031253Z 00000KT 10SM -RA BKN020 BKN050 BKN110 26/24 A3003 RMK AO2 LTG DSNT NE RAB26 SLP168 CB DSNT ALQDS MOV NW P0003 T02560239 (RLW)","FM-15","7",,,,,,,,,,,,,,,,,,,,,,,,,,,,"2009-07-14"
"72202012839","2020-06-03T08:40:00","FM-16","7",,,,,,,,,,,,,,,,,,,,,,,,,,,,,,,,,,,,,,"30.03","74","80","T","VCTS:7 ||",,,"82",,"BKN:07 18 BKN:07 45","30.00","10.00","76","230",,"6",,,,,,,,,,,,,,,,,,,,,,,,,,,,,,,,,,,,,"MET13906/03/20 08:40:02 SPECI KMIA 031340Z 23005KT 10SM VCTS BKN018CB BKN045 27/23 A3003 RMK AO2 RAE1254 CB OHD-S-SW MOV NW P0000 T02670233 (RLW)","FM-16","7",,,,,,,,,,,,,,,,,,,,,,,,,,,,"2009-07-14"
"72202012839","2020-06-03T08:51:00","FM-16","6",,,,,,,,,,,,,,,,,,,,,,,,,,,,,,,,,,,,,,"30.04","73","79",,"-RA:02 |RA |RA",,,"84",,"BKN:07 18 BKN:07 45","30.01","9.00","75","180",,"9",,,,,,,,,,,,,,,,,,,,,,,,,,,,,,,,,,,,,"MET15206/03/20 08:51:02 SPECI KMIA 031351Z 18008KT 9SM -RA BKN018CB BKN045 26/23 A3004 RMK AO2 LTG DSNT N AND E RAE1254B50 CB OHD-S-SW MOV NW P0000 FIBI (RLW)","FM-16","6",,,,,,,,,,,,,,,,,,,,,,,,,,,,"2009-07-14"
"72202012839","2020-06-03T08:53:00","FM-15","7",,,,,,,,,,,,,,,,,,,,,,,,,,,,,,,,,,,,,,"30.04","74","78","0.04","-RA:02 |RA |RA",,,"87","30.04","BKN:07 18 BKN:07 45","30.01","7.00","75","170",,"9",,,,,,,,,,,,,,,,,,,,,,,,,,,,,,,,,,,,,"MET17706/03/20 08:53:02 METAR KMIA 031353Z 17008KT 7SM R09/1200VP6000FT -RA BKN018CB BKN045 26/23 A3004 RMK AO2 LTG DSNT N-E RAE1254B50 SLP172 CB OHD-S-SW MOV NW P0000 T02560233 (RLW)","FM-15","7",,,,,,,,,,,,,,,,,,,,,,,,,,,,"2009-07-14"
"72202012839","2020-06-03T09:00:00","FM-16","7",,,,,,,,,,,,,,,,,,,,,,,,,,,,,,,,,,,,,,"30.04","73","75","0.07","+RA:02 BR:1 |RA |RA",,,"94",,"OVC:08 18","30.01","1.50","74","120","23","11",,,,,,,,,,,,,,,,,,,,,,,,,,,,,,,,,,,,,"MET16706/03/20 09:00:02 SPECI KMIA 031400Z 12010G20KT 1 1/2SM R09/1000VP6000FT +RA BR OVC018CB 24/23 A3004 RMK AO2 LTG DSNT N AND NE CB OHD-SW-W MOV NW P0007 T02390228 (RLW)","FM-16","7",,,,,,,,,,,,,,,,,,,,,,,,,,,,"2009-07-14"
"72202012839","2020-06-03T09:04:00","FM-16","7",,,,,,,,,,,,,,,,,,,,,,,,,,,,,,,,,,,,,,"30.03","73","76","0.24","+RA:02 BR:1 |RA |RA",,,"91",,"SCT:04 14 OVC:08 18","30.00","0.75","74","VRB","23","7",,,,,,,,,,,,,,,,,,,,,,,,,,,,,,,,,,,,,"MET17106/03/20 09:04:02 SPECI KMIA 031404Z VRB06G20KT 3/4SM R09/1400V5000FT +RA BR SCT014 OVC018CB 24/23 A3003 RMK AO2 LTG DSNT N AND NE CB OHD-SW-W MOV NW P0024 T02440228 (RLW)","FM-16","7",,,,,,,,,,,,,,,,,,,,,,,,,,,,"2009-07-14"
"72202012839","2020-06-03T09:06:00","FM-16","7",,,,,,,,,,,,,,,,,,,,,,,,,,,,,,,,,,,,,,"30.03","73","77","0.37","TS:7 +RA:02 BR:1 |s RA s TS s |RA s",,,"88",,"SCT:04 8 OVC:08 18","30.00","0.50","74","VRB","18","3",,,,,,,,,,,,,,,,,,,,,,,,,,,,,,,,,,,,,"MET18006/03/20 09:06:02 SPECI KMIA 031406Z VRB03G16KT 1/2SM R09/1400VP6000FT +TSRA BR SCT008 OVC018CB 25/23 A3003 RMK AO2 LTG DSNT N AND NE TSB05 CB OHD-SW-W MOV NW P0037 T02500228 (RLW)","FM-16","7",,,,,,,,,,,,,,,,,,,,,,,,,,,,"2009-07-14"
"72202012839","2020-06-03T09:14:00","FM-16","7",,,,,,,,,,,,,,,,,,,,,,,,,,,,,,,,,,,,,,"30.03","74","76","0.64","TS:7 +RA:02 |RA TS TS |RA",,,"94",,"FEW:02 8 BKN:07 18 OVC:08 40","30.00","2.00","75","310",,"5",,,,,,,,,,,,,,,,,,,,,,,,,,,,,,,,,,,,,"MET19806/03/20 09:14:02 SPECI KMIA 031414Z 31004KT 2SM R09/6000VP6000FT +TSRA FEW008 BKN018CB OVC040 24/23 A3003 RMK AO2 LTG DSNT N AND NE TSB05 OCNL LTGICCG E-OHD-W TS E-OHD-W MOV N P0064 T02440233 (RLW)","FM-16","7",,,,,,,,,,,,,,,,,,,,,,,,,,,,"2009-07-14"
"72202012839","2020-06-03T09:18:00","FM-16","7",,,,,,,,,,,,,,,,,,,,,,,,,,,,,,,,,,,,,,"30.04","74","76","0.65","TS:7 +RA:02 |RA TS TS |RA",,,"94",,"SCT:04 18 BKN:07 33 OVC:08 50","30.01","3.00","75","000",,"0",,,,,,,,,,,,,,,,,,,,,,,,,,,,,,,,,,,,,"MET18506/03/20 09:18:02 SPECI KMIA 031418Z 00000KT 3SM +TSRA SCT018CB BKN033 OVC050 24/23 A3004 RMK AO2 LTG DSNT N AND NE TSB05 OCNL LTGICCG OHD-NW-NE TS OHD-NW-NE MOV N P0065 T02440233 (RLW)","FM-16","7",,,,,,,,,,,,,,,,,,,,,,,,,,,,"2009-07-14"
"72202012839","2020-06-03T09:23:00","FM-16","7",,,,,,,,,,,,,,,,,,,,,,,,,,,,,,,,,,,,,,"30.04","75","76","0.65","TS:7 -RA:02 |RA TS TS |RA",,,"97",,"SCT:04 18 BKN:07 33 OVC:08 50","30.01","6.00","75","000",,"0",,,,,,,,,,,,,,,,,,,,,,,,,,,,,,,,,,,,,"MET17706/03/20 09:23:02 SPECI KMIA 031423Z 00000KT 6SM -TSRA SCT018CB BKN033 OVC050 24/24 A3004 RMK AO2 LTG DSNT N AND NE TSB05 OCNL LTGICCG NW-NE TS NW-NE MOV N P0065 T02440239 (RLW)","FM-16","7",,,,,,,,,,,,,,,,,,,,,,,,,,,,"2009-07-14"
"72202012839","2020-06-03T09:28:00","FM-16","7",,,,,,,,,,,,,,,,,,,,,,,,,,,,,,,,,,,,,,"30.04","75","77","0.66","TS:7 RA:02 |RA TS TS |RA",,,"94",,"BKN:07 20 BKN:07 30 OVC:08 70","30.01","5.00","76","040",,"8",,,,,,,,,,,,,,,,,,,,,,,,,,,,,,,,,,,,,"MET19306/03/20 09:28:02 SPECI KMIA 031428Z 04007KT 5SM R09/4000VP6000FT TSRA BKN020CB BKN030 OVC070 25/24 A3004 RMK AO2 LTG DSNT N AND NE TSB05 OCNL LTGICCG NW-NE TS NW-NE MOV N P0066 T02500239 (RLW)","FM-16","7",,,,,,,,,,,,,,,,,,,,,,,,,,,,"2009-07-14"
"72202012839","2020-06-03T09:46:00","FM-16","7",,,,,,,,,,,,,,,,,,,,,,,,,,,,,,,,,,,,,,"30.04","74","77","0.69","TS:7 -RA:02 |RA TS TS |RA",,,"90",,"SCT:04 20 BKN:07 30 OVC:08 60","30.01","7.00","75","020",,"7",,,,,,,,,,,,,,,,,,,,,,,,,,,,,,,,,,,,,"MET18306/03/20 09:46:02 SPECI KMIA 031446Z 02006KT 7SM -TSRA SCT020CB BKN030 OVC060 25/23 A3004 RMK AO2 LTG DSNT N AND NE TSB05 OCNL LTGICCG VC NW-NE TS VC NW-NE MOV N P0069 T02500233 (RLW)","FM-16","7",,,,,,,,,,,,,,,,,,,,,,,,,,,,"2009-07-14"
"72202012839","2020-06-03T09:53:00","FM-15","7",,,,,,,,,,,,,,,,,,,,,,,,,,,,,,,,,,,,,,"30.04","75","78","0.65","TS:7 |TS TS |","-0.02","1","90","30.04","SCT:04 20 BKN:07 33 OVC:08 65","30.01","10.00","76","010",,"6",,,,,,,,,,,,,,,,,,,,,,,,,,,,,,,,,,,,,"MET20606/03/20 09:53:02 METAR KMIA 031453Z 01005KT 10SM TS SCT020CB BKN033 OVC065 26/24 A3004 RMK AO2 LTG DSNT N AND NE RAE48 TSB05 SLP173 OCNL LTGICCG VC NW-NE TS VC NW-NE MOV N P0069 60072 T02560239 51008 (RLW)","FM-15","7",,,,,,,,,,,,,,,,,,,,,,,,,,,,"2009-07-14"
"72202012839","2020-06-03T10:00:00","FM-12","4",,,,,,,,,,,,,,,,,,,,,,,,,,,,,,,,,,,,,,,"75","78",,"||TS","-0.02","1","90","30.04","26","30.01","9.94","76","010",,"6",,,,,,,,,,,,,,,,,,,,,,,,,,,,,,,,,,,,,"SYN07672202 11566 80105 10256 20239 30163 40173 51008 60187 795// 91453 555 90315=","FM-12","4",,,,,,,,,,,,,,,,,,,,,,,,,,,,"2009-07-14"
"72202012839","2020-06-03T10:42:00","FM-16","7",,,,,,,,,,,,,,,,,,,,,,,,,,,,,,,,,,,,,,"30.04","76","81",,"TS:7 |TS TS |",,,"85",,"BKN:07 20 BKN:07 50 BKN:07 90","30.01","10.00","77","060",,"6",,,,,,,,,,,,,,,,,,,,,,,,,,,,,,,,,,,,,"MET17406/03/20 10:42:02 SPECI KMIA 031542Z 06005KT 10SM TS BKN020CB BKN050 BKN090 27/24 A3004 RMK AO2 LTG DSNT NE AND SW AND NW OCNL LTGCG VC N-NE TS VC N-NE MOV NW T02720244 (RLW)","FM-16","7",,,,,,,,,,,,,,,,,,,,,,,,,,,,"2009-07-14"
"72202012839","2020-06-03T10:53:00","FM-15","7",,,,,,,,,,,,,,,,,,,,,,,,,,,,,,,,,,,,,,"30.04","76","82","0.00","TS:7 |TS TS |",,,"82","30.04","BKN:07 20 BKN:07 50 BKN:07 90","30.01","10.00","78","050",,"8",,,,,,,,,,,,,,,,,,,,,,,,,,,,,,,,,,,,,"MET18106/03/20 10:53:02 METAR KMIA 031553Z 05007KT 10SM TS BKN020CB BKN050 BKN090 28/24 A3004 RMK AO2 LTG DSNT NE AND SW AND NW SLP172 OCNL LTGCG VC N-NE TS VC N-NE MOV NW T02780244 (RLW)","FM-15","7",,,,,,,,,,,,,,,,,,,,,,,,,,,,"2009-07-14"
"72202012839","2020-06-03T10:58:00","FM-16","7",,,,,,,,,,,,,,,,,,,,,,,,,,,,,,,,,,,,,,"30.04","76","83",,,,,"79",,"SCT:04 24 BKN:07 30 BKN:07 90","30.01","10.00","78","070",,"6",,,,,,,,,,,,,,,,,,,,,,,,,,,,,,,,,,,,,"MET16106/03/20 10:58:02 SPECI KMIA 031558Z 07005KT 10SM SCT024 BKN030 BKN090 28/24 A3004 RMK AO2 LTG DSNT NE AND SW AND NW TSE58 CB DSNT SW-NW-NE MOV N T02830244 (RLW)","FM-16","7",,,,,,,,,,,,,,,,,,,,,,,,,,,,"2009-07-14"
"72202012839","2020-06-03T11:53:00","FM-15","7",,,,,,,,,,,,,,,,,,,,,,,,,,,,,,,,,,,,,,"30.01","74","86","0.00",,,,"67","30.01","SCT:04 27 SCT:04 33","29.98","10.00","78","120",,"14",,,,,,,,,,,,,,,,,,,,,,,,,,,,,,,,,,,,,"MET13606/03/20 11:53:02 METAR KMIA 031653Z 12012KT 10SM SCT027CB SCT033 BKN1 30/23 A3001 RMK AO2 TSE1558 SLP163 CB NW-N MOV NW T03000233 (RLW)","FM-15","7",,,,,,,,,,,,,,,,,,,,,,,,,,,,"2009-07-14"
"72202012839","2020-06-03T12:10:00","FM-16","7",,,,,,,,,,,,,,,,,,,,,,,,,,,,,,,,,,,,,,"30.01","74","87",,"VCTS:7 ||",,,"65",,"SCT:04 26 BKN:07 33 BKN:07 230","29.98","10.00","78","110",,"15",,,,,,,,,,,,,,,,,,,,,,,,,,,,,,,,,,,,,"MET13306/03/20 12:10:02 SPECI KMIA 031710Z 11013KT 10SM VCTS SCT026CB BKN033 BKN230 31/23 A3001 RMK AO2 TSE04 CB NW-N MOV N T03060233 (RLW)","FM-16","7",,,,,,,,,,,,,,,,,,,,,,,,,,,,"2009-07-14"
"72202012839","2020-06-03T12:25:00","FM-16","7",,,,,,,,,,,,,,,,,,,,,,,,,,,,,,,,,,,,,,"30.01","72","86",,,,,"63",,"FEW:02 27 BKN:07 32 BKN:07 230","29.98","10.00","76","130",,"11",,,,,,,,,,,,,,,,,,,,,,,,,,,,,,,,,,,,,"MET13006/03/20 12:25:02 SPECI KMIA 031725Z 13010KT 10SM FEW027 BKN032 BKN230 30/22 A3001 RMK AO2 TSE04 CB DSNT W-N MOV N T03000222 (RLW)","FM-16","7",,,,,,,,,,,,,,,,,,,,,,,,,,,,"2009-07-14"
"72202012839","2020-06-03T12:53:00","FM-15","7",,,,,,,,,,,,,,,,,,,,,,,,,,,,,,,,,,,,,,"30.00","72","85","0.00",,"+0.04","8","65","30.00","SCT:04 27 BKN:07 33 BKN:07 43","29.97","10.00","76","130",,"11",,,,,,,,,,,,,,,,,,,,,,,,,,,,,,,,,,,,,"MET16206/03/20 12:53:02 METAR KMIA 031753Z 13010KT 10SM SCT027 BKN033 BKN043 29/22 A3000 RMK AO2 TSE04 SLP158 CB DSNT NW-N MOV N 60072 T02940222 10306 20239 58015 (RLW)","FM-15","7",,,,,,,,,,,,,,,,,,,,,,,,,,,,"2009-07-14"
"72202012839","2020-06-03T13:00:00","FM-12","4",,,,,,,,,,,,,,,,,,,,,,,,,,,,,,,,,,,,,,,"72","85",,,"+0.04","8","65","30.00","26","29.97","9.94","76","130",,"11",,,,,,,,,,,,,,,,,,,,,,,,,,,,,,,,,,,,,"SYN08672202 12566 61310 10294 20222 30149 40158 58015 60181 91753 333 10306 20239 555 90318=","FM-12","4",,,,,,,,,,,,,,,,,,,,,,,,,,,,"2009-07-14"
"72202012839","2020-06-03T13:53:00","FM-15","7",,,,,,,,,,,,,,,,,,,,,,,,,,,,,,,,,,,,,,"29.99","74","84","0.00",,,,"72","29.98","SCT:04 27 OVC:08 250","29.96","10.00","77","130","21","15",,,,,,,,,,,,,,,,,,,,,,,,,,,,,,,,,,,,,"MET12706/03/20 13:53:02 METAR KMIA 031853Z 13013G18KT 10SM SCT027 OVC250 29/23 A2999 RMK AO2 SLP154 CB DSNT NW MOV NW T02890233 (RDR)","FM-15","7",,,,,,,,,,,,,,,,,,,,,,,,,,,,"2009-07-14"
"72202012839","2020-06-03T14:53:00","FM-15","7",,,,,,,,,,,,,,,,,,,,,,,,,,,,,,,,,,,,,,"29.97","73","83","0.00",,,,"72","29.97","SCT:04 27 OVC:08 250","29.94","10.00","76","120",,"11",,,,,,,,,,,,,,,,,,,,,,,,,,,,,,,,,,,,,"MET13606/03/20 14:53:02 METAR KMIA 031953Z 12010KT 10SM SCT027 OVC250 28/23 A2997 RMK AO2 LTG DSNT NW SLP149 CB DSNT NW MOV NW T02830228 (RDR)","FM-15","7",,,,,,,,,,,,,,,,,,,,,,,,,,,,"2009-07-14"
"72202012839","2020-06-03T15:53:00","FM-15","7",,,,,,,,,,,,,,,,,,,,,,,,,,,,,,,,,,,,,,"29.95","73","83","0.00",,"+0.04","8","72","29.95","SCT:04 27 OVC:08 250","29.92","10.00","76","120",,"9",,,,,,,,,,,,,,,,,,,,,,,,,,,,,,,,,,,,,"MET12606/03/20 15:53:02 METAR KMIA 032053Z 12008KT 10SM SCT027 OVC250 28/23 A2995 RMK AO2 SLP143 CB DSNT SW-NW T02830228 58015 (RDR)","FM-15","7",,,,,,,,,,,,,,,,,,,,,,,,,,,,"2009-07-14"
"72202012839","2020-06-03T16:00:00","FM-12","4",,,,,,,,,,,,,,,,,,,,,,,,,,,,,,,,,,,,,,,"73","83",,,"+0.04","8","72","29.95","26","29.92","9.94","76","120",,"9",,,,,,,,,,,,,,,,,,,,,,,,,,,,,,,,,,,,,"SYN06472202 32566 81208 10283 20228 30132 40143 58015 92053 555 90321=","FM-12","4",,,,,,,,,,,,,,,,,,,,,,,,,,,,"2009-07-14"
"72202012839","2020-06-03T16:53:00","FM-15","7",,,,,,,,,,,,,,,,,,,,,,,,,,,,,,,,,,,,,,"29.96","75","83","0.00",,,,"77","29.96","SCT:04 23 SCT:04 110 OVC:08 250","29.93","10.00","77","120",,"7",,,,,,,,,,,,,,,,,,,,,,,,,,,,,,,,,,,,,"MET16206/03/20 16:53:02 METAR KMIA 032153Z 12006KT 10SM SCT023CB SCT110 OVC250 28/24 A2996 RMK AO2 LTG DSNT SW SLP147 CB SE-S MOV NW CB DSNT SW-NW MOV N T02830239 (RDR)","FM-15","7",,,,,,,,,,,,,,,,,,,,,,,,,,,,"2009-07-14"
"72202012839","2020-06-03T17:02:00","FM-16","7",,,,,,,,,,,,,,,,,,,,,,,,,,,,,,,,,,,,,,"29.96","75","83",,"VCTS:7 ||",,,"77",,"SCT:04 23 SCT:04 110 OVC:08 250","29.93","10.00","77","100",,"8",,,,,,,,,,,,,,,,,,,,,,,,,,,,,,,,,,,,,"MET14806/03/20 17:02:02 SPECI KMIA 032202Z 10007KT 10SM VCTS SCT023CB SCT110 OVC250 28/24 A2996 RMK AO2 CB SE-S MOV NW CB DSNT SW-NW MOV N T02830239 (RDR)","FM-16","7",,,,,,,,,,,,,,,,,,,,,,,,,,,,"2009-07-14"
"72202012839","2020-06-03T17:15:00","FM-16","7",,,,,,,,,,,,,,,,,,,,,,,,,,,,,,,,,,,,,,"29.97","73","77","0.01","-RA:02 BR:1 |RA |",,,"88",,"FEW:02 17 BKN:07 25 BKN:07 110","29.94","6.00","74","170","23","15",,,,,,,,,,,,,,,,,,,,,,,,,,,,,,,,,,,,,"MET15206/03/20 17:15:02 SPECI KMIA 032215Z 17013G20KT 6SM +RA BR FEW017 BKN025CB BKN1 25/23 A2997 RMK AO2 LTG DSNT W RAB10 CB OHD MOV NW P0001 T02500228 (RDR)","FM-16","7",,,,,,,,,,,,,,,,,,,,,,,,,,,,"2009-07-14"
"72202012839","2020-06-03T17:21:00","FM-16","7",,,,,,,,,,,,,,,,,,,,,,,,,,,,,,,,,,,,,,"29.97","72","76","0.05","-TS:7 RA:02 BR:1 |TS |",,,"88",,"FEW:02 17 BKN:07 25 BKN:07 110","29.94","6.00","73","180","23","9",,,,,,,,,,,,,,,,,,,,,,,,,,,,,,,,,,,,,"MET19406/03/20 17:21:02 SPECI KMIA 032221Z 18008G20KT 6SM R09/6000VP6000FT +TSRA BR FEW017 BKN025CB BKN1 24/22 A2997 RMK AO2 LTG DSNT W RAB10 TSB17 OCNL LTGICCG OHD TS OHD MOV NW P0005 T02440222 (RDR)","FM-16","7",,,,,,,,,,,,,,,,,,,,,,,,,,,,"2009-07-14"
"72202012839","2020-06-03T17:38:00","FM-16","7",,,,,,,,,,,,,,,,,,,,,,,,,,,,,,,,,,,,,,"29.97","72","75","0.06","TS:7 |TS |",,,"90",,"FEW:02 19 SCT:04 25 SCT:04 110","29.94","10.00","73","280",,"3",,,,,,,,,,,,,,,,,,,,,,,,,,,,,,,,,,,,,"MET17706/03/20 17:38:02 SPECI KMIA 032238Z 28003KT 10SM TS FEW019 SCT025CB SCT1 24/22 A2997 RMK AO2 RAB10E37 TSB17 OCNL LTGICCG VC SW-NW-NE TS VC SW-NW-NE MOV NW P0006 T02390222 (RDR)","FM-16","7",,,,,,,,,,,,,,,,,,,,,,,,,,,,"2009-07-14"
"72202012839","2020-06-03T17:51:00","FM-16","6",,,,,,,,,,,,,,,,,,,,,,,,,,,,,,,,,,,,,,"29.98","72","75",,,,,"89",,"FEW:02 15 SCT:04 25","29.95","10.00","73","000",,"0",,,,,,,,,,,,,,,,,,,,,,,,,,,,,,,,,,,,,"MET17606/03/20 17:51:02 SPECI KMIA 032251Z 00000KT 10SM VCTS FEW015 SCT025CB BKN0 24/22 A2998 RMK AO2 RAB10E37 TSB17E43B44E50E51 TS DSIPTD CB SW-NW-NE MOV NW TCU OHD P0006 FIBI (RDR)","FM-16","6",,,,,,,,,,,,,,,,,,,,,,,,,,,,"2009-07-14"
"72202012839","2020-06-03T17:53:00","FM-15","7",,,,,,,,,,,,,,,,,,,,,,,,,,,,,,,,,,,,,,"29.97","72","76","0.06",,,,"88","29.97","FEW:02 15 SCT:04 25","29.94","10.00","73","050",,"3",,,,,,,,,,,,,,,,,,,,,,,,,,,,,,,,,,,,,"MET20006/03/20 17:53:02 METAR KMIA 032253Z 05003KT 10SM VCTS FEW015 SCT025CB BKN0 24/22 A2997 RMK AO2 LTG DSNT SW RAB10E37 TSB17E43B44E50E51 SLP150 TS DSIPTD CB SW-NW-NE MOV NW TCU OHD P0006 T02440222 (RDR)","FM-15","7",,,,,,,,,,,,,,,,,,,,,,,,,,,,"2009-07-14"
"72202012839","2020-06-03T18:12:00","FM-16","7",,,,,,,,,,,,,,,,,,,,,,,,,,,,,,,,,,,,,,"29.97","73","77","0.01",,,,"88",,"FEW:02 15 FEW:02 25","29.94","10.00","74","350",,"3",,,,,,,,,,,,,,,,,,,,,,,,,,,,,,,,,,,,,"MET16806/03/20 18:12:02 SPECI KMIA 032312Z 35003KT 10SM FEW015 FEW025CB SCT0 25/23 A2997 RMK AO2 LTG DSNT S AND NW RAB01E11 TS DSIPTD CB SW-NW-NE MOV NW P0001 T02500228 (RDR)","FM-16","7",,,,,,,,,,,,,,,,,,,,,,,,,,,,"2009-07-14"
"72202012839","2020-06-03T18:45:00","FM-16","7",,,,,,,,,,,,,,,,,,,,,,,,,,,,,,,,,,,,,,"29.98","74","77","0.01",,,,"90",,"FEW:02 15 FEW:02 25 SCT:04 85","29.95","10.00","75","350",,"5",,,,,,,,,,,,,,,,,,,,,,,,,,,,,,,,,,,,,"MET17506/03/20 18:45:02 SPECI KMIA 032345Z 35004KT 10SM VCTS FEW015 FEW025 SCT085 25/23 A2998 RMK AO2 LTG DSNT NE AND SW AND NW RAB01E11 CB DSNT SW-NW-N MOV NW P0001 T02500233 (RDR)","FM-16","7",,,,,,,,,,,,,,,,,,,,,,,,,,,,"2009-07-14"
"72202012839","2020-06-03T18:53:00","FM-15","7",,,,,,,,,,,,,,,,,,,,,,,,,,,,,,,,,,,,,,"29.98","74","78","0.01",,"-0.03","1","87","29.98","FEW:02 25 SCT:04 85 BKN:07 180","29.95","10.00","75","330",,"3",,,,,,,,,,,,,,,,,,,,,,,,,,,,,,,,,,,,,"MET20206/03/20 18:53:02 METAR KMIA 032353Z 33003KT 10SM FEW025 SCT085 BKN180 26/23 A2998 RMK AO2 LTG DSNT SW AND W RAB01E11 SLP153 CB DSNT NE AND SW-NW MOV NW P0001 60007 T02560233 10294 20239 51010 (RDR)   0","FM-15","7",,,,,,,,,,,,,,,,,,,,,,,,,,,,"2009-07-14"
"72202012839","2020-06-03T19:00:00","FM-12","4",,,,,,,,,,,,,,,,,,,,,,,,,,,,,,,,,,,,,,,"74","78",,,"-0.03","1","87","29.98","26","29.95","9.94","75","330",,"3",,,,,,,,,,,,,,,,,,,,,,,,,,,,,,,,,,,,,"SYN08672202 12566 83303 10256 20233 30142 40153 51010 60021 92353 333 10306 20239 555 90400=","FM-12","4",,,,,,,,,,,,,,,,,,,,,,,,,,,,"2009-07-14"
"72202012839","2020-06-03T19:53:00","FM-15","7",,,,,,,,,,,,,,,,,,,,,,,,,,,,,,,,,,,,,,"29.99","74","76","T","|RA |",,,"94","29.98","FEW:02 25 SCT:04 60 BKN:07 180","29.96","10.00","75","000",,"0",,,,,,,,,,,,,,,,,,,,,,,,,,,,,,,,,,,,,"MET15206/03/20 19:53:01 METAR KMIA 040053Z 00000KT 10SM -RA FEW025 SCT060 BKN180 24/23 A2999 RMK AO2 LTG DSNT SW RAB18E26B50 SLP154 CB DSNT SW P0000 T02440233","FM-15","7",,,,,,,,,,,,,,,,,,,,,,,,,,,,"2009-07-14"
"72202012839","2020-06-03T20:53:00","FM-15","7",,,,,,,,,,,,,,,,,,,,,,,,,,,,,,,,,,,,,,"30.00","75","77","T",,,,"94","30.00","FEW:02 25 SCT:04 70","29.97","10.00","76","000",,"0",,,,,,,,,,,,,,,,,,,,,,,,,,,,,,,,,,,,,"MET16906/03/20 20:53:01 METAR KMIA 040153Z 00000KT 10SM VCTS FEW025CB SCT070 BKN1 25/24 A3000 RMK AO2 LTG DSNT SE RAE20 SLP159 CB NE-E AND DSNT SE AND SW MOV N P0000 T02500239","FM-15","7",,,,,,,,,,,,,,,,,,,,,,,,,,,,"2009-07-14"
"72202012839","2020-06-03T20:58:00","FM-16","7",,,,,,,,,,,,,,,,,,,,,,,,,,,,,,,,,,,,,,"30.00","75","77",,"|TS |",,,"94",,"FEW:02 25 SCT:04 70","29.97","10.00","76","000",,"0",,,,,,,,,,,,,,,,,,,,,,,,,,,,,,,,,,,,,"MET14206/03/20 20:58:01 SPECI KMIA 040158Z 00000KT 10SM TS FEW025CB SCT070 BKN1 25/24 A3000 RMK AO2 TSB58 OCNL LTGICCG NE-E TS NE-E MOV NW T02500239","FM-16","7",,,,,,,,,,,,,,,,,,,,,,,,,,,,"2009-07-14"
"72202012839","2020-06-03T21:15:00","FM-16","7",,,,,,,,,,,,,,,,,,,,,,,,,,,,,,,,,,,,,,"30.00","75","77",,,,,"94",,"FEW:02 25 BKN:07 95 OVC:08 250","29.97","10.00","76","000",,"0",,,,,,,,,,,,,,,,,,,,,,,,,,,,,,,,,,,,,"MET16406/03/20 21:15:01 SPECI KMIA 040215Z 00000KT 10SM FEW025TCU BKN095 OVC250 25/24 A3000 RMK AO2 TSB0158E15 OCNL LTGICCC DSNT NE-SE CB DSNT NE-SE MOV N TCU S T02500239","FM-16","7",,,,,,,,,,,,,,,,,,,,,,,,,,,,"2009-07-14"
"72202012839","2020-06-03T21:53:00","FM-15","7",,,,,,,,,,,,,,,,,,,,,,,,,,,,,,,,,,,,,,"29.99","73","77","T",,"-0.01","0","88","29.99","FEW:02 25 BKN:07 75 BKN:07 100","29.96","10.00","74","000",,"0",,,,,,,,,,,,,,,,,,,,,,,,,,,,,,,,,,,,,"MET14506/03/20 21:53:01 METAR KMIA 040253Z 00000KT 10SM FEW025 BKN075 BKN100 25/23 A2999 RMK AO2 RAB31E40 TSB0158E15 SLP156 P0000 60000 T02500228 50002","FM-15","7",,,,,,,,,,,,,,,,,,,,,,,,,,,,"2009-07-14"
"72202012839","2020-06-03T22:00:00","FM-12","4",,,,,,,,,,,,,,,,,,,,,,,,,,,,,,,,,,,,,,,"73","77",,,"0.01","9","88","29.99","26","29.96","9.94","74","000",,"0",,,,,,,,,,,,,,,,,,,,,,,,,,,,,,,,,,,,,"SYN07072202 12566 80000 10250 20228 30146 40156 50002 69907 90253 555 90403=","FM-12","4",,,,,,,,,,,,,,,,,,,,,,,,,,,,"2009-07-14"
"72202012839","2020-06-03T22:53:00","FM-15","7",,,,,,,,,,,,,,,,,,,,,,,,,,,,,,,,,,,,,,"29.99","75","77","0.00",,,,"94","29.99","FEW:02 20 BKN:07 80 BKN:07 100","29.96","10.00","76","000",,"0",,,,,,,,,,,,,,,,,,,,,,,,,,,,,,,,,,,,,"MET10706/03/20 22:53:02 METAR KMIA 040353Z 00000KT 10SM FEW020 BKN080 BKN100 25/24 A2999 RMK AO2 SLP155 T02500239","FM-15","7",,,,,,,,,,,,,,,,,,,,,,,,,,,,"2009-07-14"
"72202012839","2020-06-03T23:53:00","FM-15","7",,,,,,,,,,,,,,,,,,,,,,,,,,,,,,,,,,,,,,"29.98","75","78","0.00",,,,"90","29.98","FEW:02 20 BKN:07 80 BKN:07 100","29.95","10.00","76","000",,"0",,,,,,,,,,,,,,,,,,,,,,,,,,,,,,,,,,,,,"MET11706/03/20 23:53:02 METAR KMIA 040453Z 00000KT 10SM FEW020 BKN080 BKN100 26/24 A2998 RMK AO2 SLP153 T02560239 403060239","FM-15","7",,,,,,,,,,,,,,,,,,,,,,,,,,,,"2009-07-14"
"72202012839","2020-06-03T23:59:00","SOD  ","6",,,,,,,,,,,,,,,"74","81","85","30.00","29.97","76","5.5","16","-1.0","0","87","75","140","23","1.35",,,"140","18","TS RA BR",,,,,,,,,,,,,,,,,,,,,,,,,,,,,,,,,,,,,,,,,,,,,,,,,,,,,,,,"SOD75724 HR PRECIPITATION (IN): 1.35 SNOW DEPTH (IN):0     24 HR SNOWFALL (IN):0.0  WEATHER(CODE):13  24 HR MAX TEMP (F): 8724 HR MIN TEMP (F): 75AVERAGE STATION PRESSURE:29.970 MINIMUM SEA LEVEL PRESSURE:29.95 TIME OF OCCURRENCE:1616 PEAK WIND SPEED (MPH): 23 PEAK WIND DIR (DEG):140 PEAK WIND TIME (LST):      FASTEST 2MIN SPEED (MPH): 18FASTEST 2MIN DIR (DEG):140 FASTEST 2MIN TIME (LST):     AVERAGE WIND SPEED (MPH): 5.5 24 HR AVG TEMP (F): 81DEPART FROM NORMAL: -1  HEATING DEGREE DAYS:  0 COOLING DEGREE DAYS: 16 LATEST DAY MAX TEMP (0700-1900 LST):87  LATEST NIGHT MIN TEMP(1900-0800 LST):76 HOURLY INCREMENTAL PRECIPITATION VALUES (IN):.00 0.00 0.44 0.12 0.00 0.00 0.00 0.03 0.04 0.65 0.00 0.00 0.00 0.00 0.00 0.00 0.00 0.06 0.01 T    T    T    0.00 0.00","SOD  ","6",,,,,,,,,,,,,,,,,,,,,,,,,"0529","1910",,"2009-07-14"
"72202012839","2020-06-04T00:53:00","FM-15","7",,,,,,,,,,,,,,,,,,,,,,,,,,,,,,,,,,,,,,"29.97","76","78","0.00",,"+0.02","8","93","29.97","FEW:02 26 BKN:07 110 OVC:08 250","29.94","10.00","77","110",,"3",,,,,,,,,,,,,,,,,,,,,,,,,,,,,,,,,,,,,"MET13606/04/20 00:53:02 METAR KMIA 040553Z 11003KT 10SM FEW026 BKN110 OVC250 26/24 A2997 RMK AO2 SLP148 60000 T02560244 10256 20244 58007 (AM)","FM-15","7",,,,,,,,,,,,,,,,,,,,,,,,,,,,"2009-07-14"
"72202012839","2020-06-04T01:00:00","FM-12","4",,,,,,,,,,,,,,,,,,,,,,,,,,,,,,,,,,,,,,,"76","78",,,"+0.02","8","93","29.97","26","29.94","9.94","77","110",,"3",,,,,,,,,,,,,,,,,,,,,,,,,,,,,,,,,,,,,"SYN08672202 12566 81103 10256 20244 30139 40148 58007 69901 90553 333 10267 20244 555 90406=","FM-12","4",,,,,,,,,,,,,,,,,,,,,,,,,,,,"2009-07-14"
"72202012839","2020-06-04T01:53:00","FM-15","7",,,,,,,,,,,,,,,,,,,,,,,,,,,,,,,,,,,,,,"29.95","76","80","0.00",,,,"87","29.94","SCT:04 20 BKN:07 80 BKN:07 120","29.92","10.00","77","130",,"5",,,,,,,,,,,,,,,,,,,,,,,,,,,,,,,,,,,,,"MET11206/04/20 01:53:02 METAR KMIA 040653Z 13004KT 10SM SCT020 BKN080 BKN120 27/24 A2995 RMK AO2 SLP140 T02670244 (AM)","FM-15","7",,,,,,,,,,,,,,,,,,,,,,,,,,,,"2009-07-14"
"72202012839","2020-06-04T02:53:00","FM-15","7",,,,,,,,,,,,,,,,,,,,,,,,,,,,,,,,,,,,,,"29.95","76","80","0.00",,,,"87","29.95","FEW:02 21 SCT:04 28 BKN:07 120","29.92","10.00","77","140",,"5",,,,,,,,,,,,,,,,,,,,,,,,,,,,,,,,,,,,,"MET17206/04/20 02:53:02 METAR KMIA 040753Z 14004KT 10SM FEW021 SCT028 BKN120 27/24 A2995 RMK AO2 LTG DSNT SE AND S SLP141 OCNL LTGICCC DSNT SE-S CB DSNT SE-S MOV N T02670244 (AM)","FM-15","7",,,,,,,,,,,,,,,,,,,,,,,,,,,,"2009-07-14"
"72202012839","2020-06-04T03:32:00","FM-16","7",,,,,,,,,,,,,,,,,,,,,,,,,,,,,,,,,,,,,,"29.97","72","75","T","TS:7 +RA:02 BR:1 |RA TS |RA",,,"89",,"OVC:08 22","29.94","2.00","73","180","30","17",,,,,,,,,,,,,,,,,,,,,,,,,,,,,,,,,,,,,"MET23106/04/20 03:32:02 SPECI KMIA 040832Z 18015G26KT 2SM R09/5000VP6000FT +TSRA BR OVC022CB 24/22 A2997 RMK AO2 PK WND 18026/0829 LTG DSNT S AND SW RAB05 TSB26 OCNL LTGICCG S-SW AND DSNT SE TS S-SW MOV N CB DSNT SE MOV N P0000 T02440222","FM-16","7",,,,,,,,,,,,,,,,,,,,,,,,,,,,"2009-07-14"
"72202012839","2020-06-04T03:34:00","FM-16","7",,,,,,,,,,,,,,,,,,,,,,,,,,,,,,,,,,,,,,"29.97","72","75","0.01","TS:7 +RA:02 BR:1 |RA TS |RA",,,"90",,"OVC:08 22","29.94","0.75","73","180","30","16",,,,,,,,,,,,,,,,,,,,,,,,,,,,,,,,,,,,,"MET20706/04/20 03:34:02 SPECI KMIA 040834Z 18014G26KT 3/4SM R09/4000VP6000FT +TSRA BR OVC022CB 24/22 A2997 RMK AO2 PK WND 18026/0829 LTG DSNT S RAB05 TSB26 PRESRR OCNL LTGICCG OHD TS OHD MOV N P0001 T02390222 (AM)","FM-16","7",,,,,,,,,,,,,,,,,,,,,,,,,,,,"2009-07-14"
"72202012839","2020-06-04T03:38:00","FM-16","7",,,,,,,,,,,,,,,,,,,,,,,,,,,,,,,,,,,,,,"29.97","72","73","0.14","TS:7 +RA:02 FG:2 |FG RA TS |RA",,,"96",,"FEW:02 13 BKN:07 19 OVC:08 25","29.94","0.25","72","180","33","23",,,,,,,,,,,,,,,,,,,,,,,,,,,,,,,,,,,,,"MET21306/04/20 03:38:02 SPECI KMIA 040838Z 18020G29KT 1/4SM R09/1800VP6000FT +TSRA FG FEW013 BKN019CB OVC025 23/22 A2997 RMK AO2 PK WND 18029/0838 LTG DSNT S RAB05 TSB26 FRQ LTGICCG OHD TS OHD MOV N P0014 T02280222 (AM)","FM-16","7",,,,,,,,,,,,,,,,,,,,,,,,,,,,"2009-07-14"
"72202012839","2020-06-04T03:44:00","FM-16","7",,,,,,,,,,,,,,,,,,,,,,,,,,,,,,,,,,,,,,"29.98","70","71","0.49","TS:7 +RA:02 FG:2 |FG RA TS |RA",,,"96",,"SCT:04 9 BKN:07 19 OVC:08 25","29.95","0.12","70","160","33","16",,,,,,,,,,,,,,,,,,,,,,,,,,,,,,,,,,,,,"MET20106/04/20 03:44:02 SPECI KMIA 040844Z 16014G29KT 1/8SM R09/1800V6000FT +TSRA FG SCT009 BKN019CB OVC025 22/21 A2998 RMK AO2 PK WND 18029/0838 RAB05 TSB26 FRQ LTGICCG OHD TS OHD MOV N P0049 T02170211 (AM)","FM-16","7",,,,,,,,,,,,,,,,,,,,,,,,,,,,"2009-07-14"
"72202012839","2020-06-04T03:49:00","FM-16","7",,,,,,,,,,,,,,,,,,,,,,,,,,,,,,,,,,,,,,"30.00","70","72","0.69","TS:7 +RA:02 FG:2 |FG RA TS |RA",,,"94",,"BKN:07 9 BKN:07 13 OVC:08 25","29.97","0.50","71","170","25","9",,,,,,,,,,,,,,,,,,,,,,,,,,,,,,,,,,,,,"MET19806/04/20 03:49:02 SPECI KMIA 040849Z 17008G22KT 1/2SM R09/1800V4500FT +TSRA FG BKN009 BKN013CB OVC025 22/21 A3000 RMK AO2 PK WND 18029/0838 RAB05 TSB26 PRESRR FRQ LTGICCG OHD TS OHD MOV N P0069 (AM)","FM-16","7",,,,,,,,,,,,,,,,,,,,,,,,,,,,"2009-07-14"
"72202012839","2020-06-04T03:51:00","FM-16","6",,,,,,,,,,,,,,,,,,,,,,,,,,,,,,,,,,,,,,"29.99","70","72",,"TS:7 +RA:02 FG:2 |FG RA TS |RA",,,"94",,"SCT:04 9 BKN:07 13 OVC:08 25","29.96","0.50","71","180","25","8",,,,,,,,,,,,,,,,,,,,,,,,,,,,,,,,,,,,,"MET20306/04/20 03:51:02 SPECI KMIA 040851Z 18007G22KT 1/2SM R09/1800V6000FT +TSRA FG SCT009 BKN013CB OVC025 22/21 A2999 RMK AO2 PK WND 18029/0838 RAB05 TSB26 PRESRR FRQ LTGICCG OHD TS OHD MOV N P0073 FIBI (AM)","FM-16","6",,,,,,,,,,,,,,,,,,,,,,,,,,,,"2009-07-14"
"72202012839","2020-06-04T03:53:00","FM-15","7",,,,,,,,,,,,,,,,,,,,,,,,,,,,,,,,,,,,,,"29.99","72","73","0.90s","TS:7 +RA:02 BR:1 |RA TS |RA","-0.02","3","96","29.98","SCT:04 9 BKN:07 13 OVC:08 25","29.96","0.75","72","180",,"7",,,,,,,,,,,,,,,,,,,,,,,,,,,,,,,,,,,,,"MET21706/04/20 03:53:02 METAR KMIA 040853Z 18006KT 3/4SM R09/0500V6000FT +TSRA BR SCT009 BKN013CB OVC025 23/22 A2999 RMK AO2 PK WND 18029/0838 RAB05 TSB26 SLP154 FRQ LTGICCG OHD TS OHD MOV N P0078 60078 T02280222 53006 (AM)","FM-15","7",,,,,,,,,,,,,,,,,,,,,,,,,,,,"2009-07-14"
"72202012839","2020-06-04T03:59:00","FM-16","7",,,,,,,,,,,,,,,,,,,,,,,,,,,,,,,,,,,,,,"29.99","72","73","0.12","TS:7 RA:02 BR:1 |RA TS |RA",,,"96",,"SCT:04 13 OVC:08 21","29.96","2.00","72","200",,"6",,,,,,,,,,,,,,,,,,,,,,,,,,,,,,,,,,,,,"MET17606/04/20 03:59:02 SPECI KMIA 040859Z 20005KT 2SM R09/0500VP6000FT TSRA BR SCT013CB OVC021 23/22 A2999 RMK AO2 LTG DSNT N AND E FRQ LTGICCG OHD TS OHD MOV N P0012 T02280222 (AM)","FM-16","7",,,,,,,,,,,,,,,,,,,,,,,,,,,,"2009-07-14"
"72202012839","2020-06-04T04:00:00","FM-12","4",,,,,,,,,,,,,,,,,,,,,,,,,,,,,,,,,,,,,,,"72","73",,,"-0.02","3","96","29.98","8","29.96","0.75","72","180",,"7",,,,,,,,,,,,,,,,,,,,,,,,,,,,,,,,,,,,,"SYN08672202 11312 81806 10228 20222 30146 40154 53006 60207 710// 90853 333 96010 555 90409=","FM-12","4",,,,,,,,,,,,,,,,,,,,,,,,,,,,"2009-07-14"
"72202012839","2020-06-04T04:04:00","FM-16","7",,,,,,,,,,,,,,,,,,,,,,,,,,,,,,,,,,,,,,"29.98","72","73","0.15","TS:7 -RA:02 BR:1 |RA TS |RA",,,"96",,"SCT:04 13 OVC:08 28","29.95","5.00","72","210",,"6",,,,,,,,,,,,,,,,,,,,,,,,,,,,,,,,,,,,,"MET18006/04/20 04:04:02 SPECI KMIA 040904Z 21005KT 5SM -TSRA BR SCT013CB OVC028 23/22 A2998 RMK AO2 LTG DSNT N AND E FRQ LTGICCG N-SE AND W-NW TS N-SE AND W-NW MOV N P0015 T02280222 (AM)","FM-16","7",,,,,,,,,,,,,,,,,,,,,,,,,,,,"2009-07-14"
"72202012839","2020-06-04T04:24:00","FM-16","7",,,,,,,,,,,,,,,,,,,,,,,,,,,,,,,,,,,,,,"29.97","72","73","0.17","TS:7 -RA:02 BR:1 |RA TS |RA",,,"94",,"FEW:02 15 BKN:07 40 OVC:08 100","29.94","6.00","72","000",,"0",,,,,,,,,,,,,,,,,,,,,,,,,,,,,,,,,,,,,"MET21606/04/20 04:24:02 SPECI KMIA 040924Z 00000KT 6SM -TSRA BR FEW015CB BKN040 OVC100 23/22 A2997 RMK AO2 LTG DSNT N AND NE FRQ LTGICCG N-NE AND W-NW AND DSNT E-SE TS N-NE AND W-NW MOV N CB DSNT E-SE MOV N P0017 T02330222","FM-16","7",,,,,,,,,,,,,,,,,,,,,,,,,,,,"2009-07-14"
"72202012839","2020-06-04T04:38:00","FM-16","7",,,,,,,,,,,,,,,,,,,,,,,,,,,,,,,,,,,,,,"29.97","72","73","0.21","-RA:02 BR:1 |RA |RA",,,"96",,"FEW:02 20 SCT:04 45 OVC:08 100","29.94","5.00","72","VRB",,"3",,,,,,,,,,,,,,,,,,,,,,,,,,,,,,,,,,,,,"MET18306/04/20 04:38:02 SPECI KMIA 040938Z VRB03KT 5SM -RA BR FEW020 SCT045 OVC100 23/22 A2997 RMK AO2 LTG DSNT N AND NE TSE38 OCNL LTGICCC DSNT N-NE CB DSNT N-NE MOV N P0021 T02280222 (AM)","FM-16","7",,,,,,,,,,,,,,,,,,,,,,,,,,,,"2009-07-14"
"72202012839","2020-06-04T04:53:00","FM-15","7",,,,,,,,,,,,,,,,,,,,,,,,,,,,,,,,,,,,,,"29.97","73","73","0.15","RA:02 BR:1 |RA |RA",,,"100","29.96","FEW:02 20 OVC:08 100","29.94","5.00","73","180",,"3",,,,,,,,,,,,,,,,,,,,,,,,,,,,,,,,,,,,,"MET17706/04/20 04:53:02 METAR KMIA 040953Z 18003KT 5SM RA BR FEW020 OVC100 23/23 A2997 RMK AO2 LTG DSNT N-E TSE38 SLP147 OCNL LTGICCC DSNT N-NE CB DSNT N-NE MOV N P0026 T02280228 (AM)","FM-15","7",,,,,,,,,,,,,,,,,,,,,,,,,,,,"2009-07-14"
"72202012839","2020-06-04T05:53:00","FM-15","7",,,,,,,,,,,,,,,,,,,,,,,,,,,,,,,,,,,,,,"29.96","73","75","0.03","-RA:02 |RA |RA",,,"94","29.96","FEW:02 20 SCT:04 100 OVC:08 140","29.93","10.00","74","000",,"0",,,,,,,,,,,,,,,,,,,,,,,,,,,,,,,,,,,,,"MET12306/04/20 05:53:02 METAR KMIA 041053Z 00000KT 10SM -RA FEW020 SCT100 OVC140 24/23 A2996 RMK AO2 SLP144 P0004 T02390228 (RLW)","FM-15","7",,,,,,,,,,,,,,,,,,,,,,,,,,,,"2009-07-14"
"72202012839","2020-06-04T06:53:00","FM-15","7",,,,,,,,,,,,,,,,,,,,,,,,,,,,,,,,,,,,,,"29.96","72","77","0.00",,"+0.02","5","85","29.96","FEW:02 20 FEW:02 90 BKN:07 140","29.93","10.00","74","060",,"3",,,,,,,,,,,,,,,,,,,,,,,,,,,,,,,,,,,,,"MET15706/04/20 06:53:02 METAR KMIA 041153Z 06003KT 10SM FEW020 FEW090 BKN140 25/22 A2996 RMK AO2 RAE1054 SLP146 P0000 60108 70187 T02500222 10272 20217 55008 (RLW)","FM-15","7",,,,,,,,,,,,,,,,,,,,,,,,,,,,"2009-07-14"
"72202012839","2020-06-04T07:00:00","FM-12","4",,,,,,,,,,,,,,,,,,,,,,,,,,,,,,,,,,,,,,,"72","77",,,"+0.02","5","85","29.96","26","29.93","9.94","74","060",,"3",,,,,,,,,,,,,,,,,,,,,,,,,,,,,,,,,,,,,"SYN09272202 12566 60603 10250 20222 30135 40146 55008 60271 91153 333 10306 20217 70475 555 90412=","FM-12","4",,,,,,,,,,,,,,,,,,,,,,,,,,,,"2009-07-14"
"72202012839","2020-06-04T07:53:00","FM-15","7",,,,,,,,,,,,,,,,,,,,,,,,,,,,,,,,,,,,,,"29.98","73","79","0.00",,,,"82","29.98","FEW:02 20 BKN:07 110 BKN:07 160","29.95","10.00","75","080",,"3",,,,,,,,,,,,,,,,,,,,,,,,,,,,,,,,,,,,,"MET11306/04/20 07:53:02 METAR KMIA 041253Z 08003KT 10SM FEW020 BKN110 BKN160 26/23 A2998 RMK AO2 SLP153 T02610228 (RLW)","FM-15","7",,,,,,,,,,,,,,,,,,,,,,,,,,,,"2009-07-14"
"72202012839","2020-06-04T08:47:00","FM-16","6",,,,,,,,,,,,,,,,,,,,,,,,,,,,,,,,,,,,,,"30.01","75","81",,"VCTS:7 ||",,,"84",,"SCT:04 20 BKN:07 140 OVC:08 250","29.98","10.00","77","160","23","16",,,,,,,,,,,,,,,,,,,,,,,,,,,,,,,,,,,,,"MET16006/04/20 08:47:02 SPECI KMIA 041347Z 16014G20KT 10SM VCTS SCT020CB BKN140 OVC250 27/24 A3001 RMK AO2 LTG DSNT NE-SE PRESRR CB E-S MOV N CB DSNT NE-E MOV N (RLW)","FM-16","6",,,,,,,,,,,,,,,,,,,,,,,,,,,,"2009-07-14"
"72202012839","2020-06-04T08:53:00","FM-15","6",,,,,,,,,,,,,,,,,,,,,,,,,,,,,,,,,,,,,,"30.01","70","78","T",,,,"76","30.01","SCT:04 20 BKN:07 40","29.98","10.00","73","150","24","11",,,,,,,,,,,,,,,,,,,,,,,,,,,,,,,,,,,,,"MET16806/04/20 08:53:02 METAR KMIA 041353Z 15010G21KT 10SM VCTS SCT020CB BKN040 BKN1 26/21 A3001 RMK AO2 LTG DSNT NE-SE SLP163 CB E-S MOV N CB DSNT NE-E MOV N T02560211 (RLW)","FM-15","6",,,,,,,,,,,,,,,,,,,,,,,,,,,,"2009-07-14"
"72202012839","2020-06-04T09:06:00","FM-16","6",,,,,,,,,,,,,,,,,,,,,,,,,,,,,,,,,,,,,,"30.01","70","76",,,,,"82",,"SCT:04 20 SCT:04 40","29.98","10.00","72","140","18","9",,,,,,,,,,,,,,,,,,,,,,,,,,,,,,,,,,,,,"MET15706/04/20 09:06:02 SPECI KMIA 041406Z 14008G16KT 10SM -RA SCT020CB SCT040 BKN0 24/21 A3001 RMK AO2 LTG DSNT E RAB1356 CB E-DSNT NE MOV N P0000 T02440211 (RLW)","FM-16","6",,,,,,,,,,,,,,,,,,,,,,,,,,,,"2009-07-14"
"72202012839","2020-06-04T09:53:00","FM-15","6",,,,,,,,,,,,,,,,,,,,,,,,,,,,,,,,,,,,,,"30.00","71","79","T",,"-0.01","0","77","29.99","FEW:02 20 SCT:04 110 BKN:07 160","29.97","10.00","74","VRB",,"5",,,,,,,,,,,,,,,,,,,,,,,,,,,,,,,,,,,,,"MET16506/04/20 09:53:02 METAR KMIA 041453Z VRB04KT 10SM FEW020 SCT110 BKN160 26/22 A3000 RMK AO2 RAB1356E07 SLP157 CB DSNT NW-NE-SE MOV N P0000 60000 T02610217 50004 (RLW)","FM-15","6",,,,,,,,,,,,,,,,,,,,,,,,,,,,"2009-07-14"
"72202012839","2020-06-04T10:53:00","FM-15","7",,,,,,,,,,,,,,,,,,,,,,,,,,,,,,,,,,,,,,"30.02","74","83","0.00",,,,"74","30.02","FEW:02 18 SCT:04 25","29.99","10.00","77","140","25","17",,,,,,,,,,,,,,,,,,,,,,,,,,,,,,,,,,,,,"MET13006/04/20 10:53:02 METAR KMIA 041553Z 14015G22KT 10SM FEW018CB SCT025 BKN0 28/23 A3002 RMK AO2 SLP165 CB E-SE MOV N T02830233 (RLW)","FM-15","7",,,,,,,,,,,,,,,,,,,,,,,,,,,,"2009-07-14"
"72202012839","2020-06-04T11:53:00","FM-15","7",,,,,,,,,,,,,,,,,,,,,,,,,,,,,,,,,,,,,,"30.03","74","79","T","|RA |",,,"85","30.03","FEW:02 25 SCT:04 50 BKN:07 80","30.00","10.00","76","120",,"11",,,,,,,,,,,,,,,,,,,,,,,,,,,,,,,,,,,,,"MET12906/04/20 11:53:02 METAR KMIA 041653Z 12010KT 10SM -RA FEW025 SCT050 BKN080 26/23 A3003 RMK AO2 RAB32 SLP169 P0000 T02610233 (RLW)","FM-15","7",,,,,,,,,,,,,,,,,,,,,,,,,,,,"2009-07-14"
"72202012839","2020-06-04T12:53:00","FM-15","7",,,,,,,,,,,,,,,,,,,,,,,,,,,,,,,,,,,,,,"30.00","75","84","T",,"-0.01","0","74","30.00","SCT:04 19 SCT:04 60 BKN:07 90","29.97","10.00","78","140",,"10",,,,,,,,,,,,,,,,,,,,,,,,,,,,,,,,,,,,,"MET18106/04/20 12:53:02 METAR KMIA 041753Z 14009KT 10SM SCT019 SCT060 BKN090 29/24 A3000 RMK AO2 LTG DSNT NW RAE21 SLP160 CB DSNT ALQDS MOV N P0000 60000 T02890239 10289 20244 50002 (RLW)","FM-15","7",,,,,,,,,,,,,,,,,,,,,,,,,,,,"2009-07-14"
"72202012839","2020-06-04T13:00:00","FM-12","4",,,,,,,,,,,,,,,,,,,,,,,,,,,,,,,,,,,,,,,"75","84",,,"0.01","9","74","30.00","15","29.97","9.94","78","140",,"10",,,,,,,,,,,,,,,,,,,,,,,,,,,,,,,,,,,,,"SYN08672202 12466 81409 10289 20239 30149 40160 50002 69901 91753 333 10289 20239 555 90418=","FM-12","4",,,,,,,,,,,,,,,,,,,,,,,,,,,,"2009-07-14"
"72202012839","2020-06-04T13:27:00","FM-16","7",,,,,,,,,,,,,,,,,,,,,,,,,,,,,,,,,,,,,,"30.01","74","77","0.01","|RA |",,,"90",,"BKN:07 19 BKN:07 30","29.98","2.50","75","180","31","22",,,,,,,,,,,,,,,,,,,,,,,,,,,,,,,,,,,,,"MET18706/04/20 13:27:02 SPECI KMIA 041827Z 18019G27KT 2 1/2SM R09/1000VP6000FT +RA BR BKN019CB BKN030 BKN0 25/23 A3001 RMK AO2 PK WND 17027/1825 RAB16 CB SE-SW-NW MOV MOV N P0001 T02500233 (EM)","FM-16","7",,,,,,,,,,,,,,,,,,,,,,,,,,,,"2009-07-14"
"72202012839","2020-06-04T13:33:00","FM-16","7",,,,,,,,,,,,,,,,,,,,,,,,,,,,,,,,,,,,,,"30.01","73","74","0.35","+RA:02 BR:1 |RA |RA",,,"97",,"SCT:04 8 BKN:07 19 OVC:08 90","29.98","0.75","73","170","31","11",,,,,,,,,,,,,,,,,,,,,,,,,,,,,,,,,,,,,"MET18406/04/20 13:33:02 SPECI KMIA 041833Z 17010G27KT 3/4SM R09/1000V4500FT +RA BR SCT008 BKN019CB OVC090 23/23 A3001 RMK AO2 PK WND 17027/1825 RAB16 CB OHD-S-W-NW MOV N P0035 T02330228 (EM)","FM-16","7",,,,,,,,,,,,,,,,,,,,,,,,,,,,"2009-07-14"
"72202012839","2020-06-04T13:39:00","FM-16","7",,,,,,,,,,,,,,,,,,,,,,,,,,,,,,,,,,,,,,"30.00","74","75","0.43","+RA:02 BR:1 |RA |RA",,,"96",,"SCT:04 8 BKN:07 17 OVC:08 90","29.97","1.75","74","150",,"10",,,,,,,,,,,,,,,,,,,,,,,,,,,,,,,,,,,,,"MET18206/04/20 13:39:02 SPECI KMIA 041839Z 15009KT 1 3/4SM R09/2400VP6000FT +RA BR SCT008 BKN017CB OVC090 24/23 A3000 RMK AO2 PK WND 17027/1825 RAB16RAEMM CB OHD MOV N P0043 T02390233 (EM)","FM-16","7",,,,,,,,,,,,,,,,,,,,,,,,,,,,"2009-07-14"
"72202012839","2020-06-04T13:48:00","FM-16","7",,,,,,,,,,,,,,,,,,,,,,,,,,,,,,,,,,,,,,"30.01","73","75","0.45","|RA |RA",,,"94",,"SCT:04 16 BKN:07 29","29.98","5.00","74","160","23","13",,,,,,,,,,,,,,,,,,,,,,,,,,,,,,,,,,,,,"MET16106/04/20 13:48:02 SPECI KMIA 041848Z 16011G20KT 5SM RA BR SCT016CB BKN029 BKN0 24/23 A3001 RMK AO2 PK WND 17027/1825 RAB16RAEMMB41 CB SE-NW-NE MOV N P0045 $ (EM)","FM-16","7",,,,,,,,,,,,,,,,,,,,,,,,,,,,"2009-07-14"
"72202012839","2020-06-04T13:53:00","FM-15","7",,,,,,,,,,,,,,,,,,,,,,,,,,,,,,,,,,,,,,"30.00","72","75","0.47","|RA |RA",,,"90","30.00","SCT:04 16 BKN:07 29","29.97","6.00","73","170","23","9",,,,,,,,,,,,,,,,,,,,,,,,,,,,,,,,,,,,,"MET17806/04/20 13:53:02 METAR KMIA 041853Z 17008G20KT 6SM RA BR SCT016CB BKN029 BKN0 24/22 A3000 RMK AO2 PK WND 17027/1825 RAB16RAEMMB41 SLP160 CB SW-NW-NE MOV N P0046 T02390222 $ (EM)","FM-15","7",,,,,,,,,,,,,,,,,,,,,,,,,,,,"2009-07-14"
"72202012839","2020-06-04T14:53:00","FM-15","7",,,,,,,,,,,,,,,,,,,,,,,,,,,,,,,,,,,,,,"29.97","76","77","0.22","-RA:02 |RA |RA",,,"96","29.97","SCT:04 30 BKN:07 65 OVC:08 90","29.94","9.00","76","100",,"6",,,,,,,,,,,,,,,,,,,,,,,,,,,,,,,,,,,,,"MET12306/04/20 14:53:02 METAR KMIA 041953Z 10005KT 9SM -RA SCT030 BKN065 OVC090 25/24 A2997 RMK AO2 SLP148 P0022 T02500244 $ (EM)","FM-15","7",,,,,,,,,,,,,,,,,,,,,,,,,,,,"2009-07-14"
"72202012839","2020-06-04T15:53:00","FM-15","7",,,,,,,,,,,,,,,,,,,,,,,,,,,,,,,,,,,,,,"29.98","75","79","T","|RA |RA","+0.02","5","88","29.98","FEW:02 25 SCT:04 65 BKN:07 100","29.95","10.00","76","130",,"6",,,,,,,,,,,,,,,,,,,,,,,,,,,,,,,,,,,,,"MET14306/04/20 15:53:02 METAR KMIA 042053Z 13005KT 10SM -RA FEW025 SCT065 BKN100 26/24 A2998 RMK AO2 RAE07B33 SLP151 P0001 60069 T02610239 55008 (EM)","FM-15","7",,,,,,,,,,,,,,,,,,,,,,,,,,,,"2009-07-14"
"72202012839","2020-06-04T16:00:00","FM-12","4",,,,,,,,,,,,,,,,,,,,,,,,,,,,,,,,,,,,,,,"75","79",,"||RA","+0.02","5","88","29.98","26","29.95","9.94","76","130",,"6",,,,,,,,,,,,,,,,,,,,,,,,,,,,,,,,,,,,,"SYN07672202 11566 81305 10261 20239 30142 40151 55008 60187 761// 92053 555 90421=","FM-12","4",,,,,,,,,,,,,,,,,,,,,,,,,,,,"2009-07-14"
"72202012839","2020-06-04T16:53:00","FM-15","7",,,,,,,,,,,,,,,,,,,,,,,,,,,,,,,,,,,,,,"29.98","74","79","T","-RA:02 |RA |RA",,,"85","29.98","SCT:04 20 BKN:07 70 OVC:08 130","29.95","10.00","76","120",,"7",,,,,,,,,,,,,,,,,,,,,,,,,,,,,,,,,,,,,"MET13306/04/20 16:53:02 METAR KMIA 042153Z 12006KT 10SM -RA SCT020 BKN070 OVC130 26/23 A2998 RMK AO2 RAE2057B25 SLP151 P0000 T02610233 (EM)","FM-15","7",,,,,,,,,,,,,,,,,,,,,,,,,,,,"2009-07-14"
"72202012839","2020-06-04T17:53:00","FM-15","7",,,,,,,,,,,,,,,,,,,,,,,,,,,,,,,,,,,,,,"29.98","74","80","T",,,,"82","29.98","FEW:02 20 FEW:02 70 SCT:04 110","29.95","10.00","76","070",,"6",,,,,,,,,,,,,,,,,,,,,,,,,,,,,,,,,,,,,"MET13206/04/20 17:53:02 METAR KMIA 042253Z 07005KT 10SM FEW020 FEW070 SCT110 27/23 A2998 RMK AO2 RAE2159B21E40 SLP152 P0000 T02670233 (EM)","FM-15","7",,,,,,,,,,,,,,,,,,,,,,,,,,,,"2009-07-14"
"72202012839","2020-06-04T18:48:00","FM-16","7",,,,,,,,,,,,,,,,,,,,,,,,,,,,,,,,,,,,,,"30.00","73","79",,,,,"84",,"SCT:04 23 BKN:07 30","29.97","10.00","75","120",,"3",,,,,,,,,,,,,,,,,,,,,,,,,,,,,,,,,,,,,"MET08806/04/20 18:48:02 SPECI KMIA 042348Z 12003KT 10SM SCT023 BKN030 26/23 A3000 RMK AO2 (EM)","FM-16","7",,,,,,,,,,,,,,,,,,,,,,,,,,,,"2009-07-14"
"72202012839","2020-06-04T18:53:00","FM-15","7",,,,,,,,,,,,,,,,,,,,,,,,,,,,,,,,,,,,,,"30.00","74","79","0.00",,"-0.02","3","85","30.00","SCT:04 23 BKN:07 100 OVC:08 160","29.97","10.00","76","120",,"3",,,,,,,,,,,,,,,,,,,,,,,,,,,,,,,,,,,,,"MET13606/04/20 18:53:02 METAR KMIA 042353Z 12003KT 10SM SCT023 BKN100 OVC160 26/23 A3000 RMK AO2 SLP158 60069 T02610233 10289 20233 53007 (EM)","FM-15","7",,,,,,,,,,,,,,,,,,,,,,,,,,,,"2009-07-14"
"72202012839","2020-06-04T19:00:00","FM-12","4",,,,,,,,,,,,,,,,,,,,,,,,,,,,,,,,,,,,,,,"74","79",,,"-0.02","3","85","30.00","26","29.97","9.94","76","120",,"3",,,,,,,,,,,,,,,,,,,,,,,,,,,,,,,,,,,,,"SYN08672202 12566 81203 10261 20233 30149 40158 53007 60181 92353 333 10289 20217 555 90500=","FM-12","4",,,,,,,,,,,,,,,,,,,,,,,,,,,,"2009-07-14"
"72202012839","2020-06-04T19:53:00","FM-15","7",,,,,,,,,,,,,,,,,,,,,,,,,,,,,,,,,,,,,,"30.01","74","79","0.00",,,,"85","30.01","FEW:02 25 SCT:04 100 BKN:07 160","29.98","10.00","76","000",,"0",,,,,,,,,,,,,,,,,,,,,,,,,,,,,,,,,,,,,"MET10706/04/20 19:53:01 METAR KMIA 050053Z 00000KT 10SM FEW025 SCT100 BKN160 26/23 A3001 RMK AO2 SLP164 T02610233","FM-15","7",,,,,,,,,,,,,,,,,,,,,,,,,,,,"2009-07-14"
"72202012839","2020-06-04T20:53:00","FM-15","7",,,,,,,,,,,,,,,,,,,,,,,,,,,,,,,,,,,,,,"30.03","74","79","0.00",,,,"85","30.03","FEW:02 23 SCT:04 50 BKN:07 160","30.00","10.00","76","000",,"0",,,,,,,,,,,,,,,,,,,,,,,,,,,,,,,,,,,,,"MET10706/04/20 20:53:01 METAR KMIA 050153Z 00000KT 10SM FEW023 SCT050 BKN160 26/23 A3003 RMK AO2 SLP168 T02610233","FM-15","7",,,,,,,,,,,,,,,,,,,,,,,,,,,,"2009-07-14"
"72202012839","2020-06-04T21:53:00","FM-15","7",,,,,,,,,,,,,,,,,,,,,,,,,,,,,,,,,,,,,,"30.02","74","79","0.00",,"-0.03","0","85","30.02","FEW:02 100 BKN:07 150 OVC:08 210","29.99","10.00","76","030",,"3",,,,,,,,,,,,,,,,,,,,,,,,,,,,,,,,,,,,,"MET11306/04/20 21:53:01 METAR KMIA 050253Z 03003KT 10SM FEW100 BKN150 OVC210 26/23 A3002 RMK AO2 SLP167 T02610233 50009","FM-15","7",,,,,,,,,,,,,,,,,,,,,,,,,,,,"2009-07-14"
"72202012839","2020-06-04T22:00:00","FM-12","4",,,,,,,,,,,,,,,,,,,,,,,,,,,,,,,,,,,,,,,"74","79",,,"0.03","9","85","30.02",,"29.99","9.94","76","030",,"3",,,,,,,,,,,,,,,,,,,,,,,,,,,,,,,,,,,,,"SYN06472202 32966 80303 10261 20233 30156 40167 50009 90253 555 90503=","FM-12","4",,,,,,,,,,,,,,,,,,,,,,,,,,,,"2009-07-14"
"72202012839","2020-06-04T22:53:00","FM-15","7",,,,,,,,,,,,,,,,,,,,,,,,,,,,,,,,,,,,,,"30.02","74","79","0.00",,,,"85","30.02","FEW:02 17 BKN:07 150 OVC:08 250","29.99","10.00","76","100",,"6",,,,,,,,,,,,,,,,,,,,,,,,,,,,,,,,,,,,,"MET10706/04/20 22:53:02 METAR KMIA 050353Z 10005KT 10SM FEW017 BKN150 OVC250 26/23 A3002 RMK AO2 SLP167 T02610233","FM-15","7",,,,,,,,,,,,,,,,,,,,,,,,,,,,"2009-07-14"
"72202012839","2020-06-04T23:53:00","FM-15","7",,,,,,,,,,,,,,,,,,,,,,,,,,,,,,,,,,,,,,"30.02","76","80","0.00",,,,"87","30.02","SCT:04 17 OVC:08 150","29.99","10.00","77","130",,"6",,,,,,,,,,,,,,,,,,,,,,,,,,,,,,,,,,,,,"MET11006/04/20 23:53:02 METAR KMIA 050453Z 13005KT 10SM SCT017 OVC150 27/24 A3002 RMK AO2 SLP165 T02670244 402890217","FM-15","7",,,,,,,,,,,,,,,,,,,,,,,,,,,,"2009-07-14"
"72202012839","2020-06-04T23:59:00","SOD  ","6",,,,,,,,,,,,,,,"74","78","86","29.99","29.95","75","5.7","13","-4.1","0","84","71","180","33","1.77",,,"170","23","TS RA FG BR",,,,,,,,,,,,,,,,,,,,,,,,,,,,,,,,,,,,,,,,,,,,,,,,,,,,,,,,"SOD75724 HR PRECIPITATION (IN): 1.77 SNOW DEPTH (IN):0     24 HR SNOWFALL (IN):0.0  WEATHER(CODE):13  24 HR MAX TEMP (F): 8424 HR MIN TEMP (F): 71AVERAGE STATION PRESSURE:29.945 MINIMUM SEA LEVEL PRESSURE:29.94 TIME OF OCCURRENCE:0322 PEAK WIND SPEED (MPH): 33 PEAK WIND DIR (DEG):180 PEAK WIND TIME (LST):      FASTEST 2MIN SPEED (MPH): 23FASTEST 2MIN DIR (DEG):170 FASTEST 2MIN TIME (LST):     AVERAGE WIND SPEED (MPH): 5.7 24 HR AVG TEMP (F): 78DEPART FROM NORMAL: -4  HEATING DEGREE DAYS:  0 COOLING DEGREE DAYS: 13 LATEST DAY MAX TEMP (0700-1900 LST):84  LATEST NIGHT MIN TEMP(1900-0800 LST):71 HOURLY INCREMENTAL PRECIPITATION VALUES (IN):.00 0.00 0.00 0.90 0.15 0.03 0.00 0.00 T    T    0.00 T    T    0.47 0.22 T    T    T    0.00 0.00 0.00 0.00 0.00 0.00","SOD  ","6",,,,,,,,,,,,,,,,,,,,,,,,,"0529","1910",,"2009-07-14"
"72202012839","2020-06-05T00:53:00","FM-15","7",,,,,,,,,,,,,,,,,,,,,,,,,,,,,,,,,,,,,,"30.00","76","81","0.00",,"+0.03","8","85","30.00","SCT:04 20 SCT:04 50 BKN:07 130","29.97","10.00","77","VRB",,"8",,,,,,,,,,,,,,,,,,,,,,,,,,,,,,,,,,,,,"MET13006/05/20 00:53:02 METAR KMIA 050553Z 13007KT 10SM SCT020 SCT050 BKN130 27/24 A3000 RMK AO2 SLP158 T02720244 10272 20256 58009 (AM)","FM-15","7",,,,,,,,,,,,,,,,,,,,,,,,,,,,"2009-07-14"
"72202012839","2020-06-05T01:00:00","FM-12","4",,,,,,,,,,,,,,,,,,,,,,,,,,,,,,,,,,,,,,,"76","81",,,"+0.03","8","85","30.00","26","29.97","9.94","77","130",,"8",,,,,,,,,,,,,,,,,,,,,,,,,,,,,,,,,,,,,"SYN08072202 32566 81307 10272 20244 30149 40158 58009 90553 333 10272 20217 555 90506=","FM-12","4",,,,,,,,,,,,,,,,,,,,,,,,,,,,"2009-07-14"
"72202012839","2020-06-05T01:53:00","FM-15","7",,,,,,,,,,,,,,,,,,,,,,,,,,,,,,,,,,,,,,"29.98","77","81","0.00",,,,"88","29.98","SCT:04 20 BKN:07 80 BKN:07 150","29.95","10.00","78","120",,"8",,,,,,,,,,,,,,,,,,,,,,,,,,,,,,,,,,,,,"MET11206/05/20 01:53:02 METAR KMIA 050653Z 12007KT 10SM SCT020 BKN080 BKN150 27/25 A2998 RMK AO2 SLP153 T02720250 (AM)","FM-15","7",,,,,,,,,,,,,,,,,,,,,,,,,,,,"2009-07-14"
"72202012839","2020-06-05T02:53:00","FM-15","7",,,,,,,,,,,,,,,,,,,,,,,,,,,,,,,,,,,,,,"29.98","77","80","0.00",,,,"90","29.98","SCT:04 17 BKN:07 80 BKN:07 150","29.95","10.00","78","110",,"7",,,,,,,,,,,,,,,,,,,,,,,,,,,,,,,,,,,,,"MET11206/05/20 02:53:02 METAR KMIA 050753Z 11006KT 10SM SCT017 BKN080 BKN150 27/25 A2998 RMK AO2 SLP151 T02670250 (AM)","FM-15","7",,,,,,,,,,,,,,,,,,,,,,,,,,,,"2009-07-14"
"72202012839","2020-06-05T03:53:00","FM-15","7",,,,,,,,,,,,,,,,,,,,,,,,,,,,,,,,,,,,,,"29.98","77","81","0.00",,"+0.01","5","88","29.98","SCT:04 17 BKN:07 55 BKN:07 80","29.95","10.00","78","120",,"6",,,,,,,,,,,,,,,,,,,,,,,,,,,,,,,,,,,,,"MET11806/05/20 03:53:02 METAR KMIA 050853Z 12005KT 10SM SCT017 BKN055 BKN080 27/25 A2998 RMK AO2 SLP153 T02720250 55005 (AM)","FM-15","7",,,,,,,,,,,,,,,,,,,,,,,,,,,,"2009-07-14"
"72202012839","2020-06-05T04:00:00","FM-12","4",,,,,,,,,,,,,,,,,,,,,,,,,,,,,,,,,,,,,,,"77","81",,,"+0.01","5","88","29.98","15","29.95","9.94","78","120",,"6",,,,,,,,,,,,,,,,,,,,,,,,,,,,,,,,,,,,,"SYN06472202 32466 61205 10272 20250 30142 40153 55005 90853 555 90509=","FM-12","4",,,,,,,,,,,,,,,,,,,,,,,,,,,,"2009-07-14"
"72202012839","2020-06-05T04:53:00","FM-15","7",,,,,,,,,,,,,,,,,,,,,,,,,,,,,,,,,,,,,,"29.99","77","81","0.00",,,,"88","29.99","FEW:02 15 BKN:07 75 BKN:07 150","29.96","10.00","78","130",,"7",,,,,,,,,,,,,,,,,,,,,,,,,,,,,,,,,,,,,"MET11206/05/20 04:53:02 METAR KMIA 050953Z 13006KT 10SM FEW015 BKN075 BKN150 27/25 A2999 RMK AO2 SLP156 T02720250 (AM)","FM-15","7",,,,,,,,,,,,,,,,,,,,,,,,,,,,"2009-07-14"
"72202012839","2020-06-05T05:53:00","FM-15","7",,,,,,,,,,,,,,,,,,,,,,,,,,,,,,,,,,,,,,"30.00","78","80","0.00",,,,"94","30.00","FEW:02 15 FEW:02 75 SCT:04 160","29.97","10.00","79","120",,"6",,,,,,,,,,,,,,,,,,,,,,,,,,,,,,,,,,,,,"MET11306/05/20 05:53:02 METAR KMIA 051053Z 12005KT 10SM FEW015 FEW075 SCT160 27/26 A3000 RMK AO2 SLP158 T02670256 (RLW)","FM-15","7",,,,,,,,,,,,,,,,,,,,,,,,,,,,"2009-07-14"
"72202012839","2020-06-05T06:53:00","FM-15","7",,,,,,,,,,,,,,,,,,,,,,,,,,,,,,,,,,,,,,"30.01","78","82","T",,"-0.02","3","88","30.01","FEW:02 14 FEW:02 90 BKN:07 190","29.98","10.00","79","110",,"8",,,,,,,,,,,,,,,,,,,,,,,,,,,,,,,,,,,,,"MET15806/05/20 06:53:02 METAR KMIA 051153Z 11007KT 10SM FEW014 FEW090 BKN190 28/26 A3001 RMK AO2 RAB06E15 SLP162 P0000 60000 70069 T02780256 10278 20267 53008 (RLW)","FM-15","7",,,,,,,,,,,,,,,,,,,,,,,,,,,,"2009-07-14"
"72202012839","2020-06-05T07:00:00","FM-12","4",,,,,,,,,,,,,,,,,,,,,,,,,,,,,,,,,,,,,,,"78","82",,,"-0.02","3","88","30.01","15","29.98","9.94","79","110",,"8",,,,,,,,,,,,,,,,,,,,,,,,,,,,,,,,,,,,,"SYN09272202 12466 81107 10278 20256 30152 40162 53008 69901 91153 333 10289 20256 70175 555 90512=","FM-12","4",,,,,,,,,,,,,,,,,,,,,,,,,,,,"2009-07-14"
"72202012839","2020-06-05T07:53:00","FM-15","7",,,,,,,,,,,,,,,,,,,,,,,,,,,,,,,,,,,,,,"30.03","78","83","0.00",,,,"85","30.03","SCT:04 15 SCT:04 20 BKN:07 200","30.00","10.00","79","140",,"10",,,,,,,,,,,,,,,,,,,,,,,,,,,,,,,,,,,,,"MET11306/05/20 07:53:02 METAR KMIA 051253Z 14009KT 10SM SCT015 SCT020 BKN200 28/26 A3003 RMK AO2 SLP168 T02830256 (RLW)","FM-15","7",,,,,,,,,,,,,,,,,,,,,,,,,,,,"2009-07-14"
"72202012839","2020-06-05T08:00:00","FM-16","7",,,,,,,,,,,,,,,,,,,,,,,,,,,,,,,,,,,,,,"30.03","78","84",,,,,"82",,"SCT:04 15 BKN:07 23 BKN:07 200","30.00","10.00","80","130",,"13",,,,,,,,,,,,,,,,,,,,,,,,,,,,,,,,,,,,,"MET10606/05/20 08:00:02 SPECI KMIA 051300Z 13011KT 10SM SCT015 BKN023 BKN200 29/26 A3003 RMK AO2 T02890256 (RLW)","FM-16","7",,,,,,,,,,,,,,,,,,,,,,,,,,,,"2009-07-14"
"72202012839","2020-06-05T08:22:00","FM-16","7",,,,,,,,,,,,,,,,,,,,,,,,,,,,,,,,,,,,,,"30.03","78","84",,,,,"82",,"SCT:04 17 BKN:07 200 OVC:08 250","30.00","10.00","80","120","23","11",,,,,,,,,,,,,,,,,,,,,,,,,,,,,,,,,,,,,"MET10906/05/20 08:22:02 SPECI KMIA 051322Z 12010G20KT 10SM SCT017 BKN200 OVC250 29/26 A3003 RMK AO2 T02890256 (RLW)","FM-16","7",,,,,,,,,,,,,,,,,,,,,,,,,,,,"2009-07-14"
"72202012839","2020-06-05T08:48:00","FM-16","7",,,,,,,,,,,,,,,,,,,,,,,,,,,,,,,,,,,,,,"30.04","79","84",,,,,"84",,"BKN:07 16 BKN:07 200 OVC:08 250","30.01","10.00","80","130",,"10",,,,,,,,,,,,,,,,,,,,,,,,,,,,,,,,,,,,,"MET09606/05/20 08:48:02 SPECI KMIA 051348Z 13009KT 10SM BKN016 BKN200 OVC250 29/26 A3004 RMK AO2 (RLW)","FM-16","7",,,,,,,,,,,,,,,,,,,,,,,,,,,,"2009-07-14"
"72202012839","2020-06-05T08:53:00","FM-15","7",,,,,,,,,,,,,,,,,,,,,,,,,,,,,,,,,,,,,,"30.04","79","85","0.00",,,,"82","30.03","BKN:07 16 BKN:07 200 OVC:08 250","30.01","10.00","81","130",,"9",,,,,,,,,,,,,,,,,,,,,,,,,,,,,,,,,,,,,"MET11306/05/20 08:53:02 METAR KMIA 051353Z 13008KT 10SM BKN016 BKN200 OVC250 29/26 A3004 RMK AO2 SLP171 T02940261 (RLW)","FM-15","7",,,,,,,,,,,,,,,,,,,,,,,,,,,,"2009-07-14"
"72202012839","2020-06-05T09:53:00","FM-15","7",,,,,,,,,,,,,,,,,,,,,,,,,,,,,,,,,,,,,,"30.04","78","86","0.00",,"-0.01","1","77","30.04","BKN:07 17 BKN:07 250","30.01","10.00","80","110","22","13",,,,,,,,,,,,,,,,,,,,,,,,,,,,,,,,,,,,,"MET11506/05/20 09:53:02 METAR KMIA 051453Z 11011G19KT 10SM BKN017 BKN250 30/26 A3004 RMK AO2 SLP172 T03000256 51004 (RLW)","FM-15","7",,,,,,,,,,,,,,,,,,,,,,,,,,,,"2009-07-14"
"72202012839","2020-06-05T10:00:00","FM-12","4",,,,,,,,,,,,,,,,,,,,,,,,,,,,,,,,,,,,,,,"78","86",,,"-0.01","1","77","30.04","15","30.01","9.94","80","110",,"13",,,,,,,,,,,,,,,,,,,,,,,,,,,,,,,,,,,,,"SYN07472202 32466 61111 10300 20256 30163 40172 51004 91453 333 91019 555 90515=","FM-12","4",,,,,,,,,,,,,,,,,,,,,,,,,,,,"2009-07-14"
"72202012839","2020-06-05T10:53:00","FM-15","7",,,,,,,,,,,,,,,,,,,,,,,,,,,,,,,,,,,,,,"30.04","79","86","0.00",,,,"80","30.04","BKN:07 18 BKN:07 70 BKN:07 130","30.01","10.00","81","140","21","16",,,,,,,,,,,,,,,,,,,,,,,,,,,,,,,,,,,,,"MET13706/05/20 10:53:02 METAR KMIA 051553Z 14014G18KT 10SM BKN018 BKN070 BKN130 30/26 A3004 RMK AO2 SLP172 CB DSNT SE-SW MOV NW T03000261 (RLW)","FM-15","7",,,,,,,,,,,,,,,,,,,,,,,,,,,,"2009-07-14"
"72202012839","2020-06-05T11:53:00","FM-15","7",,,,,,,,,,,,,,,,,,,,,,,,,,,,,,,,,,,,,,"30.02","79","86","0.00",,,,"80","30.02","BKN:07 18 BKN:07 170 OVC:08 250","29.99","10.00","81","130",,"13",,,,,,,,,,,,,,,,,,,,,,,,,,,,,,,,,,,,,"MET14106/05/20 11:53:02 METAR KMIA 051653Z 13011KT 10SM BKN018CB BKN170 OVC250 30/26 A3002 RMK AO2 SLP167 CB SW AND DSNT W-NW MOV N T03000261 (RLW)","FM-15","7",,,,,,,,,,,,,,,,,,,,,,,,,,,,"2009-07-14"
"72202012839","2020-06-05T12:53:00","FM-15","7",,,,,,,,,,,,,,,,,,,,,,,,,,,,,,,,,,,,,,"30.00","78","86","0.00",,"+0.04","8","77","30.00","BKN:07 16 BKN:07 130 BKN:07 170","29.97","10.00","80","130",,"18",,,,,,,,,,,,,,,,,,,,,,,,,,,,,,,,,,,,,"MET14206/05/20 12:53:02 METAR KMIA 051753Z 13016KT 10SM BKN016 BKN130 BKN170 30/26 A3000 RMK AO2 LTG DSNT N SLP158 T03000256 10311 20278 58014 (RLW)","FM-15","7",,,,,,,,,,,,,,,,,,,,,,,,,,,,"2009-07-14"
"72202012839","2020-06-05T13:00:00","FM-12","4",,,,,,,,,,,,,,,,,,,,,,,,,,,,,,,,,,,,,,,"78","86",,,"+0.04","8","77","30.00","15","29.97","9.94","80","130",,"18",,,,,,,,,,,,,,,,,,,,,,,,,,,,,,,,,,,,,"SYN08072202 32466 81316 10300 20256 30149 40158 58014 91753 333 10311 20233 555 90518=","FM-12","4",,,,,,,,,,,,,,,,,,,,,,,,,,,,"2009-07-14"
"72202012839","2020-06-05T13:53:00","FM-15","7",,,,,,,,,,,,,,,,,,,,,,,,,,,,,,,,,,,,,,"29.98","79","85","0.00",,,,"82","29.98","BKN:07 16 BKN:07 100 BKN:07 170","29.95","10.00","81","120","23","15",,,,,,,,,,,,,,,,,,,,,,,,,,,,,,,,,,,,,"MET12906/05/20 13:53:02 METAR KMIA 051853Z 12013G20KT 10SM BKN016 BKN100 BKN170 29/26 A2998 RMK AO2 LTG DSNT S-NW SLP153 T02940261 (EM)","FM-15","7",,,,,,,,,,,,,,,,,,,,,,,,,,,,"2009-07-14"
"72202012839","2020-06-05T14:53:00","FM-15","7",,,,,,,,,,,,,,,,,,,,,,,,,,,,,,,,,,,,,,"29.98","78","84","0.00",,,,"82","29.98","BKN:07 19 BKN:07 100 OVC:08 180","29.95","10.00","80","120","22","13",,,,,,,,,,,,,,,,,,,,,,,,,,,,,,,,,,,,,"MET14506/05/20 14:53:02 METAR KMIA 051953Z 12011G19KT 10SM BKN019 BKN100 OVC180 29/26 A2998 RMK AO2 PK WND 16030/1929 LTG DSNT NW SLP152 T02890256 (EM)","FM-15","7",,,,,,,,,,,,,,,,,,,,,,,,,,,,"2009-07-14"
"72202012839","2020-06-05T15:51:00","FM-16","6",,,,,,,,,,,,,,,,,,,,,,,,,,,,,,,,,,,,,,"29.98","79","84",,"VCTS:7 ||",,,"84",,"BKN:07 17 BKN:07 24","29.95","10.00","80","140",,"11",,,,,,,,,,,,,,,,,,,,,,,,,,,,,,,,,,,,,"MET11606/05/20 15:51:02 SPECI KMIA 052051Z 14010KT 10SM VCTS BKN017 BKN024 29/26 A2998 RMK AO2 LTG DSNT N AND NW FIBI (EM)","FM-16","6",,,,,,,,,,,,,,,,,,,,,,,,,,,,"2009-07-14"
"72202012839","2020-06-05T15:53:00","FM-15","7",,,,,,,,,,,,,,,,,,,,,,,,,,,,,,,,,,,,,,"29.98","78","84","0.00","VCTS:7 ||","+0.01","5","82","29.98","BKN:07 17 BKN:07 100 OVC:08 180","29.95","10.00","80","140",,"11",,,,,,,,,,,,,,,,,,,,,,,,,,,,,,,,,,,,,"MET14106/05/20 15:53:02 METAR KMIA 052053Z 14010KT 10SM VCTS BKN017 BKN100 OVC180 29/26 A2998 RMK AO2 LTG DSNT N AND NW SLP153 T02890256 55005 (EM)","FM-15","7",,,,,,,,,,,,,,,,,,,,,,,,,,,,"2009-07-14"
"72202012839","2020-06-05T16:00:00","FM-12","4",,,,,,,,,,,,,,,,,,,,,,,,,,,,,,,,,,,,,,,"78","84",,"||TS","+0.01","5","82","29.98","15","29.95","9.94","80","140",,"11",,,,,,,,,,,,,,,,,,,,,,,,,,,,,,,,,,,,,"SYN07072202 31466 81410 10289 20256 30142 40153 55005 717// 92053 555 90521=","FM-12","4",,,,,,,,,,,,,,,,,,,,,,,,,,,,"2009-07-14"
"72202012839","2020-06-05T16:12:00","FM-16","7",,,,,,,,,,,,,,,,,,,,,,,,,,,,,,,,,,,,,,"29.99","78","84",,,,,"82",,"BKN:07 19 BKN:07 30 OVC:08 200","29.96","10.00","80","130",,"10",,,,,,,,,,,,,,,,,,,,,,,,,,,,,,,,,,,,,"MET11706/05/20 16:12:02 SPECI KMIA 052112Z 13009KT 10SM BKN019 BKN030 OVC200 29/26 A2999 RMK AO2 LTG DSNT NW T02890256 (EM)","FM-16","7",,,,,,,,,,,,,,,,,,,,,,,,,,,,"2009-07-14"
"72202012839","2020-06-05T16:53:00","FM-15","7",,,,,,,,,,,,,,,,,,,,,,,,,,,,,,,,,,,,,,"29.99","77","84","0.00",,,,"80","29.99","BKN:07 19 BKN:07 30","29.96","10.00","79","140",,"11",,,,,,,,,,,,,,,,,,,,,,,,,,,,,,,,,,,,,"MET10506/05/20 16:53:02 METAR KMIA 052153Z 14010KT 10SM BKN019 BKN030 29/25 A2999 RMK AO2 SLP155 T02890250 (EM)","FM-15","7",,,,,,,,,,,,,,,,,,,,,,,,,,,,"2009-07-14"
"72202012839","2020-06-05T17:53:00","FM-15","7",,,,,,,,,,,,,,,,,,,,,,,,,,,,,,,,,,,,,,"29.99","78","84","0.00",,,,"82","29.99","SCT:04 17 BKN:07 25 OVC:08 200","29.96","10.00","80","110",,"10",,,,,,,,,,,,,,,,,,,,,,,,,,,,,,,,,,,,,"MET11206/05/20 17:53:02 METAR KMIA 052253Z 11009KT 10SM SCT017 BKN025 OVC200 29/26 A2999 RMK AO2 SLP155 T02890256 (EM)","FM-15","7",,,,,,,,,,,,,,,,,,,,,,,,,,,,"2009-07-14"
"72202012839","2020-06-05T18:51:00","FM-16","6",,,,,,,,,,,,,,,,,,,,,,,,,,,,,,,,,,,,,,"30.01","79","82",,,,,"89",,"SCT:04 18 SCT:04 100 OVC:08 210","29.98","10.00","80","120",,"8",,,,,,,,,,,,,,,,,,,,,,,,,,,,,,,,,,,,,"MET10006/05/20 18:51:02 SPECI KMIA 052351Z 12007KT 10SM SCT018 SCT100 OVC210 28/26 A3001 RMK AO2 FIBI (EM)","FM-16","6",,,,,,,,,,,,,,,,,,,,,,,,,,,,"2009-07-14"
"72202012839","2020-06-05T18:53:00","FM-15","7",,,,,,,,,,,,,,,,,,,,,,,,,,,,,,,,,,,,,,"30.01","78","83","0.00",,"-0.02","3","85","30.01","SCT:04 18 SCT:04 100 OVC:08 210","29.98","10.00","79","110",,"8",,,,,,,,,,,,,,,,,,,,,,,,,,,,,,,,,,,,,"MET13006/05/20 18:53:02 METAR KMIA 052353Z 11007KT 10SM SCT018 SCT100 OVC210 28/26 A3001 RMK AO2 SLP161 T02830256 10306 20283 53008 (EM)","FM-15","7",,,,,,,,,,,,,,,,,,,,,,,,,,,,"2009-07-14"
"72202012839","2020-06-05T19:00:00","FM-12","4",,,,,,,,,,,,,,,,,,,,,,,,,,,,,,,,,,,,,,,"78","83",,,"-0.02","3","85","30.01","15","29.98","9.94","79","110",,"8",,,,,,,,,,,,,,,,,,,,,,,,,,,,,,,,,,,,,"SYN08072202 32466 81107 10283 20256 30152 40161 53008 92353 333 10311 20267 555 90600=","FM-12","4",,,,,,,,,,,,,,,,,,,,,,,,,,,,"2009-07-14"
"72202012839","2020-06-05T19:53:00","FM-15","7",,,,,,,,,,,,,,,,,,,,,,,,,,,,,,,,,,,,,,"30.01","77","83","0.00",,,,"82","30.01","FEW:02 25 SCT:04 35 OVC:08 230","29.98","10.00","79","100",,"9",,,,,,,,,,,,,,,,,,,,,,,,,,,,,,,,,,,,,"MET10706/05/20 19:53:01 METAR KMIA 060053Z 10008KT 10SM FEW025 SCT035 OVC230 28/25 A3001 RMK AO2 SLP162 T02830250","FM-15","7",,,,,,,,,,,,,,,,,,,,,,,,,,,,"2009-07-14"
"72202012839","2020-06-05T20:53:00","FM-15","7",,,,,,,,,,,,,,,,,,,,,,,,,,,,,,,,,,,,,,"30.01","77","83","0.00",,,,"82","30.01","FEW:02 20 SCT:04 35 OVC:08 230","29.98","10.00","79","110",,"11",,,,,,,,,,,,,,,,,,,,,,,,,,,,,,,,,,,,,"MET11806/05/20 20:53:01 METAR KMIA 060153Z 11010KT 10SM FEW020 SCT035 OVC230 28/25 A3001 RMK AO2 LTG DSNT N SLP164 T02830250","FM-15","7",,,,,,,,,,,,,,,,,,,,,,,,,,,,"2009-07-14"
"72202012839","2020-06-05T21:53:00","FM-15","7",,,,,,,,,,,,,,,,,,,,,,,,,,,,,,,,,,,,,,"30.02","78","83","0.00",,"-0.01","3","85","30.02","FEW:02 20 FEW:02 35 SCT:04 230","29.99","10.00","79","110",,"10",,,,,,,,,,,,,,,,,,,,,,,,,,,,,,,,,,,,,"MET12406/05/20 21:53:01 METAR KMIA 060253Z 11009KT 10SM FEW020 FEW035 SCT230 28/26 A3002 RMK AO2 LTG DSNT N SLP166 T02830256 53005","FM-15","7",,,,,,,,,,,,,,,,,,,,,,,,,,,,"2009-07-14"
"72202012839","2020-06-05T22:00:00","FM-12","4",,,,,,,,,,,,,,,,,,,,,,,,,,,,,,,,,,,,,,,"78","83",,,"-0.01","3","85","30.02","26","29.99","9.94","79","110",,"10",,,,,,,,,,,,,,,,,,,,,,,,,,,,,,,,,,,,,"SYN06472202 32566 81109 10283 20256 30156 40166 53005 90253 555 90603=","FM-12","4",,,,,,,,,,,,,,,,,,,,,,,,,,,,"2009-07-14"
"72202012839","2020-06-05T22:53:00","FM-15","7",,,,,,,,,,,,,,,,,,,,,,,,,,,,,,,,,,,,,,"30.02","78","83","0.00",,,,"85","30.02","FEW:02 16 SCT:04 27 SCT:04 35","29.99","10.00","79","100",,"8",,,,,,,,,,,,,,,,,,,,,,,,,,,,,,,,,,,,,"MET10706/05/20 22:53:02 METAR KMIA 060353Z 10007KT 10SM FEW016 SCT027 SCT035 28/26 A3002 RMK AO2 SLP165 T02830256","FM-15","7",,,,,,,,,,,,,,,,,,,,,,,,,,,,"2009-07-14"
"72202012839","2020-06-05T23:53:00","FM-15","7",,,,,,,,,,,,,,,,,,,,,,,,,,,,,,,,,,,,,,"30.00","78","83","0.00",,,,"85","30.00","FEW:02 16 SCT:04 35 BKN:07 90","29.97","10.00","79","100",,"9",,,,,,,,,,,,,,,,,,,,,,,,,,,,,,,,,,,,,"MET11706/05/20 23:53:02 METAR KMIA 060453Z 10008KT 10SM FEW016 SCT035 BKN090 28/26 A3000 RMK AO2 SLP159 T02830256 403110267","FM-15","7",,,,,,,,,,,,,,,,,,,,,,,,,,,,"2009-07-14"
"72202012839","2020-06-05T23:59:00","SOD  ","6",,,,,,,,,,,,,,,"78","84","84","30.00","29.96","79","10.3","19","1.8","0","88","80","160","34","T",,,"140","21","TS",,,,,,,,,,,,,,,,,,,,,,,,,,,,,,,,,,,,,,,,,,,,,,,,,,,,,,,,"SOD78324 HR PRECIPITATION (IN):    T SNOW DEPTH (IN):0     24 HR SNOWFALL (IN):0.0  WEATHER(CODE):3  24 HR MAX TEMP (F): 8824 HR MIN TEMP (F): 80AVERAGE STATION PRESSURE:29.965 MINIMUM SEA LEVEL PRESSURE:29.97 TIME OF OCCURRENCE:1545 PEAK WIND SPEED (MPH): 34 PEAK WIND DIR (DEG):160 PEAK WIND TIME (LST):      FASTEST 2MIN SPEED (MPH): 21FASTEST 2MIN DIR (DEG):140 FASTEST 2MIN TIME (LST):     AVERAGE WIND SPEED (MPH):10.3 24 HR AVG TEMP (F): 84DEPART FROM NORMAL:  2  SKY COVER SR-SS (TENTHS): 1HEATING DEGREE DAYS:  0 COOLING DEGREE DAYS: 19 LATEST DAY MAX TEMP (0700-1900 LST):88  LATEST NIGHT MIN TEMP(1900-0800 LST):78 HOURLY INCREMENTAL PRECIPITATION VALUES (IN):.00 0.00 0.00 0.00 0.00 0.00 T    0.00 0.00 0.00 0.00 0.00 0.00 0.00 0.00 0.00 0.00 0.00 0.00 0.00 0.00 0.00 0.00 0.00","SOD  ","6",,,,,,,,,,,,,,,,,,,,,,,,,"0529","1911",,"2009-07-14"
"72202012839","2020-06-06T00:53:00","FM-15","7",,,,,,,,,,,,,,,,,,,,,,,,,,,,,,,,,,,,,,"29.98","79","83","T","|RA |","+0.04","8","88","29.98","FEW:02 16 BKN:07 34 BKN:07 80","29.95","8.00","80","100",,"10",,,,,,,,,,,,,,,,,,,,,,,,,,,,,,,,,,,,,"MET15106/06/20 00:53:02 METAR KMIA 060553Z 10009KT 8SM -RA FEW016 BKN034 BKN080 28/26 A2998 RMK AO2 RAB49 SLP152 P0000 60000 T02830261 10283 20278 58015 (GR)","FM-15","7",,,,,,,,,,,,,,,,,,,,,,,,,,,,"2009-07-14"
"72202012839","2020-06-06T01:00:00","FM-12","4",,,,,,,,,,,,,,,,,,,,,,,,,,,,,,,,,,,,,,,"79","83",,"||RA","+0.04","8","88","29.98","15","29.95","7.46","80","100",,"10",,,,,,,,,,,,,,,,,,,,,,,,,,,,,,,,,,,,,"SYN09272202 11462 81009 10283 20261 30142 40152 58015 69901 761// 90553 333 10283 20267 555 90606=","FM-12","4",,,,,,,,,,,,,,,,,,,,,,,,,,,,"2009-07-14"
"72202012839","2020-06-06T01:53:00","FM-15","7",,,,,,,,,,,,,,,,,,,,,,,,,,,,,,,,,,,,,,"29.97","78","82","0.00",,,,"88","29.97","SCT:04 15 BKN:07 30 OVC:08 210","29.94","10.00","79","120","20","11",,,,,,,,,,,,,,,,,,,,,,,,,,,,,,,,,,,,,"MET12906/06/20 01:53:02 METAR KMIA 060653Z 12010G17KT 10SM SCT015 BKN030 OVC210 28/26 A2997 RMK AO2 RAE0558 SLP150 P0000 T02780256 (GR)","FM-15","7",,,,,,,,,,,,,,,,,,,,,,,,,,,,"2009-07-14"
"72202012839","2020-06-06T01:59:00","FM-16","7",,,,,,,,,,,,,,,,,,,,,,,,,,,,,,,,,,,,,,"29.97","78","83",,,,,"85",,"BKN:07 15 BKN:07 22 OVC:08 210","29.94","8.00","79","120",,"13",,,,,,,,,,,,,,,,,,,,,,,,,,,,,,,,,,,,,"MET10406/06/20 01:59:02 SPECI KMIA 060659Z 12011KT 8SM BKN015 BKN022 OVC210 28/26 A2997 RMK AO2 T02830256 (GR)","FM-16","7",,,,,,,,,,,,,,,,,,,,,,,,,,,,"2009-07-14"
"72202012839","2020-06-06T02:53:00","FM-15","7",,,,,,,,,,,,,,,,,,,,,,,,,,,,,,,,,,,,,,"29.96","78","82","0.00",,,,"88","29.96","SCT:04 15 BKN:07 22 BKN:07 70","29.93","8.00","79","120",,"11",,,,,,,,,,,,,,,,,,,,,,,,,,,,,,,,,,,,,"MET11106/06/20 02:53:02 METAR KMIA 060753Z 12010KT 8SM SCT015 BKN022 BKN070 28/26 A2996 RMK AO2 SLP147 T02780256 (GR)","FM-15","7",,,,,,,,,,,,,,,,,,,,,,,,,,,,"2009-07-14"
"72202012839","2020-06-06T03:25:00","FM-16","7",,,,,,,,,,,,,,,,,,,,,,,,,,,,,,,,,,,,,,"29.96","77","82",,,,,"85",,"FEW:02 17 FEW:02 28 OVC:08 190","29.93","9.00","78","120",,"13",,,,,,,,,,,,,,,,,,,,,,,,,,,,,,,,,,,,,"MET10406/06/20 03:25:02 SPECI KMIA 060825Z 12011KT 9SM FEW017 FEW028 OVC190 28/25 A2996 RMK AO2 T02780250 (GR)","FM-16","7",,,,,,,,,,,,,,,,,,,,,,,,,,,,"2009-07-14"
"72202012839","2020-06-06T03:53:00","FM-15","7",,,,,,,,,,,,,,,,,,,,,,,,,,,,,,,,,,,,,,"29.95","77","82","0.00",,"+0.03","8","85","29.95","SCT:04 17 BKN:07 30 OVC:08 180","29.92","9.00","78","120",,"13",,,,,,,,,,,,,,,,,,,,,,,,,,,,,,,,,,,,,"MET12306/06/20 03:53:02 METAR KMIA 060853Z 12011KT 9SM SCT017 BKN030 OVC180 28/25 A2995 RMK AO2 SLP142 60000 T02780250 58010 (GR)","FM-15","7",,,,,,,,,,,,,,,,,,,,,,,,,,,,"2009-07-14"
"72202012839","2020-06-06T04:00:00","FM-12","4",,,,,,,,,,,,,,,,,,,,,,,,,,,,,,,,,,,,,,,"77","82",,,"+0.03","8","85","29.95","15","29.92","8.70","78","120",,"13",,,,,,,,,,,,,,,,,,,,,,,,,,,,,,,,,,,,,"SYN07072202 12464 81211 10278 20250 30132 40142 58010 69907 90853 555 90609=","FM-12","4",,,,,,,,,,,,,,,,,,,,,,,,,,,,"2009-07-14"
"72202012839","2020-06-06T04:53:00","FM-15","7",,,,,,,,,,,,,,,,,,,,,,,,,,,,,,,,,,,,,,"29.96","77","82","0.00",,,,"85","29.96","FEW:02 17 SCT:04 26 BKN:07 32","29.93","10.00","78","120",,"14",,,,,,,,,,,,,,,,,,,,,,,,,,,,,,,,,,,,,"MET11206/06/20 04:53:02 METAR KMIA 060953Z 12012KT 10SM FEW017 SCT026 BKN032 28/25 A2996 RMK AO2 SLP146 T02780250 (GR)","FM-15","7",,,,,,,,,,,,,,,,,,,,,,,,,,,,"2009-07-14"
"72202012839","2020-06-06T05:15:00","FM-16","7",,,,,,,,,,,,,,,,,,,,,,,,,,,,,,,,,,,,,,"29.96","77","82",,,,,"85",,"SCT:04 17 BKN:07 23 OVC:08 32","29.93","10.00","78","120","18","11",,,,,,,,,,,,,,,,,,,,,,,,,,,,,,,,,,,,,"MET10906/06/20 05:15:02 SPECI KMIA 061015Z 12010G16KT 10SM SCT017 BKN023 OVC032 28/25 A2996 RMK AO2 T02780250 (RLW)","FM-16","7",,,,,,,,,,,,,,,,,,,,,,,,,,,,"2009-07-14"
"72202012839","2020-06-06T05:53:00","FM-15","7",,,,,,,,,,,,,,,,,,,,,,,,,,,,,,,,,,,,,,"29.97","78","83","0.00",,,,"85","29.97","SCT:04 15 BKN:07 22 OVC:08 200","29.94","10.00","79","120",,"10",,,,,,,,,,,,,,,,,,,,,,,,,,,,,,,,,,,,,"MET11306/06/20 05:53:02 METAR KMIA 061053Z 12009KT 10SM SCT015 BKN022 OVC200 28/26 A2997 RMK AO2 SLP149 T02830256 (RLW)","FM-15","7",,,,,,,,,,,,,,,,,,,,,,,,,,,,"2009-07-14"
"72202012839","2020-06-06T06:53:00","FM-15","7",,,,,,,,,,,,,,,,,,,,,,,,,,,,,,,,,,,,,,"29.97","77","83","0.00",,"-0.02","0","82","29.97","SCT:04 16 BKN:07 28 OVC:08 200","29.94","10.00","79","120","24","14",,,,,,,,,,,,,,,,,,,,,,,,,,,,,,,,,,,,,"MET14006/06/20 06:53:02 METAR KMIA 061153Z 12012G21KT 10SM SCT016 BKN028 OVC200 28/25 A2997 RMK AO2 SLP148 60000 T02830250 10283 20278 50006 (RLW)","FM-15","7",,,,,,,,,,,,,,,,,,,,,,,,,,,,"2009-07-14"
"72202012839","2020-06-06T07:00:00","FM-12","4",,,,,,,,,,,,,,,,,,,,,,,,,,,,,,,,,,,,,,,"77","83",,,"0.02","9","82","29.97","15","29.94","9.94","79","120",,"14",,,,,,,,,,,,,,,,,,,,,,,,,,,,,,,,,,,,,"SYN09272202 12466 81212 10283 20250 30139 40148 50006 69901 91153 333 10311 20278 91021 555 90612=","FM-12","4",,,,,,,,,,,,,,,,,,,,,,,,,,,,"2009-07-14"
"72202012839","2020-06-06T07:53:00","FM-15","7",,,,,,,,,,,,,,,,,,,,,,,,,,,,,,,,,,,,,,"29.99","78","83","0.00",,,,"85","29.99","SCT:04 15 BKN:07 23 OVC:08 30","29.96","10.00","79","120","24","15",,,,,,,,,,,,,,,,,,,,,,,,,,,,,,,,,,,,,"MET11606/06/20 07:53:02 METAR KMIA 061253Z 12013G21KT 10SM SCT015 BKN023 OVC030 28/26 A2999 RMK AO2 SLP155 T02830256 (RLW)","FM-15","7",,,,,,,,,,,,,,,,,,,,,,,,,,,,"2009-07-14"
"72202012839","2020-06-06T08:53:00","FM-15","7",,,,,,,,,,,,,,,,,,,,,,,,,,,,,,,,,,,,,,"30.00","78","84","0.00",,,,"82","29.99","FEW:02 16 BKN:07 23 OVC:08 40","29.97","10.00","80","130","22","15",,,,,,,,,,,,,,,,,,,,,,,,,,,,,,,,,,,,,"MET11606/06/20 08:53:02 METAR KMIA 061353Z 13013G19KT 10SM FEW016 BKN023 OVC040 29/26 A3000 RMK AO2 SLP157 T02890256 (RLW)","FM-15","7",,,,,,,,,,,,,,,,,,,,,,,,,,,,"2009-07-14"
"72202012839","2020-06-06T09:53:00","FM-15","7",,,,,,,,,,,,,,,,,,,,,,,,,,,,,,,,,,,,,,"30.01","78","85","0.00",,"-0.04","1","80","30.01","SCT:04 20 BKN:07 25 BKN:07 180","29.98","10.00","80","130",,"14",,,,,,,,,,,,,,,,,,,,,,,,,,,,,,,,,,,,,"MET11906/06/20 09:53:02 METAR KMIA 061453Z 13012KT 10SM SCT020 BKN025 BKN180 29/26 A3001 RMK AO2 SLP161 T02940256 51014 (RLW)","FM-15","7",,,,,,,,,,,,,,,,,,,,,,,,,,,,"2009-07-14"
"72202012839","2020-06-06T10:00:00","FM-12","4",,,,,,,,,,,,,,,,,,,,,,,,,,,,,,,,,,,,,,,"78","85",,,"-0.04","1","80","30.01","26","29.98","9.94","80","130",,"14",,,,,,,,,,,,,,,,,,,,,,,,,,,,,,,,,,,,,"SYN06472202 32566 61312 10294 20256 30152 40161 51014 91453 555 90615=","FM-12","4",,,,,,,,,,,,,,,,,,,,,,,,,,,,"2009-07-14"
"72202012839","2020-06-06T10:53:00","FM-15","7",,,,,,,,,,,,,,,,,,,,,,,,,,,,,,,,,,,,,,"30.01","78","85","0.00",,,,"80","30.01","SCT:04 16 BKN:07 22 BKN:07 180","29.98","10.00","80","130","22","13",,,,,,,,,,,,,,,,,,,,,,,,,,,,,,,,,,,,,"MET11606/06/20 10:53:02 METAR KMIA 061553Z 13011G19KT 10SM SCT016 BKN022 BKN180 29/26 A3001 RMK AO2 SLP163 T02940256 (RLW)","FM-15","7",,,,,,,,,,,,,,,,,,,,,,,,,,,,"2009-07-14"
"72202012839","2020-06-06T11:53:00","FM-15","7",,,,,,,,,,,,,,,,,,,,,,,,,,,,,,,,,,,,,,"30.00","78","86","0.00",,,,"77","30.00","BKN:07 17 BKN:07 33 OVC:08 250","29.97","10.00","80","130","25","14",,,,,,,,,,,,,,,,,,,,,,,,,,,,,,,,,,,,,"MET11606/06/20 11:53:02 METAR KMIA 061653Z 13012G22KT 10SM BKN017 BKN033 OVC250 30/26 A3000 RMK AO2 SLP159 T03000256 (RLW)","FM-15","7",,,,,,,,,,,,,,,,,,,,,,,,,,,,"2009-07-14"
"72202012839","2020-06-06T12:21:00","FM-16","7",,,,,,,,,,,,,,,,,,,,,,,,,,,,,,,,,,,,,,"30.00","79","88",,,,,"75",,"SCT:04 17 SCT:04 33 OVC:08 250","29.97","10.00","81","150",,"13",,,,,,,,,,,,,,,,,,,,,,,,,,,,,,,,,,,,,"MET10606/06/20 12:21:02 SPECI KMIA 061721Z 15011KT 10SM SCT017 SCT033 OVC250 31/26 A3000 RMK AO2 T03110261 (RLW)","FM-16","7",,,,,,,,,,,,,,,,,,,,,,,,,,,,"2009-07-14"
"72202012839","2020-06-06T12:53:00","FM-15","7",,,,,,,,,,,,,,,,,,,,,,,,,,,,,,,,,,,,,,"30.01","77","87","0.00",,"+0.00","7","72","30.01","FEW:02 17 SCT:04 170 OVC:08 250","29.98","10.00","80","150","22","13",,,,,,,,,,,,,,,,,,,,,,,,,,,,,,,,,,,,,"MET15106/06/20 12:53:02 METAR KMIA 061753Z 15011G19KT 10SM FEW017 SCT170 OVC250 31/25 A3001 RMK AO2 SLP161 CB DSNT NE MOV N T03060250 10311 20283 57000 (RLW)","FM-15","7",,,,,,,,,,,,,,,,,,,,,,,,,,,,"2009-07-14"
"72202012839","2020-06-06T13:00:00","FM-12","4",,,,,,,,,,,,,,,,,,,,,,,,,,,,,,,,,,,,,,,"77","87",,,"0.00","4","72","30.01","15","29.98","9.94","80","150",,"13",,,,,,,,,,,,,,,,,,,,,,,,,,,,,,,,,,,,,"SYN08672202 32466 81511 10306 20250 30152 40161 57000 91753 333 10311 20283 91019 555 90618=","FM-12","4",,,,,,,,,,,,,,,,,,,,,,,,,,,,"2009-07-14"
"72202012839","2020-06-06T13:53:00","FM-15","7",,,,,,,,,,,,,,,,,,,,,,,,,,,,,,,,,,,,,,"30.00","77","87","0.00",,,,"72","30.00","FEW:02 20 SCT:04 170 OVC:08 250","29.97","10.00","80","140","20","13",,,,,,,,,,,,,,,,,,,,,,,,,,,,,,,,,,,,,"MET11506/06/20 13:53:02 METAR KMIA 061853Z 14011G17KT 10SM FEW020 SCT170 OVC250 31/25 A3000 RMK AO2 SLP158 T03060250 (EM)","FM-15","7",,,,,,,,,,,,,,,,,,,,,,,,,,,,"2009-07-14"
"72202012839","2020-06-06T14:53:00","FM-15","7",,,,,,,,,,,,,,,,,,,,,,,,,,,,,,,,,,,,,,"29.97","75","87","0.00",,,,"67","29.97","FEW:02 25 SCT:04 180 OVC:08 250","29.94","10.00","78","150",,"14",,,,,,,,,,,,,,,,,,,,,,,,,,,,,,,,,,,,,"MET11206/06/20 14:53:02 METAR KMIA 061953Z 15012KT 10SM FEW025 SCT180 OVC250 31/24 A2997 RMK AO2 SLP148 T03060239 (EM)","FM-15","7",,,,,,,,,,,,,,,,,,,,,,,,,,,,"2009-07-14"
"72202012839","2020-06-06T15:53:00","FM-15","7",,,,,,,,,,,,,,,,,,,,,,,,,,,,,,,,,,,,,,"29.95","76","87","0.00",,"+0.06","8","70","29.95","FEW:02 25 BKN:07 190 OVC:08 250","29.92","10.00","79","150","18","10",,,,,,,,,,,,,,,,,,,,,,,,,,,,,,,,,,,,,"MET12306/06/20 15:53:02 METAR KMIA 062053Z 15009G16KT 10SM FEW025 BKN190 OVC250 31/24 A2995 RMK AO2 SLP142 T03060244 58019 $ (EM)","FM-15","7",,,,,,,,,,,,,,,,,,,,,,,,,,,,"2009-07-14"
"72202012839","2020-06-06T16:00:00","FM-12","4",,,,,,,,,,,,,,,,,,,,,,,,,,,,,,,,,,,,,,,"76","87",,,"+0.06","8","70","29.95","26","29.92","9.94","79","150",,"10",,,,,,,,,,,,,,,,,,,,,,,,,,,,,,,,,,,,,"SYN07472202 32566 81509 10306 20244 30132 40142 58019 92053 333 91016 555 90621=","FM-12","4",,,,,,,,,,,,,,,,,,,,,,,,,,,,"2009-07-14"
"72202012839","2020-06-06T16:53:00","FM-15","7",,,,,,,,,,,,,,,,,,,,,,,,,,,,,,,,,,,,,,"29.96","76","86","0.00",,,,"72","29.96","FEW:02 30 BKN:07 200 OVC:08 250","29.93","10.00","79","170",,"13",,,,,,,,,,,,,,,,,,,,,,,,,,,,,,,,,,,,,"MET11406/06/20 16:53:02 METAR KMIA 062153Z 17011KT 10SM FEW030 BKN200 OVC250 30/24 A2996 RMK AO2 SLP144 T03000244 $ (EM)","FM-15","7",,,,,,,,,,,,,,,,,,,,,,,,,,,,"2009-07-14"
"72202012839","2020-06-06T17:53:00","FM-15","7",,,,,,,,,,,,,,,,,,,,,,,,,,,,,,,,,,,,,,"29.95","77","85","0.00",,,,"77","29.95","FEW:02 30 BKN:07 200 OVC:08 250","29.92","10.00","79","150","21","11",,,,,,,,,,,,,,,,,,,,,,,,,,,,,,,,,,,,,"MET11706/06/20 17:53:02 METAR KMIA 062253Z 15010G18KT 10SM FEW030 BKN200 OVC250 29/25 A2995 RMK AO2 SLP142 T02940250 $ (EM)","FM-15","7",,,,,,,,,,,,,,,,,,,,,,,,,,,,"2009-07-14"
"72202012839","2020-06-06T18:53:00","FM-15","7",,,,,,,,,,,,,,,,,,,,,,,,,,,,,,,,,,,,,,"29.95","76","84","0.00",,"+0.00","8","77","29.95","FEW:02 30 BKN:07 200 OVC:08 250","29.92","10.00","78","150",,"8",,,,,,,,,,,,,,,,,,,,,,,,,,,,,,,,,,,,,"MET13206/06/20 18:53:02 METAR KMIA 062353Z 15007KT 10SM FEW030 BKN200 OVC250 29/24 A2995 RMK AO2 SLP141 T02890244 10311 20289 58001 $ (EM)","FM-15","7",,,,,,,,,,,,,,,,,,,,,,,,,,,,"2009-07-14"
"72202012839","2020-06-06T19:00:00","FM-12","4",,,,,,,,,,,,,,,,,,,,,,,,,,,,,,,,,,,,,,,"76","84",,,"+0.00","8","77","29.95","26","29.92","9.94","78","150",,"8",,,,,,,,,,,,,,,,,,,,,,,,,,,,,,,,,,,,,"SYN08072202 32566 81507 10289 20244 30132 40141 58001 92353 333 10311 20278 555 90700=","FM-12","4",,,,,,,,,,,,,,,,,,,,,,,,,,,,"2009-07-14"
"72202012839","2020-06-06T19:53:00","FM-15","7",,,,,,,,,,,,,,,,,,,,,,,,,,,,,,,,,,,,,,"29.96","77","84","0.00",,,,"80","29.96","BKN:07 180 OVC:08 250","29.93","10.00","79","140",,"10",,,,,,,,,,,,,,,,,,,,,,,,,,,,,,,,,,,,,"MET10006/06/20 19:53:01 METAR KMIA 070053Z 14009KT 10SM BKN180 OVC250 29/25 A2996 RMK AO2 SLP145 T02890250","FM-15","7",,,,,,,,,,,,,,,,,,,,,,,,,,,,"2009-07-14"
"72202012839","2020-06-06T20:53:00","FM-15","7",,,,,,,,,,,,,,,,,,,,,,,,,,,,,,,,,,,,,,"29.96","77","83","0.00",,,,"82","29.96","BKN:07 180 OVC:08 230","29.93","10.00","79","140",,"10",,,,,,,,,,,,,,,,,,,,,,,,,,,,,,,,,,,,,"MET10006/06/20 20:53:01 METAR KMIA 070153Z 14009KT 10SM BKN180 OVC230 28/25 A2996 RMK AO2 SLP146 T02830250","FM-15","7",,,,,,,,,,,,,,,,,,,,,,,,,,,,"2009-07-14"
"72202012839","2020-06-06T21:53:00","FM-15","7",,,,,,,,,,,,,,,,,,,,,,,,,,,,,,,,,,,,,,"29.99","77","83","0.00",,"-0.04","3","82","29.99","BKN:07 180 OVC:08 230","29.96","10.00","79","150","18","8",,,,,,,,,,,,,,,,,,,,,,,,,,,,,,,,,,,,,"MET10906/06/20 21:53:01 METAR KMIA 070253Z 15007G16KT 10SM BKN180 OVC230 28/25 A2999 RMK AO2 SLP155 T02830250 53015","FM-15","7",,,,,,,,,,,,,,,,,,,,,,,,,,,,"2009-07-14"
"72202012839","2020-06-06T22:00:00","FM-12","4",,,,,,,,,,,,,,,,,,,,,,,,,,,,,,,,,,,,,,,"77","83",,,"-0.04","3","82","29.99",,"29.96","9.94","79","150",,"8",,,,,,,,,,,,,,,,,,,,,,,,,,,,,,,,,,,,,"SYN07472202 32966 81507 10283 20250 30146 40155 53015 90253 333 91016 555 90703=","FM-12","4",,,,,,,,,,,,,,,,,,,,,,,,,,,,"2009-07-14"
"72202012839","2020-06-06T22:53:00","FM-15","7",,,,,,,,,,,,,,,,,,,,,,,,,,,,,,,,,,,,,,"29.99","78","83","0.00",,,,"85","29.99","OVC:08 180","29.96","10.00","79","140",,"9",,,,,,,,,,,,,,,,,,,,,,,,,,,,,,,,,,,,,"MET09506/06/20 22:53:02 METAR KMIA 070353Z 14008KT 10SM OVC180 28/26 A2999 RMK AO2 SLP156 T02830256 $","FM-15","7",,,,,,,,,,,,,,,,,,,,,,,,,,,,"2009-07-14"
"72202012839","2020-06-06T23:53:00","FM-15","7",,,,,,,,,,,,,,,,,,,,,,,,,,,,,,,,,,,,,,"29.98","78","83","0.00",,,,"85","29.98","BKN:07 180 OVC:08 230","29.95","10.00","79","140",,"10",,,,,,,,,,,,,,,,,,,,,,,,,,,,,,,,,,,,,"MET11206/06/20 23:53:02 METAR KMIA 070453Z 14009KT 10SM BKN180 OVC230 28/26 A2998 RMK AO2 SLP151 T02830256 403110278 $","FM-15","7",,,,,,,,,,,,,,,,,,,,,,,,,,,,"2009-07-14"
"72202012839","2020-06-06T23:59:00","SOD  ","6",,,,,,,,,,,,,,,"77","85","80","29.98","29.94","79","11.8","20","2.7","0","88","82","130","26","T",,,"130","20","RA",,,,,,,,,,,,,,,,,,,,,,,,,,,,,,,,,,,,,,,,,,,,,,,,,,,,,,,,"SOD76624 HR PRECIPITATION (IN):    T SNOW DEPTH (IN):0     24 HR SNOWFALL (IN):0.0  24 HR MAX TEMP (F): 8824 HR MIN TEMP (F): 82AVERAGE STATION PRESSURE:29.940 MINIMUM SEA LEVEL PRESSURE:29.94 TIME OF OCCURRENCE:1851 PEAK WIND SPEED (MPH): 26 PEAK WIND DIR (DEG):130 PEAK WIND TIME (LST):      FASTEST 2MIN SPEED (MPH): 20FASTEST 2MIN DIR (DEG):130 FASTEST 2MIN TIME (LST):     AVERAGE WIND SPEED (MPH):11.8 24 HR AVG TEMP (F): 85DEPART FROM NORMAL:  3  SKY COVER SR-SS (TENTHS): 1HEATING DEGREE DAYS:  0 COOLING DEGREE DAYS: 20 LATEST DAY MAX TEMP (0700-1900 LST):88  LATEST NIGHT MIN TEMP(1900-0800 LST):82 HOURLY INCREMENTAL PRECIPITATION VALUES (IN):    0.00 0.00 0.00 0.00 0.00 0.00 0.00 0.00 0.00 0.00 0.00 0.00 0.00 0.00 0.00 0.00 0.00 0.00 0.00 0.00 0.00 0.00 0.00","SOD  ","6",,,,,,,,,,,,,,,,,,,,,,,,,"0529","1911",,"2009-07-14"
"72202012839","2020-06-07T00:53:00","FM-15","7",,,,,,,,,,,,,,,,,,,,,,,,,,,,,,,,,,,,,,"29.97","78","83","0.00",,"+0.02","8","85","29.96","FEW:02 25 OVC:08 170","29.94","10.00","79","140",,"11",,,,,,,,,,,,,,,,,,,,,,,,,,,,,,,,,,,,,"MET12506/07/20 00:53:02 METAR KMIA 070553Z 14010KT 10SM FEW025 OVC170 28/26 A2997 RMK AO2 SLP147 T02830256 10289 20283 58008 $ (GR)","FM-15","7",,,,,,,,,,,,,,,,,,,,,,,,,,,,"2009-07-14"
"72202012839","2020-06-07T01:00:00","FM-12","4",,,,,,,,,,,,,,,,,,,,,,,,,,,,,,,,,,,,,,,"78","83",,,"+0.02","8","85","29.96","26","29.94","9.94","79","140",,"11",,,,,,,,,,,,,,,,,,,,,,,,,,,,,,,,,,,,,"SYN08072202 32566 81410 10283 20256 30139 40147 58008 90553 333 10289 20278 555 90706=","FM-12","4",,,,,,,,,,,,,,,,,,,,,,,,,,,,"2009-07-14"
"72202012839","2020-06-07T01:53:00","FM-15","7",,,,,,,,,,,,,,,,,,,,,,,,,,,,,,,,,,,,,,"29.95","79","83","0.00",,,,"88","29.95","FEW:02 15 OVC:08 170","29.92","10.00","80","150","20","10",,,,,,,,,,,,,,,,,,,,,,,,,,,,,,,,,,,,,"MET11006/07/20 01:53:02 METAR KMIA 070653Z 15009G17KT 10SM FEW015 OVC170 28/26 A2995 RMK AO2 SLP143 T02830261 $ (GR)","FM-15","7",,,,,,,,,,,,,,,,,,,,,,,,,,,,"2009-07-14"
"72202012839","2020-06-07T02:53:00","FM-15","7",,,,,,,,,,,,,,,,,,,,,,,,,,,,,,,,,,,,,,"29.94","78","83","0.00",,,,"85","29.94","FEW:02 14 BKN:07 160","29.91","10.00","79","140",,"10",,,,,,,,,,,,,,,,,,,,,,,,,,,,,,,,,,,,,"MET10706/07/20 02:53:02 METAR KMIA 070753Z 14009KT 10SM FEW014 BKN160 28/26 A2994 RMK AO2 SLP139 T02830256 $ (GR)","FM-15","7",,,,,,,,,,,,,,,,,,,,,,,,,,,,"2009-07-14"
"72202012839","2020-06-07T03:30:00","FM-16","7",,,,,,,,,,,,,,,,,,,,,,,,,,,,,,,,,,,,,,"29.94","78","83",,,,,"85",,"BKN:07 16 BKN:07 23 BKN:07 180","29.91","8.00","79","150",,"9",,,,,,,,,,,,,,,,,,,,,,,,,,,,,,,,,,,,,"MET10606/07/20 03:30:02 SPECI KMIA 070830Z 15008KT 8SM BKN016 BKN023 BKN180 28/26 A2994 RMK AO2 T02830256 $ (GR)","FM-16","7",,,,,,,,,,,,,,,,,,,,,,,,,,,,"2009-07-14"
"72202012839","2020-06-07T03:53:00","FM-15","7",,,,,,,,,,,,,,,,,,,,,,,,,,,,,,,,,,,,,,"29.94","79","83","0.00",,"+0.02","6","88","29.94","SCT:04 13 BKN:07 23 BKN:07 28","29.91","8.00","80","150",,"13",,,,,,,,,,,,,,,,,,,,,,,,,,,,,,,,,,,,,"MET11906/07/20 03:53:02 METAR KMIA 070853Z 15011KT 8SM SCT013 BKN023 BKN028 28/26 A2994 RMK AO2 SLP139 T02830261 56008 $ (GR)","FM-15","7",,,,,,,,,,,,,,,,,,,,,,,,,,,,"2009-07-14"
"72202012839","2020-06-07T04:00:00","FM-12","4",,,,,,,,,,,,,,,,,,,,,,,,,,,,,,,,,,,,,,,"79","83",,,"+0.02","6","88","29.94","15","29.91","7.46","80","150",,"13",,,,,,,,,,,,,,,,,,,,,,,,,,,,,,,,,,,,,"SYN06472202 32462 61511 10283 20261 30129 40139 56008 90853 555 90709=","FM-12","4",,,,,,,,,,,,,,,,,,,,,,,,,,,,"2009-07-14"
"72202012839","2020-06-07T04:53:00","FM-15","7",,,,,,,,,,,,,,,,,,,,,,,,,,,,,,,,,,,,,,"29.95","79","83","0.00",,,,"88","29.95","SCT:04 13 BKN:07 23 BKN:07 30","29.92","10.00","80","150","21","13",,,,,,,,,,,,,,,,,,,,,,,,,,,,,,,,,,,,,"MET11706/07/20 04:53:02 METAR KMIA 070953Z 15011G18KT 10SM SCT013 BKN023 BKN030 28/26 A2995 RMK AO2 SLP143 T02830261 $ (GR)","FM-15","7",,,,,,,,,,,,,,,,,,,,,,,,,,,,"2009-07-14"
"72202012839","2020-06-07T05:53:00","FM-15","7",,,,,,,,,,,,,,,,,,,,,,,,,,,,,,,,,,,,,,"29.97","79","83","0.00",,,,"88","29.96","SCT:04 13 BKN:07 25 BKN:07 30","29.94","10.00","80","160",,"9",,,,,,,,,,,,,,,,,,,,,,,,,,,,,,,,,,,,,"MET11406/07/20 05:53:02 METAR KMIA 071053Z 16008KT 10SM SCT013 BKN025 BKN030 28/26 A2997 RMK AO2 SLP147 T02830261 $ (EM)","FM-15","7",,,,,,,,,,,,,,,,,,,,,,,,,,,,"2009-07-14"
"72202012839","2020-06-07T06:42:00","FM-16","7",,,,,,,,,,,,,,,,,,,,,,,,,,,,,,,,,,,,,,"29.96","79","83",,,,,"88",,"FEW:02 14 SCT:04 29 BKN:07 50","29.93","10.00","80","160","21","10",,,,,,,,,,,,,,,,,,,,,,,,,,,,,,,,,,,,,"MET11006/07/20 06:42:02 SPECI KMIA 071142Z 16009G18KT 10SM FEW014 SCT029 BKN050 28/26 A2996 RMK AO2 T02830261 $ (EM)","FM-16","7",,,,,,,,,,,,,,,,,,,,,,,,,,,,"2009-07-14"
"72202012839","2020-06-07T06:53:00","FM-15","7",,,,,,,,,,,,,,,,,,,,,,,,,,,,,,,,,,,,,,"29.97","79","83","0.00",,"-0.02","0","88","29.96","FEW:02 15 SCT:04 29 BKN:07 50","29.94","10.00","80","170","18","10",,,,,,,,,,,,,,,,,,,,,,,,,,,,,,,,,,,,,"MET13506/07/20 06:53:02 METAR KMIA 071153Z 17009G16KT 10SM FEW015 SCT029 BKN050 28/26 A2997 RMK AO2 SLP147 T02830261 10283 20283 50008 $ (EM)","FM-15","7",,,,,,,,,,,,,,,,,,,,,,,,,,,,"2009-07-14"
"72202012839","2020-06-07T07:00:00","FM-12","4",,,,,,,,,,,,,,,,,,,,,,,,,,,,,,,,,,,,,,,"79","83",,,"0.02","9","88","29.96","15","29.94","9.94","80","170",,"10",,,,,,,,,,,,,,,,,,,,,,,,,,,,,,,,,,,,,"SYN08672202 32466 81709 10283 20261 30139 40147 50008 91153 333 10311 20283 91016 555 90712=","FM-12","4",,,,,,,,,,,,,,,,,,,,,,,,,,,,"2009-07-14"
"72202012839","2020-06-07T07:53:00","FM-15","7",,,,,,,,,,,,,,,,,,,,,,,,,,,,,,,,,,,,,,"29.98","79","84","T",,,,"85","29.98","FEW:02 15 SCT:04 30 BKN:07 160","29.95","10.00","80","170",,"9",,,,,,,,,,,,,,,,,,,,,,,,,,,,,,,,,,,,,"MET12906/07/20 07:53:02 METAR KMIA 071253Z 17008KT 10SM FEW015 SCT030 BKN160 29/26 A2998 RMK AO2 RAB17E26 SLP151 P0000 T02890261 $ (EM)","FM-15","7",,,,,,,,,,,,,,,,,,,,,,,,,,,,"2009-07-14"
"72202012839","2020-06-07T08:53:00","FM-15","7",,,,,,,,,,,,,,,,,,,,,,,,,,,,,,,,,,,,,,"29.98","78","86","0.00",,,,"77","29.98","SCT:04 18 BKN:07 30 BKN:07 60","29.95","10.00","80","160",,"11",,,,,,,,,,,,,,,,,,,,,,,,,,,,,,,,,,,,,"MET11406/07/20 08:53:02 METAR KMIA 071353Z 16010KT 10SM SCT018 BKN030 BKN060 30/26 A2998 RMK AO2 SLP153 T03000256 $ (EM)","FM-15","7",,,,,,,,,,,,,,,,,,,,,,,,,,,,"2009-07-14"
"72202012839","2020-06-07T09:53:00","FM-15","7",,,,,,,,,,,,,,,,,,,,,,,,,,,,,,,,,,,,,,"29.99","75","87","0.00",,"-0.02","1","67","29.98","SCT:04 22 BKN:07 30 BKN:07 70","29.96","10.00","78","VRB","18","8",,,,,,,,,,,,,,,,,,,,,,,,,,,,,,,,,,,,,"MET12906/07/20 09:53:02 METAR KMIA 071453Z 18007G16KT 10SM SCT022 BKN030 BKN070 31/24 A2999 RMK AO2 SLP154 60000 T03060239 51007 $ (EM)","FM-15","7",,,,,,,,,,,,,,,,,,,,,,,,,,,,"2009-07-14"
"72202012839","2020-06-07T10:00:00","FM-12","4",,,,,,,,,,,,,,,,,,,,,,,,,,,,,,,,,,,,,,,"75","87",,,"-0.02","1","67","29.98","26","29.96","9.94","78","180",,"8",,,,,,,,,,,,,,,,,,,,,,,,,,,,,,,,,,,,,"SYN08072202 12566 81807 10306 20239 30146 40154 51007 69907 91453 333 91016 555 90715=","FM-12","4",,,,,,,,,,,,,,,,,,,,,,,,,,,,"2009-07-14"
"72202012839","2020-06-07T10:53:00","FM-15","7",,,,,,,,,,,,,,,,,,,,,,,,,,,,,,,,,,,,,,"29.99","75","88","0.00",,,,"66","29.99","FEW:02 30 SCT:04 55 SCT:04 70","29.96","10.00","79","180","18","14",,,,,,,,,,,,,,,,,,,,,,,,,,,,,,,,,,,,,"MET11706/07/20 10:53:02 METAR KMIA 071553Z 18012G16KT 10SM FEW030 SCT055 SCT070 31/24 A2999 RMK AO2 SLP155 T03110239 $ (EM)","FM-15","7",,,,,,,,,,,,,,,,,,,,,,,,,,,,"2009-07-14"
"72202012839","2020-06-07T11:53:00","FM-15","7",,,,,,,,,,,,,,,,,,,,,,,,,,,,,,,,,,,,,,"29.98","76","90","0.00",,,,"63","29.98","FEW:02 32 BKN:07 42 BKN:07 70","29.95","10.00","80","180","23","9",,,,,,,,,,,,,,,,,,,,,,,,,,,,,,,,,,,,,"MET11706/07/20 11:53:02 METAR KMIA 071653Z 18008G20KT 10SM FEW032 BKN042 BKN070 32/24 A2998 RMK AO2 SLP153 T03220244 $ (EM)","FM-15","7",,,,,,,,,,,,,,,,,,,,,,,,,,,,"2009-07-14"
"72202012839","2020-06-07T12:53:00","FM-15","7",,,,,,,,,,,,,,,,,,,,,,,,,,,,,,,,,,,,,,"29.97","76","90","0.00",,"+0.01","8","63","29.97","SCT:04 32 SCT:04 70 BKN:07 160","29.94","10.00","80","VRB",,"10",,,,,,,,,,,,,,,,,,,,,,,,,,,,,,,,,,,,,"MET13806/07/20 12:53:02 METAR KMIA 071753Z 17009KT 10SM SCT032 SCT070 BKN160 32/24 A2997 RMK AO2 SLP149 60000 T03220244 10328 20283 58005 $ (EM)","FM-15","7",,,,,,,,,,,,,,,,,,,,,,,,,,,,"2009-07-14"
"72202012839","2020-06-07T13:00:00","FM-12","4",,,,,,,,,,,,,,,,,,,,,,,,,,,,,,,,,,,,,,,"76","90",,,"+0.01","8","63","29.97","26","29.94","9.94","80","170",,"10",,,,,,,,,,,,,,,,,,,,,,,,,,,,,,,,,,,,,"SYN08672202 12566 81709 10322 20244 30139 40149 58005 69901 91753 333 10328 20283 555 90718=","FM-12","4",,,,,,,,,,,,,,,,,,,,,,,,,,,,"2009-07-14"
"72202012839","2020-06-07T13:53:00","FM-15","7",,,,,,,,,,,,,,,,,,,,,,,,,,,,,,,,,,,,,,"29.96","77","90","0.00",,,,"66","29.96","FEW:02 26 FEW:02 70 BKN:07 150","29.93","10.00","81","150","21","10",,,,,,,,,,,,,,,,,,,,,,,,,,,,,,,,,,,,,"MET11806/07/20 13:53:02 METAR KMIA 071853Z 15009G18KT 10SM FEW026 FEW070 BKN150 32/25 A2996 RMK AO2 SLP145 T03220250 $ (RDR)","FM-15","7",,,,,,,,,,,,,,,,,,,,,,,,,,,,"2009-07-14"
"72202012839","2020-06-07T14:53:00","FM-15","7",,,,,,,,,,,,,,,,,,,,,,,,,,,,,,,,,,,,,,"29.94","77","88","0.00",,,,"70","29.94","FEW:02 23 BKN:07 150 OVC:08 250","29.91","10.00","80","130","20","16",,,,,,,,,,,,,,,,,,,,,,,,,,,,,,,,,,,,,"MET11806/07/20 14:53:02 METAR KMIA 071953Z 13014G17KT 10SM FEW023 BKN150 OVC250 31/25 A2994 RMK AO2 SLP139 T03110250 $ (RDR)","FM-15","7",,,,,,,,,,,,,,,,,,,,,,,,,,,,"2009-07-14"
"72202012839","2020-06-07T15:53:00","FM-15","7",,,,,,,,,,,,,,,,,,,,,,,,,,,,,,,,,,,,,,"29.94","78","88","0.00",,"+0.03","6","73","29.94","FEW:02 23 BKN:07 180 OVC:08 250","29.91","10.00","81","140","23","14",,,,,,,,,,,,,,,,,,,,,,,,,,,,,,,,,,,,,"MET12406/07/20 15:53:02 METAR KMIA 072053Z 14012G20KT 10SM FEW023 BKN180 OVC250 31/26 A2994 RMK AO2 SLP138 T03110256 56011 $ (RDR)","FM-15","7",,,,,,,,,,,,,,,,,,,,,,,,,,,,"2009-07-14"
"72202012839","2020-06-07T16:00:00","FM-12","4",,,,,,,,,,,,,,,,,,,,,,,,,,,,,,,,,,,,,,,"78","88",,,"+0.03","6","73","29.94","26","29.91","9.94","81","140",,"14",,,,,,,,,,,,,,,,,,,,,,,,,,,,,,,,,,,,,"SYN07472202 32566 81412 10311 20256 30129 40138 56011 92053 333 91020 555 90721=","FM-12","4",,,,,,,,,,,,,,,,,,,,,,,,,,,,"2009-07-14"
"72202012839","2020-06-07T16:53:00","FM-15","7",,,,,,,,,,,,,,,,,,,,,,,,,,,,,,,,,,,,,,"29.93","78","86","0.00",,,,"77","29.93","FEW:02 23 BKN:07 180 OVC:08 250","29.90","10.00","80","130","21","11",,,,,,,,,,,,,,,,,,,,,,,,,,,,,,,,,,,,,"MET11806/07/20 16:53:02 METAR KMIA 072153Z 13010G18KT 10SM FEW023 BKN180 OVC250 30/26 A2993 RMK AO2 SLP136 T03000256 $ (RDR)","FM-15","7",,,,,,,,,,,,,,,,,,,,,,,,,,,,"2009-07-14"
"72202012839","2020-06-07T17:53:00","FM-15","7",,,,,,,,,,,,,,,,,,,,,,,,,,,,,,,,,,,,,,"29.95","78","85","0.00",,,,"80","29.94","FEW:02 20 BKN:07 180 OVC:08 250","29.92","10.00","80","150",,"11",,,,,,,,,,,,,,,,,,,,,,,,,,,,,,,,,,,,,"MET11506/07/20 17:53:02 METAR KMIA 072253Z 15010KT 10SM FEW020 BKN180 OVC250 29/26 A2995 RMK AO2 SLP140 T02940256 $ (RDR)","FM-15","7",,,,,,,,,,,,,,,,,,,,,,,,,,,,"2009-07-14"
"72202012839","2020-06-07T18:53:00","FM-15","7",,,,,,,,,,,,,,,,,,,,,,,,,,,,,,,,,,,,,,"29.96","78","84","0.00",,"-0.02","3","82","29.96","FEW:02 17 OVC:08 180","29.93","10.00","80","140",,"9",,,,,,,,,,,,,,,,,,,,,,,,,,,,,,,,,,,,,"MET12606/07/20 18:53:02 METAR KMIA 072353Z 14008KT 10SM FEW017 OVC180 29/26 A2996 RMK AO2 SLP145 T02890256 10322 20289 53006 $ (RDR)","FM-15","7",,,,,,,,,,,,,,,,,,,,,,,,,,,,"2009-07-14"
"72202012839","2020-06-07T19:00:00","FM-12","4",,,,,,,,,,,,,,,,,,,,,,,,,,,,,,,,,,,,,,,"78","84",,,"-0.02","3","82","29.96","15","29.93","9.94","80","140",,"9",,,,,,,,,,,,,,,,,,,,,,,,,,,,,,,,,,,,,"SYN08072202 32466 81408 10289 20256 30135 40145 53006 92353 333 10328 20283 555 90800=","FM-12","4",,,,,,,,,,,,,,,,,,,,,,,,,,,,"2009-07-14"
"72202012839","2020-06-07T19:53:00","FM-15","7",,,,,,,,,,,,,,,,,,,,,,,,,,,,,,,,,,,,,,"29.96","79","83","0.00",,,,"88","29.96","FEW:02 17 BKN:07 160 OVC:08 250","29.93","10.00","80","130",,"10",,,,,,,,,,,,,,,,,,,,,,,,,,,,,,,,,,,,,"MET10906/07/20 19:53:01 METAR KMIA 080053Z 13009KT 10SM FEW017 BKN160 OVC250 28/26 A2996 RMK AO2 SLP146 T02830261 $","FM-15","7",,,,,,,,,,,,,,,,,,,,,,,,,,,,"2009-07-14"
"72202012839","2020-06-07T20:53:00","FM-15","7",,,,,,,,,,,,,,,,,,,,,,,,,,,,,,,,,,,,,,"29.98","79","83","T",,,,"88","29.98","SCT:04 14 BKN:07 150 OVC:08 250","29.95","10.00","80","VRB",,"7",,,,,,,,,,,,,,,,,,,,,,,,,,,,,,,,,,,,,"MET12406/07/20 20:53:01 METAR KMIA 080153Z VRB06KT 10SM SCT014 BKN150 OVC250 28/26 A2998 RMK AO2 RAB11E21 SLP152 P0000 T02830261 $","FM-15","7",,,,,,,,,,,,,,,,,,,,,,,,,,,,"2009-07-14"
"72202012839","2020-06-07T21:53:00","FM-15","7",,,,,,,,,,,,,,,,,,,,,,,,,,,,,,,,,,,,,,"29.98","79","83","0.00",,"-0.02","2","88","29.98","FEW:02 14 FEW:02 130 BKN:07 160","29.95","10.00","80","140",,"8",,,,,,,,,,,,,,,,,,,,,,,,,,,,,,,,,,,,,"MET12106/07/20 21:53:01 METAR KMIA 080253Z 14007KT 10SM FEW014 FEW130 BKN160 28/26 A2998 RMK AO2 SLP153 60000 T02830261 52008 $","FM-15","7",,,,,,,,,,,,,,,,,,,,,,,,,,,,"2009-07-14"
"72202012839","2020-06-07T22:00:00","FM-12","4",,,,,,,,,,,,,,,,,,,,,,,,,,,,,,,,,,,,,,,"79","83",,,"-0.02","2","88","29.98","15","29.95","9.94","80","140",,"8",,,,,,,,,,,,,,,,,,,,,,,,,,,,,,,,,,,,,"SYN07072202 12466 81407 10283 20261 30142 40153 52008 69907 90253 555 90803=","FM-12","4",,,,,,,,,,,,,,,,,,,,,,,,,,,,"2009-07-14"
"72202012839","2020-06-07T22:53:00","FM-15","7",,,,,,,,,,,,,,,,,,,,,,,,,,,,,,,,,,,,,,"29.98","79","83","0.00",,,,"88","29.98","FEW:02 15 SCT:04 160 OVC:08 250","29.95","10.00","80","140",,"7",,,,,,,,,,,,,,,,,,,,,,,,,,,,,,,,,,,,,"MET10906/07/20 22:53:02 METAR KMIA 080353Z 14006KT 10SM FEW015 SCT160 OVC250 28/26 A2998 RMK AO2 SLP152 T02830261 $","FM-15","7",,,,,,,,,,,,,,,,,,,,,,,,,,,,"2009-07-14"
"72202012839","2020-06-07T23:53:00","FM-15","7",,,,,,,,,,,,,,,,,,,,,,,,,,,,,,,,,,,,,,"29.97","79","83","0.00",,,,"88","29.96","FEW:02 15 OVC:08 250","29.94","10.00","80","120",,"7",,,,,,,,,,,,,,,,,,,,,,,,,,,,,,,,,,,,,"MET11206/07/20 23:53:02 METAR KMIA 080453Z 12006KT 10SM FEW015 OVC250 28/26 A2997 RMK AO2 SLP147 T02830261 403280278 $","FM-15","7",,,,,,,,,,,,,,,,,,,,,,,,,,,,"2009-07-14"
"72202012839","2020-06-07T23:59:00","SOD  ","6",,,,,,,,,,,,,,,"78","87","80","29.96","29.93","80","10.4","22","4.7","0","91","82","150","27","T",,,"160","17",,,,,,,,,,,,,,,,,,,,,,,,,,,,,,,,,,,,,,,,,,,,,,,,,,,,,,,,,"SOD76624 HR PRECIPITATION (IN):    T SNOW DEPTH (IN):0     24 HR SNOWFALL (IN):0.0  24 HR MAX TEMP (F): 9124 HR MIN TEMP (F): 82AVERAGE STATION PRESSURE:29.930 MINIMUM SEA LEVEL PRESSURE:29.93 TIME OF OCCURRENCE:1701 PEAK WIND SPEED (MPH): 27 PEAK WIND DIR (DEG):150 PEAK WIND TIME (LST):      FASTEST 2MIN SPEED (MPH): 17FASTEST 2MIN DIR (DEG):160 FASTEST 2MIN TIME (LST):     AVERAGE WIND SPEED (MPH):10.4 24 HR AVG TEMP (F): 87DEPART FROM NORMAL:  5  SKY COVER SR-SS (TENTHS): 1HEATING DEGREE DAYS:  0 COOLING DEGREE DAYS: 22 LATEST DAY MAX TEMP (0700-1900 LST):91  LATEST NIGHT MIN TEMP(1900-0800 LST):83 HOURLY INCREMENTAL PRECIPITATION VALUES (IN):.00 0.00 0.00 0.00 0.00 0.00 0.00 T    0.00 0.00 0.00 0.00 0.00 0.00 0.00 0.00 0.00 0.00 0.00 0.00 T    0.00 0.00 0.00","SOD  ","6",,,,,,,,,,,,,,,,,,,,,,,,,"0529","1911",,"2009-07-14"
"72202012839","2020-06-08T00:53:00","FM-15","7",,,,,,,,,,,,,,,,,,,,,,,,,,,,,,,,,,,,,,"29.96","78","82","0.00",,"+0.02","8","88","29.96","FEW:02 15 BKN:07 250","29.93","10.00","79","140",,"6",,,,,,,,,,,,,,,,,,,,,,,,,,,,,,,,,,,,,"MET13106/08/20 00:53:02 METAR KMIA 080553Z 14005KT 10SM FEW015 BKN250 28/26 A2996 RMK AO2 SLP145 60000 T02780256 10289 20278 58008 $ (GR)","FM-15","7",,,,,,,,,,,,,,,,,,,,,,,,,,,,"2009-07-14"
"72202012839","2020-06-08T01:00:00","FM-12","4",,,,,,,,,,,,,,,,,,,,,,,,,,,,,,,,,,,,,,,"78","82",,,"+0.02","8","88","29.96","15","29.93","9.94","79","140",,"6",,,,,,,,,,,,,,,,,,,,,,,,,,,,,,,,,,,,,"SYN08672202 12466 61405 10278 20256 30135 40145 58008 69901 90553 333 10289 20278 555 90806=","FM-12","4",,,,,,,,,,,,,,,,,,,,,,,,,,,,"2009-07-14"
"72202012839","2020-06-08T01:53:00","FM-15","7",,,,,,,,,,,,,,,,,,,,,,,,,,,,,,,,,,,,,,"29.95","79","82","0.00",,,,"90","29.95","FEW:02 13 BKN:07 250","29.92","10.00","80","130",,"9",,,,,,,,,,,,,,,,,,,,,,,,,,,,,,,,,,,,,"MET10706/08/20 01:53:02 METAR KMIA 080653Z 13008KT 10SM FEW013 BKN250 28/26 A2995 RMK AO2 SLP142 T02780261 $ (GR)","FM-15","7",,,,,,,,,,,,,,,,,,,,,,,,,,,,"2009-07-14"
"72202012839","2020-06-08T02:53:00","FM-15","7",,,,,,,,,,,,,,,,,,,,,,,,,,,,,,,,,,,,,,"29.94","78","82","0.00",,,,"88","29.94","FEW:02 12 FEW:02 150 BKN:07 250","29.91","10.00","79","150",,"7",,,,,,,,,,,,,,,,,,,,,,,,,,,,,,,,,,,,,"MET11406/08/20 02:53:02 METAR KMIA 080753Z 15006KT 10SM FEW012 FEW150 BKN250 28/26 A2994 RMK AO2 SLP139 T02780256 $ (GR)","FM-15","7",,,,,,,,,,,,,,,,,,,,,,,,,,,,"2009-07-14"
"72202012839","2020-06-08T03:53:00","FM-15","7",,,,,,,,,,,,,,,,,,,,,,,,,,,,,,,,,,,,,,"29.93","78","82","0.00",,"+0.02","7","88","29.93","FEW:02 13 FEW:02 180 BKN:07 250","29.90","10.00","79","150",,"5",,,,,,,,,,,,,,,,,,,,,,,,,,,,,,,,,,,,,"MET12006/08/20 03:53:02 METAR KMIA 080853Z 15004KT 10SM FEW013 FEW180 BKN250 28/26 A2993 RMK AO2 SLP136 T02780256 57008 $ (GR)","FM-15","7",,,,,,,,,,,,,,,,,,,,,,,,,,,,"2009-07-14"
"72202012839","2020-06-08T04:00:00","FM-12","4",,,,,,,,,,,,,,,,,,,,,,,,,,,,,,,,,,,,,,,"78","82",,,"+0.02","7","88","29.93","15","29.90","9.94","79","150",,"5",,,,,,,,,,,,,,,,,,,,,,,,,,,,,,,,,,,,,"SYN06472202 32466 61504 10278 20256 30125 40136 57008 90853 555 90809=","FM-12","4",,,,,,,,,,,,,,,,,,,,,,,,,,,,"2009-07-14"
"72202012839","2020-06-08T04:53:00","FM-15","7",,,,,,,,,,,,,,,,,,,,,,,,,,,,,,,,,,,,,,"29.95","77","82","0.00",,,,"85","29.95","FEW:02 15 FEW:02 25 SCT:04 180","29.92","10.00","78","170",,"6",,,,,,,,,,,,,,,,,,,,,,,,,,,,,,,,,,,,,"MET11406/08/20 04:53:02 METAR KMIA 080953Z 17005KT 10SM FEW015 FEW025 SCT180 28/25 A2995 RMK AO2 SLP142 T02780250 $ (GR)","FM-15","7",,,,,,,,,,,,,,,,,,,,,,,,,,,,"2009-07-14"
"72202012839","2020-06-08T05:53:00","FM-15","7",,,,,,,,,,,,,,,,,,,,,,,,,,,,,,,,,,,,,,"29.98","78","82","0.00",,,,"88","29.98","SCT:04 17 BKN:07 30 BKN:07 180","29.95","10.00","79","170",,"5",,,,,,,,,,,,,,,,,,,,,,,,,,,,,,,,,,,,,"MET11406/08/20 05:53:02 METAR KMIA 081053Z 17004KT 10SM SCT017 BKN030 BKN180 28/26 A2998 RMK AO2 SLP153 T02780256 $ (EM)","FM-15","7",,,,,,,,,,,,,,,,,,,,,,,,,,,,"2009-07-14"
"72202012839","2020-06-08T06:53:00","FM-15","7",,,,,,,,,,,,,,,,,,,,,,,,,,,,,,,,,,,,,,"29.99","78","83","0.00",,"-0.05","1","85","29.98","FEW:02 17 SCT:04 30 BKN:07 200","29.96","10.00","79","160",,"6",,,,,,,,,,,,,,,,,,,,,,,,,,,,,,,,,,,,,"MET13206/08/20 06:53:02 METAR KMIA 081153Z 16005KT 10SM FEW017 SCT030 BKN200 28/26 A2999 RMK AO2 SLP154 T02830256 10283 20278 51018 $ (EM)","FM-15","7",,,,,,,,,,,,,,,,,,,,,,,,,,,,"2009-07-14"
"72202012839","2020-06-08T07:00:00","FM-12","4",,,,,,,,,,,,,,,,,,,,,,,,,,,,,,,,,,,,,,,"78","83",,,"-0.05","1","85","29.98","15","29.96","9.94","79","160",,"6",,,,,,,,,,,,,,,,,,,,,,,,,,,,,,,,,,,,,"SYN08072202 32466 81605 10283 20256 30146 40154 51018 91153 333 10328 20278 555 90812=","FM-12","4",,,,,,,,,,,,,,,,,,,,,,,,,,,,"2009-07-14"
"72202012839","2020-06-08T07:53:00","FM-15","7",,,,,,,,,,,,,,,,,,,,,,,,,,,,,,,,,,,,,,"30.00","78","85","0.00",,,,"80","30.00","SCT:04 17 SCT:04 30 BKN:07 200","29.97","10.00","80","140",,"5",,,,,,,,,,,,,,,,,,,,,,,,,,,,,,,,,,,,,"MET11206/08/20 07:53:02 METAR KMIA 081253Z 14004KT 10SM SCT017 SCT030 BKN200 29/26 A3000 RMK AO2 SLP159 T02940256 (EM)","FM-15","7",,,,,,,,,,,,,,,,,,,,,,,,,,,,"2009-07-14"
"72202012839","2020-06-08T08:35:00","FM-16","7",,,,,,,,,,,,,,,,,,,,,,,,,,,,,,,,,,,,,,"30.01","78","84","T","|TS |",,,"82",,"BKN:07 19 BKN:07 35","29.98","9.00","80","190",,"8",,,,,,,,,,,,,,,,,,,,,,,,,,,,,,,,,,,,,"MET16006/08/20 08:35:02 SPECI KMIA 081335Z 19007KT 9SM -TSRA BKN019CB BKN035 BKN1 29/26 A3001 RMK AO2 RAB30 TSB35 OCNL LTGICCG S-W TS S-W MOV N P0000 T02890256 $ (EM)","FM-16","7",,,,,,,,,,,,,,,,,,,,,,,,,,,,"2009-07-14"
"72202012839","2020-06-08T08:53:00","FM-15","7",,,,,,,,,,,,,,,,,,,,,,,,,,,,,,,,,,,,,,"30.02","77","81","0.11","|TS |",,,"88","30.01","SCT:04 19 BKN:07 35","29.99","6.00","78","190",,"8",,,,,,,,,,,,,,,,,,,,,,,,,,,,,,,,,,,,,"MET18806/08/20 08:53:02 METAR KMIA 081353Z 19007KT 6SM R09/3000VP6000FT +TSRA BR SCT019CB BKN035 BKN0 27/25 A3002 RMK AO2 RAB30 TSB35 SLP164 OCNL LTGICCG S-W TS S-W MOV NE P0007 T02720250 $ (EM)","FM-15","7",,,,,,,,,,,,,,,,,,,,,,,,,,,,"2009-07-14"
"72202012839","2020-06-08T09:03:00","FM-16","7",,,,,,,,,,,,,,,,,,,,,,,,,,,,,,,,,,,,,,"30.02","76","81","0.05","|RA |",,,"85",,"SCT:04 19 BKN:07 35","29.99","6.00","77","190",,"5",,,,,,,,,,,,,,,,,,,,,,,,,,,,,,,,,,,,,"MET16206/08/20 09:03:02 SPECI KMIA 081403Z 19004KT 6SM R09/4000VP6000FT -RA BR SCT019CB BKN035 BKN1 27/24 A3002 RMK AO2 RAEMM TSE02 CB OHD MOV NE P0005 T02720244 $ (EM)","FM-16","7",,,,,,,,,,,,,,,,,,,,,,,,,,,,"2009-07-14"
"72202012839","2020-06-08T09:53:00","FM-15","7",,,,,,,,,,,,,,,,,,,,,,,,,,,,,,,,,,,,,,"30.03","77","82","0.02","|RA |","-0.04","1","85","30.03","SCT:04 18 BKN:07 27","30.00","10.00","78","220",,"8",,,,,,,,,,,,,,,,,,,,,,,,,,,,,,,,,,,,,"MET16206/08/20 09:53:02 METAR KMIA 081453Z 22007KT 10SM -RA SCT018CB BKN027 BKN0 28/25 A3003 RMK AO2 RAEMMB04 TSE02 SLP169 CB SW-NW MOV NE P0006 60013 T02780250 51015 $","FM-15","7",,,,,,,,,,,,,,,,,,,,,,,,,,,,"2009-07-14"
"72202012839","2020-06-08T10:00:00","FM-12","4",,,,,,,,,,,,,,,,,,,,,,,,,,,,,,,,,,,,,,,"77","82",,"||RA","-0.04","1","85","30.03","15","30.00","9.94","78","220",,"8",,,,,,,,,,,,,,,,,,,,,,,,,,,,,,,,,,,,,"SYN07672202 11466 82207 10278 20250 30159 40169 51015 60037 761// 91453 555 90815=","FM-12","4",,,,,,,,,,,,,,,,,,,,,,,,,,,,"2009-07-14"
"72202012839","2020-06-08T10:48:00","FM-16","7",,,,,,,,,,,,,,,,,,,,,,,,,,,,,,,,,,,,,,"30.03","75","81","0.01","|RA |",,,"84",,"BKN:07 24 BKN:07 50 BKN:07 100","30.00","10.00","77","180",,"6",,,,,,,,,,,,,,,,,,,,,,,,,,,,,,,,,,,,,"MET14306/08/20 10:48:02 SPECI KMIA 081548Z 18005KT 10SM VCTS -RA BKN024 BKN050 BKN100 27/24 A3003 RMK AO2 LTG DSNT SW TSE42 CB DSNT SW MOV NE P0001 $","FM-16","7",,,,,,,,,,,,,,,,,,,,,,,,,,,,"2009-07-14"
"72202012839","2020-06-08T10:53:00","FM-15","7",,,,,,,,,,,,,,,,,,,,,,,,,,,,,,,,,,,,,,"30.03","77","82","0.01",,,,"85","30.03","FEW:02 15 BKN:07 22","30.00","10.00","78","160",,"3",,,,,,,,,,,,,,,,,,,,,,,,,,,,,,,,,,,,,"MET15706/08/20 10:53:02 METAR KMIA 081553Z 16003KT 10SM VCTS FEW015CB BKN022 BKN1 28/25 A3003 RMK AO2 LTG DSNT SW RAE53 TSE42 SLP171 CB SW MOV NE P0001 T02780250 $","FM-15","7",,,,,,,,,,,,,,,,,,,,,,,,,,,,"2009-07-14"
"72202012839","2020-06-08T11:03:00","FM-16","7",,,,,,,,,,,,,,,,,,,,,,,,,,,,,,,,,,,,,,"30.04","79","83",,,,,"88",,"FEW:02 15 BKN:07 29","30.01","10.00","80","180",,"5",,,,,,,,,,,,,,,,,,,,,,,,,,,,,,,,,,,,,"MET13406/08/20 11:03:02 SPECI KMIA 081603Z 18004KT 10SM FEW015CB BKN029 BKN1 28/26 A3004 RMK AO2 LTG DSNT SW AND NW CB SW MOV NE T02830261 $","FM-16","7",,,,,,,,,,,,,,,,,,,,,,,,,,,,"2009-07-14"
"72202012839","2020-06-08T11:53:00","FM-15","7",,,,,,,,,,,,,,,,,,,,,,,,,,,,,,,,,,,,,,"30.04","77","83","0.01","|RA |",,,"82","30.03","FEW:02 20 BKN:07 29 BKN:07 110","30.01","10.00","79","180",,"8",,,,,,,,,,,,,,,,,,,,,,,,,,,,,,,,,,,,,"MET14806/08/20 11:53:02 METAR KMIA 081653Z 18007KT 10SM -RA FEW020 BKN029 BKN110 28/25 A3004 RMK AO2 LTG DSNT N AND W RAB07E20B43 SLP171 P0001 T02830250 $","FM-15","7",,,,,,,,,,,,,,,,,,,,,,,,,,,,"2009-07-14"
"72202012839","2020-06-08T12:18:00","FM-16","7",,,,,,,,,,,,,,,,,,,,,,,,,,,,,,,,,,,,,,"30.02","72","82","T",,,,"72",,"SCT:04 29 BKN:07 90 BKN:07 150","29.99","10.00","75","170",,"5",,,,,,,,,,,,,,,,,,,,,,,,,,,,,,,,,,,,,"MET11406/08/20 12:18:02 SPECI KMIA 081718Z 17004KT 10SM SCT029 BKN090 BKN150 28/22 A3002 RMK AO2 RAE06 P0000 T02780222 $","FM-16","7",,,,,,,,,,,,,,,,,,,,,,,,,,,,"2009-07-14"
"72202012839","2020-06-08T12:53:00","FM-15","7",,,,,,,,,,,,,,,,,,,,,,,,,,,,,,,,,,,,,,"30.02","74","84","T",,"+0.01","8","72","30.02","FEW:02 29 SCT:04 90 BKN:07 150","29.99","10.00","77","220",,"5",,,,,,,,,,,,,,,,,,,,,,,,,,,,,,,,,,,,,"MET14506/08/20 12:53:02 METAR KMIA 081753Z 22004KT 10SM FEW029 SCT090 BKN150 29/23 A3002 RMK AO2 RAE06 SLP165 P0000 60015 T02890233 10306 20261 58005 $","FM-15","7",,,,,,,,,,,,,,,,,,,,,,,,,,,,"2009-07-14"
"72202012839","2020-06-08T13:00:00","FM-12","4",,,,,,,,,,,,,,,,,,,,,,,,,,,,,,,,,,,,,,,"74","84",,,"+0.01","8","72","30.02","26","29.99","9.94","77","220",,"5",,,,,,,,,,,,,,,,,,,,,,,,,,,,,,,,,,,,,"SYN08672202 12566 82204 10289 20233 30156 40165 58005 60041 91753 333 10306 20261 555 90818=","FM-12","4",,,,,,,,,,,,,,,,,,,,,,,,,,,,"2009-07-14"
"72202012839","2020-06-08T13:53:00","FM-15","7",,,,,,,,,,,,,,,,,,,,,,,,,,,,,,,,,,,,,,"30.01","78","85","T",,,,"80","30.01","FEW:02 26 SCT:04 65 BKN:07 160","29.98","10.00","80","190",,"5",,,,,,,,,,,,,,,,,,,,,,,,,,,,,,,,,,,,,"MET12406/08/20 13:53:02 METAR KMIA 081853Z 19004KT 10SM FEW026 SCT065 BKN160 29/26 A3001 RMK AO2 RAB01E51 SLP161 P0000 T02940256 $","FM-15","7",,,,,,,,,,,,,,,,,,,,,,,,,,,,"2009-07-14"
"72202012839","2020-06-08T14:53:00","FM-15","7",,,,,,,,,,,,,,,,,,,,,,,,,,,,,,,,,,,,,,"29.98","77","87","0.00",,,,"72","29.98","FEW:02 25 BKN:07 160 BKN:07 250","29.95","10.00","80","180",,"6",,,,,,,,,,,,,,,,,,,,,,,,,,,,,,,,,,,,,"MET10906/08/20 14:53:02 METAR KMIA 081953Z 18005KT 10SM FEW025 BKN160 BKN250 31/25 A2998 RMK AO2 SLP153 T03060250 $","FM-15","7",,,,,,,,,,,,,,,,,,,,,,,,,,,,"2009-07-14"
"72202012839","2020-06-08T15:53:00","FM-15","7",,,,,,,,,,,,,,,,,,,,,,,,,,,,,,,,,,,,,,"29.97","76","88","0.00",,"+0.04","6","68","29.97","FEW:02 27 BKN:07 180 BKN:07 250","29.94","10.00","79","130",,"6",,,,,,,,,,,,,,,,,,,,,,,,,,,,,,,,,,,,,"MET12106/08/20 15:53:02 METAR KMIA 082053Z 13005KT 10SM FEW027 BKN180 BKN250 31/24 A2997 RMK AO2 SLP150 60000 T03110244 56014 $","FM-15","7",,,,,,,,,,,,,,,,,,,,,,,,,,,,"2009-07-14"
"72202012839","2020-06-08T16:00:00","FM-12","4",,,,,,,,,,,,,,,,,,,,,,,,,,,,,,,,,,,,,,,"76","88",,,"+0.04","6","68","29.97","26","29.94","9.94","79","130",,"6",,,,,,,,,,,,,,,,,,,,,,,,,,,,,,,,,,,,,"SYN07072202 12566 61305 10311 20244 30139 40150 56014 69907 92053 555 90821=","FM-12","4",,,,,,,,,,,,,,,,,,,,,,,,,,,,"2009-07-14"
"72202012839","2020-06-08T16:53:00","FM-15","7",,,,,,,,,,,,,,,,,,,,,,,,,,,,,,,,,,,,,,"29.97","77","88","0.00",,,,"70","29.97","FEW:02 23 BKN:07 180 BKN:07 250","29.94","10.00","80","170",,"6",,,,,,,,,,,,,,,,,,,,,,,,,,,,,,,,,,,,,"MET10906/08/20 16:53:02 METAR KMIA 082153Z 17005KT 10SM FEW023 BKN180 BKN250 31/25 A2997 RMK AO2 SLP148 T03110250 $","FM-15","7",,,,,,,,,,,,,,,,,,,,,,,,,,,,"2009-07-14"
"72202012839","2020-06-08T17:53:00","FM-15","7",,,,,,,,,,,,,,,,,,,,,,,,,,,,,,,,,,,,,,"29.96","77","86","0.00",,,,"75","29.96","FEW:02 23 SCT:04 180 BKN:07 250","29.93","10.00","80","VRB",,"5",,,,,,,,,,,,,,,,,,,,,,,,,,,,,,,,,,,,,"MET10906/08/20 17:53:02 METAR KMIA 082253Z VRB04KT 10SM FEW023 SCT180 BKN250 30/25 A2996 RMK AO2 SLP147 T03000250 $","FM-15","7",,,,,,,,,,,,,,,,,,,,,,,,,,,,"2009-07-14"
"72202012839","2020-06-08T18:53:00","FM-15","7",,,,,,,,,,,,,,,,,,,,,,,,,,,,,,,,,,,,,,"29.96","77","84","0.00",,"+0.01","6","80","29.96","SCT:04 180 BKN:07 250","29.93","10.00","79","120",,"8",,,,,,,,,,,,,,,,,,,,,,,,,,,,,,,,,,,,,"MET12606/08/20 18:53:02 METAR KMIA 082353Z 12007KT 10SM SCT180 BKN250 29/25 A2996 RMK AO2 SLP146 60000 T02890250 10311 20283 56004 $","FM-15","7",,,,,,,,,,,,,,,,,,,,,,,,,,,,"2009-07-14"
"72202012839","2020-06-08T19:00:00","FM-12","4",,,,,,,,,,,,,,,,,,,,,,,,,,,,,,,,,,,,,,,"77","84",,,"+0.01","6","80","29.96",,"29.93","9.94","79","120",,"8",,,,,,,,,,,,,,,,,,,,,,,,,,,,,,,,,,,,,"SYN08672202 12966 61207 10289 20250 30135 40146 56004 69901 92353 333 10311 20278 555 90900=","FM-12","4",,,,,,,,,,,,,,,,,,,,,,,,,,,,"2009-07-14"
"72202012839","2020-06-08T19:53:00","FM-15","7",,,,,,,,,,,,,,,,,,,,,,,,,,,,,,,,,,,,,,"29.97","78","83","0.00",,,,"85","29.97","FEW:02 180 BKN:07 220","29.94","10.00","79","120",,"7",,,,,,,,,,,,,,,,,,,,,,,,,,,,,,,,,,,,,"MET10206/08/20 19:53:01 METAR KMIA 090053Z 12006KT 10SM FEW180 BKN220 28/26 A2997 RMK AO2 SLP149 T02830256 $","FM-15","7",,,,,,,,,,,,,,,,,,,,,,,,,,,,"2009-07-14"
"72202012839","2020-06-08T20:53:00","FM-15","7",,,,,,,,,,,,,,,,,,,,,,,,,,,,,,,,,,,,,,"29.98","78","82","0.00",,,,"88","29.98","FEW:02 180 BKN:07 220","29.95","10.00","79","100",,"5",,,,,,,,,,,,,,,,,,,,,,,,,,,,,,,,,,,,,"MET10206/08/20 20:53:01 METAR KMIA 090153Z 10004KT 10SM FEW180 BKN220 28/26 A2998 RMK AO2 SLP153 T02780256 $","FM-15","7",,,,,,,,,,,,,,,,,,,,,,,,,,,,"2009-07-14"
"72202012839","2020-06-08T21:53:00","FM-15","7",,,,,,,,,,,,,,,,,,,,,,,,,,,,,,,,,,,,,,"30.00","78","82","0.00",,"-0.03","3","88","29.99","SCT:04 50 SCT:04 70 BKN:07 250","29.97","10.00","79","000",,"0",,,,,,,,,,,,,,,,,,,,,,,,,,,,,,,,,,,,,"MET11506/08/20 21:53:01 METAR KMIA 090253Z 00000KT 10SM SCT050 SCT070 BKN250 28/26 A3000 RMK AO2 SLP157 T02780256 53011 $","FM-15","7",,,,,,,,,,,,,,,,,,,,,,,,,,,,"2009-07-14"
"72202012839","2020-06-08T22:00:00","FM-12","4",,,,,,,,,,,,,,,,,,,,,,,,,,,,,,,,,,,,,,,"78","82",,,"-0.03","3","88","29.99","57","29.97","9.94","79","000",,"0",,,,,,,,,,,,,,,,,,,,,,,,,,,,,,,,,,,,,"SYN06472202 32766 60000 10278 20256 30149 40157 53011 90253 555 90903=","FM-12","4",,,,,,,,,,,,,,,,,,,,,,,,,,,,"2009-07-14"
"72202012839","2020-06-08T22:53:00","FM-15","7",,,,,,,,,,,,,,,,,,,,,,,,,,,,,,,,,,,,,,"30.00","78","82","0.00",,,,"88","29.99","SCT:04 70 BKN:07 250","29.97","10.00","79","100",,"5",,,,,,,,,,,,,,,,,,,,,,,,,,,,,,,,,,,,,"MET10206/08/20 22:53:01 METAR KMIA 090353Z 10004KT 10SM SCT070 BKN250 28/26 A3000 RMK AO2 SLP157 T02780256 $","FM-15","7",,,,,,,,,,,,,,,,,,,,,,,,,,,,"2009-07-14"
"72202012839","2020-06-08T23:53:00","FM-15","7",,,,,,,,,,,,,,,,,,,,,,,,,,,,,,,,,,,,,,"29.99","78","82","0.00",,,,"88","29.99","FEW:02 28 SCT:04 70 BKN:07 85","29.96","10.00","79","100",,"6",,,,,,,,,,,,,,,,,,,,,,,,,,,,,,,,,,,,,"MET11906/08/20 23:53:01 METAR KMIA 090453Z 10005KT 10SM FEW028 SCT070 BKN085 28/26 A2999 RMK AO2 SLP156 T02780256 403110261 $","FM-15","7",,,,,,,,,,,,,,,,,,,,,,,,,,,,"2009-07-14"
"72202012839","2020-06-08T23:59:00","SOD  ","6",,,,,,,,,,,,,,,"77","84","83","29.98","29.96","79","5.7","19","1.6","0","88","79","190","17","0.15",,,"190","13","TS RA BR",,,,,,,,,,,,,,,,,,,,,,,,,,,,,,,,,,,,,,,,,,,,,,,,,,,,,,,,"SOD76224 HR PRECIPITATION (IN): 0.15 SNOW DEPTH (IN):0     24 HR SNOWFALL (IN):0.0  WEATHER(CODE):138  24 HR MAX TEMP (F): 8824 HR MIN TEMP (F): 79AVERAGE STATION PRESSURE(D):29.960 MINIMUM SEA LEVEL PRESSURE:29.93 TIME OF OCCURRENCE:0355 PEAK WIND SPEED (MPH): 17 PEAK WIND DIR (DEG):190 PEAK WIND TIME (LST):      FASTEST 2MIN SPEED (MPH): 13FASTEST 2MIN DIR (DEG):190 FASTEST 2MIN TIME (LST):     AVERAGE WIND SPEED (MPH): 5.7 24 HR AVG TEMP (F): 84DEPART FROM NORMAL:  2  HEATING DEGREE DAYS:  0 COOLING DEGREE DAYS: 19 LATEST DAY MAX TEMP (0700-1900 LST): 88 LATEST NIGHT MIN TEMP(1900-0800 LST):82 HOURLY INCREMENTAL PRECIPITATION VALUES (IN):0.00 0.00 0.00 0.00 0.00 0.00 0.00 0.00 0.11 0.02 0.01 0.01T    T     0.00 0.00 0.00 0.00 0.00 0.00 0.00 0.00 0.00 0.00","SOD  ","6",,,,,,,,,,,,,,,,,,,,,,,,,"0529","1912",,"2009-07-14"
"72202012839","2020-06-09T00:53:00","FM-15","7",,,,,,,,,,,,,,,,,,,,,,,,,,,,,,,,,,,,,,"29.98","78","81","0.00",,"+0.02","8","91","29.98","FEW:02 28 BKN:07 85 BKN:07 220","29.95","10.00","79","120",,"5",,,,,,,,,,,,,,,,,,,,,,,,,,,,,,,,,,,,,"MET13206/09/20 00:53:02 METAR KMIA 090553Z 12004KT 10SM FEW028 BKN085 BKN220 27/26 A2998 RMK AO2 SLP151 T02720256 10289 20272 58006 $ (AM)","FM-15","7",,,,,,,,,,,,,,,,,,,,,,,,,,,,"2009-07-14"
"72202012839","2020-06-09T01:00:00","FM-12","4",,,,,,,,,,,,,,,,,,,,,,,,,,,,,,,,,,,,,,,"78","81",,,"+0.02","8","91","29.98","26","29.95","9.94","79","120",,"5",,,,,,,,,,,,,,,,,,,,,,,,,,,,,,,,,,,,,"SYN08072202 32566 61204 10272 20256 30142 40151 58006 90553 333 10289 20272 555 90906=","FM-12","4",,,,,,,,,,,,,,,,,,,,,,,,,,,,"2009-07-14"
"72202012839","2020-06-09T01:53:00","FM-15","7",,,,,,,,,,,,,,,,,,,,,,,,,,,,,,,,,,,,,,"29.96","77","81","0.00",,,,"88","29.96","FEW:02 27 SCT:04 85 BKN:07 220","29.93","10.00","78","110",,"3",,,,,,,,,,,,,,,,,,,,,,,,,,,,,,,,,,,,,"MET11406/09/20 01:53:02 METAR KMIA 090653Z 11003KT 10SM FEW027 SCT085 BKN220 27/25 A2996 RMK AO2 SLP146 T02720250 $ (AM)","FM-15","7",,,,,,,,,,,,,,,,,,,,,,,,,,,,"2009-07-14"
"72202012839","2020-06-09T02:53:00","FM-15","7",,,,,,,,,,,,,,,,,,,,,,,,,,,,,,,,,,,,,,"29.95","76","80","0.00",,,,"87","29.95","FEW:02 27 FEW:02 250","29.92","10.00","77","110",,"5",,,,,,,,,,,,,,,,,,,,,,,,,,,,,,,,,,,,,"MET10706/09/20 02:53:02 METAR KMIA 090753Z 11004KT 10SM FEW027 FEW250 27/24 A2995 RMK AO2 SLP141 T02670244 $ (AM)","FM-15","7",,,,,,,,,,,,,,,,,,,,,,,,,,,,"2009-07-14"
"72202012839","2020-06-09T03:53:00","FM-15","7",,,,,,,,,,,,,,,,,,,,,,,,,,,,,,,,,,,,,,"29.95","76","80","0.00",,"+0.03","5","87","29.95","FEW:02 27 FEW:02 110 SCT:04 250","29.92","10.00","77","100",,"5",,,,,,,,,,,,,,,,,,,,,,,,,,,,,,,,,,,,,"MET12006/09/20 03:53:02 METAR KMIA 090853Z 10004KT 10SM FEW027 FEW110 SCT250 27/24 A2995 RMK AO2 SLP142 T02670244 55009 $ (AM)","FM-15","7",,,,,,,,,,,,,,,,,,,,,,,,,,,,"2009-07-14"
"72202012839","2020-06-09T04:00:00","FM-12","4",,,,,,,,,,,,,,,,,,,,,,,,,,,,,,,,,,,,,,,"76","80",,,"+0.03","5","87","29.95","26","29.92","9.94","77","100",,"5",,,,,,,,,,,,,,,,,,,,,,,,,,,,,,,,,,,,,"SYN06472202 32566 41004 10267 20244 30132 40142 55009 90853 555 90909=","FM-12","4",,,,,,,,,,,,,,,,,,,,,,,,,,,,"2009-07-14"
"72202012839","2020-06-09T04:53:00","FM-15","7",,,,,,,,,,,,,,,,,,,,,,,,,,,,,,,,,,,,,,"29.96","76","80","0.00",,,,"87","29.96","FEW:02 27 FEW:02 50 BKN:07 120","29.93","10.00","77","100",,"6",,,,,,,,,,,,,,,,,,,,,,,,,,,,,,,,,,,,,"MET11406/09/20 04:53:02 METAR KMIA 090953Z 10005KT 10SM FEW027 FEW050 BKN120 27/24 A2996 RMK AO2 SLP146 T02670244 $ (AM)","FM-15","7",,,,,,,,,,,,,,,,,,,,,,,,,,,,"2009-07-14"
"72202012839","2020-06-09T05:53:00","FM-15","7",,,,,,,,,,,,,,,,,,,,,,,,,,,,,,,,,,,,,,"29.97","77","80","0.00",,,,"90","29.97","FEW:02 25 FEW:02 120 BKN:07 230","29.94","10.00","78","120",,"5",,,,,,,,,,,,,,,,,,,,,,,,,,,,,,,,,,,,,"MET11506/09/20 05:53:02 METAR KMIA 091053Z 12004KT 10SM FEW025 FEW120 BKN230 27/25 A2997 RMK AO2 SLP149 T02670250 $ (RLW)","FM-15","7",,,,,,,,,,,,,,,,,,,,,,,,,,,,"2009-07-14"
"72202012839","2020-06-09T06:53:00","FM-15","7",,,,,,,,,,,,,,,,,,,,,,,,,,,,,,,,,,,,,,"29.98","76","82","0.00",,"-0.03","3","82","29.98","FEW:02 25 BKN:07 220","29.95","10.00","78","120",,"5",,,,,,,,,,,,,,,,,,,,,,,,,,,,,,,,,,,,,"MET13206/09/20 06:53:02 METAR KMIA 091153Z 12004KT 10SM FEW025 BKN220 28/24 A2998 RMK AO2 SLP153 70015 T02780244 10278 20261 53010 $ (RLW)","FM-15","7",,,,,,,,,,,,,,,,,,,,,,,,,,,,"2009-07-14"
"72202012839","2020-06-09T07:00:00","FM-12","4",,,,,,,,,,,,,,,,,,,,,,,,,,,,,,,,,,,,,,,"76","82",,,"-0.03","3","82","29.98","26","29.95","9.94","78","120",,"5",,,,,,,,,,,,,,,,,,,,,,,,,,,,,,,,,,,,,"SYN08672202 32566 61204 10278 20244 30142 40153 53010 91153 333 10311 20261 70038 555 90912=","FM-12","4",,,,,,,,,,,,,,,,,,,,,,,,,,,,"2009-07-14"
"72202012839","2020-06-09T07:53:00","FM-15","7",,,,,,,,,,,,,,,,,,,,,,,,,,,,,,,,,,,,,,"29.99","77","85","0.00",,,,"77","29.99","FEW:02 17 SCT:04 220","29.96","10.00","79","130",,"11",,,,,,,,,,,,,,,,,,,,,,,,,,,,,,,,,,,,,"MET10606/09/20 07:53:02 METAR KMIA 091253Z 13010KT 10SM FEW017 SCT220 29/25 A2999 RMK AO2 SLP156 T02940250 (RLW)","FM-15","7",,,,,,,,,,,,,,,,,,,,,,,,,,,,"2009-07-14"
"72202012839","2020-06-09T08:53:00","FM-15","7",,,,,,,,,,,,,,,,,,,,,,,,,,,,,,,,,,,,,,"29.99","76","86","0.00",,,,"72","29.99","FEW:02 20 SCT:04 220","29.96","10.00","79","130",,"11",,,,,,,,,,,,,,,,,,,,,,,,,,,,,,,,,,,,,"MET10606/09/20 08:53:02 METAR KMIA 091353Z 13010KT 10SM FEW020 SCT220 30/24 A2999 RMK AO2 SLP156 T03000244 (RLW)","FM-15","7",,,,,,,,,,,,,,,,,,,,,,,,,,,,"2009-07-14"
"72202012839","2020-06-09T09:53:00","FM-15","7",,,,,,,,,,,,,,,,,,,,,,,,,,,,,,,,,,,,,,"30.00","76","88","0.00",,"-0.01","1","68","29.99","SCT:04 24 SCT:04 220","29.97","10.00","79","120",,"11",,,,,,,,,,,,,,,,,,,,,,,,,,,,,,,,,,,,,"MET11206/09/20 09:53:02 METAR KMIA 091453Z 12010KT 10SM SCT024 SCT220 31/24 A3000 RMK AO2 SLP157 T03110244 51004 (RLW)","FM-15","7",,,,,,,,,,,,,,,,,,,,,,,,,,,,"2009-07-14"
"72202012839","2020-06-09T10:00:00","FM-12","4",,,,,,,,,,,,,,,,,,,,,,,,,,,,,,,,,,,,,,,"76","88",,,"-0.01","1","68","29.99","26","29.97","9.94","79","120",,"11",,,,,,,,,,,,,,,,,,,,,,,,,,,,,,,,,,,,,"SYN06472202 32566 41210 10311 20244 30149 40157 51004 91453 555 90915=","FM-12","4",,,,,,,,,,,,,,,,,,,,,,,,,,,,"2009-07-14"
"72202012839","2020-06-09T10:53:00","FM-15","7",,,,,,,,,,,,,,,,,,,,,,,,,,,,,,,,,,,,,,"30.00","76","88","0.00",,,,"68","30.00","SCT:04 25 SCT:04 220","29.97","10.00","79","120",,"10",,,,,,,,,,,,,,,,,,,,,,,,,,,,,,,,,,,,,"MET10606/09/20 10:53:02 METAR KMIA 091553Z 12009KT 10SM SCT025 SCT220 31/24 A3000 RMK AO2 SLP158 T03110244 (RLW)","FM-15","7",,,,,,,,,,,,,,,,,,,,,,,,,,,,"2009-07-14"
"72202012839","2020-06-09T11:53:00","FM-15","7",,,,,,,,,,,,,,,,,,,,,,,,,,,,,,,,,,,,,,"30.00","75","89","0.00",,,,"63","29.99","SCT:04 26 SCT:04 230","29.97","10.00","79","140",,"8",,,,,,,,,,,,,,,,,,,,,,,,,,,,,,,,,,,,,"MET10606/09/20 11:53:02 METAR KMIA 091653Z 14007KT 10SM SCT026 SCT230 32/24 A3000 RMK AO2 SLP157 T03170239 (RLW)","FM-15","7",,,,,,,,,,,,,,,,,,,,,,,,,,,,"2009-07-14"
"72202012839","2020-06-09T12:53:00","FM-15","7",,,,,,,,,,,,,,,,,,,,,,,,,,,,,,,,,,,,,,"30.00","75","89","0.00",,"-0.00","1","63","29.99","SCT:04 30 SCT:04 230","29.97","10.00","79","090",,"9",,,,,,,,,,,,,,,,,,,,,,,,,,,,,,,,,,,,,"MET12406/09/20 12:53:02 METAR KMIA 091753Z 09008KT 10SM SCT030 SCT230 32/24 A3000 RMK AO2 SLP157 T03170239 10322 20278 51000 (RLW)","FM-15","7",,,,,,,,,,,,,,,,,,,,,,,,,,,,"2009-07-14"
"72202012839","2020-06-09T13:00:00","FM-12","4",,,,,,,,,,,,,,,,,,,,,,,,,,,,,,,,,,,,,,,"75","89",,,"0.00","4","63","29.99","26","29.97","9.94","79","090",,"9",,,,,,,,,,,,,,,,,,,,,,,,,,,,,,,,,,,,,"SYN08072202 32566 40908 10317 20239 30149 40157 51000 91753 333 10322 20278 555 90918=","FM-12","4",,,,,,,,,,,,,,,,,,,,,,,,,,,,"2009-07-14"
"72202012839","2020-06-09T13:53:00","FM-15","7",,,,,,,,,,,,,,,,,,,,,,,,,,,,,,,,,,,,,,"29.98","74","90","0.00",,,,"59","29.98","SCT:04 33 SCT:04 120 BKN:07 250","29.95","10.00","79","110",,"11",,,,,,,,,,,,,,,,,,,,,,,,,,,,,,,,,,,,,"MET11306/09/20 13:53:02 METAR KMIA 091853Z 11010KT 10SM SCT033 SCT120 BKN250 32/23 A2998 RMK AO2 SLP151 T03220233 (RDR)","FM-15","7",,,,,,,,,,,,,,,,,,,,,,,,,,,,"2009-07-14"
"72202012839","2020-06-09T14:53:00","FM-15","7",,,,,,,,,,,,,,,,,,,,,,,,,,,,,,,,,,,,,,"29.97","73","90","0.00",,,,"58","29.96","FEW:02 40 SCT:04 120 BKN:07 250","29.94","10.00","78","150",,"8",,,,,,,,,,,,,,,,,,,,,,,,,,,,,,,,,,,,,"MET11306/09/20 14:53:02 METAR KMIA 091953Z 15007KT 10SM FEW040 SCT120 BKN250 32/23 A2997 RMK AO2 SLP147 T03220228 (RDR)","FM-15","7",,,,,,,,,,,,,,,,,,,,,,,,,,,,"2009-07-14"
"72202012839","2020-06-09T15:53:00","FM-15","7",,,,,,,,,,,,,,,,,,,,,,,,,,,,,,,,,,,,,,"29.95","75","89","0.00",,"+0.05","6","63","29.95","FEW:02 40 SCT:04 120 BKN:07 250","29.92","10.00","79","150",,"8",,,,,,,,,,,,,,,,,,,,,,,,,,,,,,,,,,,,,"MET13006/09/20 15:53:02 METAR KMIA 092053Z 15007KT 10SM FEW040 SCT120 BKN250 32/24 A2995 RMK AO2 SLP141 CB DSNT NW T03170239 56016 (RDR)","FM-15","7",,,,,,,,,,,,,,,,,,,,,,,,,,,,"2009-07-14"
"72202012839","2020-06-09T16:00:00","FM-12","4",,,,,,,,,,,,,,,,,,,,,,,,,,,,,,,,,,,,,,,"75","89",,,"+0.05","6","63","29.95","41","29.92","9.94","79","150",,"8",,,,,,,,,,,,,,,,,,,,,,,,,,,,,,,,,,,,,"SYN06472202 32666 61507 10317 20239 30132 40141 56016 92053 555 90921=","FM-12","4",,,,,,,,,,,,,,,,,,,,,,,,,,,,"2009-07-14"
"72202012839","2020-06-09T16:53:00","FM-15","7",,,,,,,,,,,,,,,,,,,,,,,,,,,,,,,,,,,,,,"29.94","76","88","0.00",,,,"68","29.94","FEW:02 40 FEW:02 120 BKN:07 250","29.91","10.00","79","140",,"9",,,,,,,,,,,,,,,,,,,,,,,,,,,,,,,,,,,,,"MET12606/09/20 16:53:02 METAR KMIA 092153Z 14008KT 10SM FEW040 FEW120 BKN250 31/24 A2994 RMK AO2 SLP138 CB DSNT SW-W T03110244 (RDR)","FM-15","7",,,,,,,,,,,,,,,,,,,,,,,,,,,,"2009-07-14"
"72202012839","2020-06-09T17:53:00","FM-15","7",,,,,,,,,,,,,,,,,,,,,,,,,,,,,,,,,,,,,,"29.95","75","86","0.00",,,,"70","29.95","FEW:02 32 FEW:02 120 SCT:04 250","29.92","10.00","78","150",,"9",,,,,,,,,,,,,,,,,,,,,,,,,,,,,,,,,,,,,"MET13206/09/20 17:53:02 METAR KMIA 092253Z 15008KT 10SM FEW032 FEW120 SCT250 30/24 A2995 RMK AO2 SLP141 CB DSNT N AND SW-W T03000239 (RDR)","FM-15","7",,,,,,,,,,,,,,,,,,,,,,,,,,,,"2009-07-14"
"72202012839","2020-06-09T18:53:00","FM-15","7",,,,,,,,,,,,,,,,,,,,,,,,,,,,,,,,,,,,,,"29.97","76","84","0.00",,"-0.02","3","77","29.97","FEW:02 30 FEW:02 80 FEW:02 120","29.94","10.00","78","100",,"8",,,,,,,,,,,,,,,,,,,,,,,,,,,,,,,,,,,,,"MET14106/09/20 18:53:02 METAR KMIA 092353Z 10007KT 10SM FEW030 FEW080 FEW120 29/24 A2997 RMK AO2 SLP149 CB DSNT W T02890244 10328 20289 53007 (RDR)","FM-15","7",,,,,,,,,,,,,,,,,,,,,,,,,,,,"2009-07-14"
"72202012839","2020-06-09T19:00:00","FM-12","4",,,,,,,,,,,,,,,,,,,,,,,,,,,,,,,,,,,,,,,"76","84",,,"-0.02","3","77","29.97","26","29.94","9.94","78","100",,"8",,,,,,,,,,,,,,,,,,,,,,,,,,,,,,,,,,,,,"SYN08072202 32566 61007 10289 20244 30139 40149 53007 92353 333 10328 20261 555 91000=","FM-12","4",,,,,,,,,,,,,,,,,,,,,,,,,,,,"2009-07-14"
"72202012839","2020-06-09T19:53:00","FM-15","7",,,,,,,,,,,,,,,,,,,,,,,,,,,,,,,,,,,,,,"29.98","75","84","0.00",,,,"74","29.98","FEW:02 25 FEW:02 80 FEW:02 120","29.95","10.00","78","110",,"7",,,,,,,,,,,,,,,,,,,,,,,,,,,,,,,,,,,,,"MET13706/09/20 19:53:01 METAR KMIA 100053Z 11006KT 10SM FEW025 FEW080 FEW120 29/24 A2998 RMK AO2 SLP153 OCNL LTGIC DSNT NW CB DSNT NW T02890239","FM-15","7",,,,,,,,,,,,,,,,,,,,,,,,,,,,"2009-07-14"
"72202012839","2020-06-09T20:53:00","FM-15","7",,,,,,,,,,,,,,,,,,,,,,,,,,,,,,,,,,,,,,"30.00","76","83","0.00",,,,"79","30.00","FEW:02 16 OVC:08 220","29.97","10.00","78","100",,"7",,,,,,,,,,,,,,,,,,,,,,,,,,,,,,,,,,,,,"MET10006/09/20 20:53:01 METAR KMIA 100153Z 10006KT 10SM FEW016 OVC220 28/24 A3000 RMK AO2 SLP158 T02830244","FM-15","7",,,,,,,,,,,,,,,,,,,,,,,,,,,,"2009-07-14"
"72202012839","2020-06-09T21:53:00","FM-15","7",,,,,,,,,,,,,,,,,,,,,,,,,,,,,,,,,,,,,,"30.02","75","83","0.00",,"-0.05","3","77","30.02","BKN:07 60 BKN:07 200","29.99","10.00","77","120",,"8",,,,,,,,,,,,,,,,,,,,,,,,,,,,,,,,,,,,,"MET10606/09/20 21:53:01 METAR KMIA 100253Z 12007KT 10SM BKN060 BKN200 28/24 A3002 RMK AO2 SLP166 T02830239 53018","FM-15","7",,,,,,,,,,,,,,,,,,,,,,,,,,,,"2009-07-14"
"72202012839","2020-06-09T22:00:00","FM-12","4",,,,,,,,,,,,,,,,,,,,,,,,,,,,,,,,,,,,,,,"75","83",,,"-0.05","3","77","30.02","57","29.99","9.94","77","120",,"8",,,,,,,,,,,,,,,,,,,,,,,,,,,,,,,,,,,,,"SYN06472202 32766 61207 10283 20239 30156 40166 53018 90253 555 91003=","FM-12","4",,,,,,,,,,,,,,,,,,,,,,,,,,,,"2009-07-14"
"72202012839","2020-06-09T22:53:00","FM-15","7",,,,,,,,,,,,,,,,,,,,,,,,,,,,,,,,,,,,,,"30.02","75","83","0.00",,,,"77","30.02","FEW:02 55 BKN:07 70 BKN:07 200","29.99","10.00","77","110",,"7",,,,,,,,,,,,,,,,,,,,,,,,,,,,,,,,,,,,,"MET10706/09/20 22:53:01 METAR KMIA 100353Z 11006KT 10SM FEW055 BKN070 BKN200 28/24 A3002 RMK AO2 SLP166 T02830239","FM-15","7",,,,,,,,,,,,,,,,,,,,,,,,,,,,"2009-07-14"
"72202012839","2020-06-09T23:53:00","FM-15","7",,,,,,,,,,,,,,,,,,,,,,,,,,,,,,,,,,,,,,"30.01","74","83","0.00",,,,"74","30.01","FEW:02 30 BKN:07 70 BKN:07 200","29.98","10.00","77","120",,"5",,,,,,,,,,,,,,,,,,,,,,,,,,,,,,,,,,,,,"MET11706/09/20 23:53:01 METAR KMIA 100453Z 12004KT 10SM FEW030 BKN070 BKN200 28/23 A3001 RMK AO2 SLP162 T02830233 403280261","FM-15","7",,,,,,,,,,,,,,,,,,,,,,,,,,,,"2009-07-14"
"72202012839","2020-06-09T23:59:00","SOD  ","6",,,,,,,,,,,,,,,"76","85","74","29.98","29.95","78","7.6","20","2.5","0","91","79","150","19","0.00",,,"130","14",,,,,,,,,,,,,,,,,,,,,,,,,,,,,,,,,,,,,,,,,,,,,,,,,,,,,,,,,"SOD73924 HR PRECIPITATION (IN): 0.00 SNOW DEPTH (IN):0     24 HR SNOWFALL (IN):0.0  24 HR MAX TEMP (F): 9124 HR MIN TEMP (F): 79AVERAGE STATION PRESSURE:29.945 MINIMUM SEA LEVEL PRESSURE:29.94 TIME OF OCCURRENCE:1738 PEAK WIND SPEED (MPH): 19 PEAK WIND DIR (DEG):150 PEAK WIND TIME (LST):      FASTEST 2MIN SPEED (MPH): 14FASTEST 2MIN DIR (DEG):130 FASTEST 2MIN TIME (LST):     AVERAGE WIND SPEED (MPH): 7.6 24 HR AVG TEMP (F): 85DEPART FROM NORMAL:  3  HEATING DEGREE DAYS:  0 COOLING DEGREE DAYS: 20 LATEST DAY MAX TEMP (0700-1900 LST):91  LATEST NIGHT MIN TEMP(1900-0800 LST):79 HOURLY INCREMENTAL PRECIPITATION VALUES (IN):.00 0.00 0.00 0.00 0.00 0.00 0.00 0.00 0.00 0.00 0.00 0.00 0.00 0.00 0.00 0.00 0.00 0.00 0.00 0.00 0.00 0.00 0.00 0.00","SOD  ","6",,,,,,,,,,,,,,,,,,,,,,,,,"0529","1912",,"2009-07-14"
"72202012839","2020-06-10T00:53:00","FM-15","7",,,,,,,,,,,,,,,,,,,,,,,,,,,,,,,,,,,,,,"29.99","75","82","0.00",,"+0.04","8","79","29.98","FEW:02 30 FEW:02 70 SCT:04 200","29.96","10.00","77","100",,"5",,,,,,,,,,,,,,,,,,,,,,,,,,,,,,,,,,,,,"MET13006/10/20 00:53:02 METAR KMIA 100553Z 10004KT 10SM FEW030 FEW070 SCT200 28/24 A2999 RMK AO2 SLP154 T02780239 10289 20272 58013 (AM)","FM-15","7",,,,,,,,,,,,,,,,,,,,,,,,,,,,"2009-07-14"
"72202012839","2020-06-10T01:00:00","FM-12","4",,,,,,,,,,,,,,,,,,,,,,,,,,,,,,,,,,,,,,,"75","82",,,"+0.04","8","79","29.98","26","29.96","9.94","77","100",,"5",,,,,,,,,,,,,,,,,,,,,,,,,,,,,,,,,,,,,"SYN08072202 32566 41004 10278 20239 30146 40154 58013 90553 333 10289 20261 555 91006=","FM-12","4",,,,,,,,,,,,,,,,,,,,,,,,,,,,"2009-07-14"
"72202012839","2020-06-10T01:53:00","FM-15","7",,,,,,,,,,,,,,,,,,,,,,,,,,,,,,,,,,,,,,"29.97","76","82","0.00",,,,"82","29.97","FEW:02 30 SCT:04 70 BKN:07 90","29.94","10.00","78","100",,"6",,,,,,,,,,,,,,,,,,,,,,,,,,,,,,,,,,,,,"MET11206/10/20 01:53:02 METAR KMIA 100653Z 10005KT 10SM FEW030 SCT070 BKN090 28/24 A2997 RMK AO2 SLP149 T02780244 (AM)","FM-15","7",,,,,,,,,,,,,,,,,,,,,,,,,,,,"2009-07-14"
"72202012839","2020-06-10T02:53:00","FM-15","7",,,,,,,,,,,,,,,,,,,,,,,,,,,,,,,,,,,,,,"29.97","76","82","0.00",,,,"82","29.97","FEW:02 20 SCT:04 55 BKN:07 90","29.94","10.00","78","030",,"3",,,,,,,,,,,,,,,,,,,,,,,,,,,,,,,,,,,,,"MET11206/10/20 02:53:02 METAR KMIA 100753Z 03003KT 10SM FEW020 SCT055 BKN090 28/24 A2997 RMK AO2 SLP150 T02780244 (AM)","FM-15","7",,,,,,,,,,,,,,,,,,,,,,,,,,,,"2009-07-14"
"72202012839","2020-06-10T03:53:00","FM-15","7",,,,,,,,,,,,,,,,,,,,,,,,,,,,,,,,,,,,,,"29.97","76","82","0.00",,"+0.01","5","82","29.97","FEW:02 20 SCT:04 80 SCT:04 200","29.94","10.00","78","030",,"5",,,,,,,,,,,,,,,,,,,,,,,,,,,,,,,,,,,,,"MET11806/10/20 03:53:02 METAR KMIA 100853Z 03004KT 10SM FEW020 SCT080 SCT200 28/24 A2997 RMK AO2 SLP150 T02780244 55004 (AM)","FM-15","7",,,,,,,,,,,,,,,,,,,,,,,,,,,,"2009-07-14"
"72202012839","2020-06-10T04:00:00","FM-12","4",,,,,,,,,,,,,,,,,,,,,,,,,,,,,,,,,,,,,,,"76","82",,,"+0.01","5","82","29.97","26","29.94","9.94","78","030",,"5",,,,,,,,,,,,,,,,,,,,,,,,,,,,,,,,,,,,,"SYN06472202 32566 40304 10278 20244 30139 40150 55004 90853 555 91009=","FM-12","4",,,,,,,,,,,,,,,,,,,,,,,,,,,,"2009-07-14"
"72202012839","2020-06-10T04:53:00","FM-15","7",,,,,,,,,,,,,,,,,,,,,,,,,,,,,,,,,,,,,,"29.98","76","81","0.00",,,,"85","29.98","FEW:02 20 BKN:07 80 BKN:07 200","29.95","10.00","77","040",,"3",,,,,,,,,,,,,,,,,,,,,,,,,,,,,,,,,,,,,"MET11206/10/20 04:53:02 METAR KMIA 100953Z 04003KT 10SM FEW020 BKN080 BKN200 27/24 A2998 RMK AO2 SLP152 T02720244 (AM)","FM-15","7",,,,,,,,,,,,,,,,,,,,,,,,,,,,"2009-07-14"
"72202012839","2020-06-10T05:53:00","FM-15","7",,,,,,,,,,,,,,,,,,,,,,,,,,,,,,,,,,,,,,"29.99","76","82","0.00",,,,"82","29.99","FEW:02 20 FEW:02 80 BKN:07 210","29.96","10.00","78","050",,"5",,,,,,,,,,,,,,,,,,,,,,,,,,,,,,,,,,,,,"MET11306/10/20 05:53:02 METAR KMIA 101053Z 05004KT 10SM FEW020 FEW080 BKN210 28/24 A2999 RMK AO2 SLP157 T02780244 (RLW)","FM-15","7",,,,,,,,,,,,,,,,,,,,,,,,,,,,"2009-07-14"
"72202012839","2020-06-10T06:53:00","FM-15","7",,,,,,,,,,,,,,,,,,,,,,,,,,,,,,,,,,,,,,"30.00","76","84","0.00",,"-0.03","3","77","30.00","FEW:02 18 FEW:02 80 BKN:07 210","29.97","10.00","78","050",,"6",,,,,,,,,,,,,,,,,,,,,,,,,,,,,,,,,,,,,"MET13106/10/20 06:53:02 METAR KMIA 101153Z 05005KT 10SM FEW018 FEW080 BKN210 29/24 A3000 RMK AO2 SLP160 T02890244 10289 20272 53010 (RLW)","FM-15","7",,,,,,,,,,,,,,,,,,,,,,,,,,,,"2009-07-14"
"72202012839","2020-06-10T07:00:00","FM-12","4",,,,,,,,,,,,,,,,,,,,,,,,,,,,,,,,,,,,,,,"76","84",,,"-0.03","3","77","30.00","15","29.97","9.94","78","050",,"6",,,,,,,,,,,,,,,,,,,,,,,,,,,,,,,,,,,,,"SYN08072202 32466 60505 10289 20244 30149 40160 53010 91153 333 10328 20272 555 91012=","FM-12","4",,,,,,,,,,,,,,,,,,,,,,,,,,,,"2009-07-14"
"72202012839","2020-06-10T07:53:00","FM-15","7",,,,,,,,,,,,,,,,,,,,,,,,,,,,,,,,,,,,,,"30.02","73","86","0.00",,,,"65","30.02","SCT:04 24 SCT:04 210","29.99","10.00","77","100",,"9",,,,,,,,,,,,,,,,,,,,,,,,,,,,,,,,,,,,,"MET10606/10/20 07:53:02 METAR KMIA 101253Z 10008KT 10SM SCT024 SCT210 30/23 A3002 RMK AO2 SLP165 T03000228 (RLW)","FM-15","7",,,,,,,,,,,,,,,,,,,,,,,,,,,,"2009-07-14"
"72202012839","2020-06-10T08:53:00","FM-15","7",,,,,,,,,,,,,,,,,,,,,,,,,,,,,,,,,,,,,,"30.03","73","86","0.00",,,,"65","30.03","FEW:02 28 SCT:04 210","30.00","10.00","77","120",,"7",,,,,,,,,,,,,,,,,,,,,,,,,,,,,,,,,,,,,"MET10606/10/20 08:53:02 METAR KMIA 101353Z 12006KT 10SM FEW028 SCT210 30/23 A3003 RMK AO2 SLP169 T03000228 (RLW)","FM-15","7",,,,,,,,,,,,,,,,,,,,,,,,,,,,"2009-07-14"
"72202012839","2020-06-10T09:53:00","FM-15","7",,,,,,,,,,,,,,,,,,,,,,,,,,,,,,,,,,,,,,"30.03","72","88","0.00",,"-0.03","1","59","30.03","FEW:02 33 FEW:02 210","30.00","10.00","77","110",,"9",,,,,,,,,,,,,,,,,,,,,,,,,,,,,,,,,,,,,"MET11206/10/20 09:53:02 METAR KMIA 101453Z 11008KT 10SM FEW033 FEW210 31/22 A3003 RMK AO2 SLP170 T03110222 51010 (RLW)","FM-15","7",,,,,,,,,,,,,,,,,,,,,,,,,,,,"2009-07-14"
"72202012839","2020-06-10T10:00:00","FM-12","4",,,,,,,,,,,,,,,,,,,,,,,,,,,,,,,,,,,,,,,"72","88",,,"-0.03","1","59","30.03","26","30.00","9.94","77","110",,"9",,,,,,,,,,,,,,,,,,,,,,,,,,,,,,,,,,,,,"SYN06472202 32566 21108 10311 20222 30159 40170 51010 91453 555 91015=","FM-12","4",,,,,,,,,,,,,,,,,,,,,,,,,,,,"2009-07-14"
"72202012839","2020-06-10T10:53:00","FM-15","7",,,,,,,,,,,,,,,,,,,,,,,,,,,,,,,,,,,,,,"30.03","72","89","0.00",,,,"57","30.03","SCT:04 38 SCT:04 210","30.00","10.00","77","VRB",,"10",,,,,,,,,,,,,,,,,,,,,,,,,,,,,,,,,,,,,"MET10606/10/20 10:53:02 METAR KMIA 101553Z 11009KT 10SM SCT038 SCT210 32/22 A3003 RMK AO2 SLP170 T03170222 (RLW)","FM-15","7",,,,,,,,,,,,,,,,,,,,,,,,,,,,"2009-07-14"
"72202012839","2020-06-10T11:53:00","FM-15","7",,,,,,,,,,,,,,,,,,,,,,,,,,,,,,,,,,,,,,"30.03","72","89","0.00",,,,"57","30.03","SCT:04 36 SCT:04 250","30.00","10.00","77","120",,"10",,,,,,,,,,,,,,,,,,,,,,,,,,,,,,,,,,,,,"MET10606/10/20 11:53:02 METAR KMIA 101653Z 12009KT 10SM SCT036 SCT250 32/22 A3003 RMK AO2 SLP170 T03170222 (RLW)","FM-15","7",,,,,,,,,,,,,,,,,,,,,,,,,,,,"2009-07-14"
"72202012839","2020-06-10T12:53:00","FM-15","7",,,,,,,,,,,,,,,,,,,,,,,,,,,,,,,,,,,,,,"30.02","72","90","0.00",,"+0.01","8","56","30.02","FEW:02 38 FEW:02 190 SCT:04 250","29.99","10.00","77","120","16","7",,,,,,,,,,,,,,,,,,,,,,,,,,,,,,,,,,,,,"MET13406/10/20 12:53:02 METAR KMIA 101753Z 12006G14KT 10SM FEW038 FEW190 SCT250 32/22 A3002 RMK AO2 SLP166 T03220222 10328 20289 58004 (RLW)","FM-15","7",,,,,,,,,,,,,,,,,,,,,,,,,,,,"2009-07-14"
"72202012839","2020-06-10T13:00:00","FM-12","4",,,,,,,,,,,,,,,,,,,,,,,,,,,,,,,,,,,,,,,"72","90",,,"+0.01","8","56","30.02","41","29.99","9.94","77","120",,"7",,,,,,,,,,,,,,,,,,,,,,,,,,,,,,,,,,,,,"SYN08672202 32666 41206 10322 20222 30156 40166 58004 91753 333 10328 20289 91014 555 91018=","FM-12","4",,,,,,,,,,,,,,,,,,,,,,,,,,,,"2009-07-14"
"72202012839","2020-06-10T13:53:00","FM-15","7",,,,,,,,,,,,,,,,,,,,,,,,,,,,,,,,,,,,,,"30.01","71","90","0.00",,,,"54","30.01","FEW:02 44 FEW:02 180 SCT:04 250","29.98","10.00","77","130",,"11",,,,,,,,,,,,,,,,,,,,,,,,,,,,,,,,,,,,,"MET12406/10/20 13:53:02 METAR KMIA 101853Z 13010KT 10SM FEW044 FEW180 SCT250 32/22 A3001 RMK AO2 SLP163 CB DSNT NW T03220217 (RDR)","FM-15","7",,,,,,,,,,,,,,,,,,,,,,,,,,,,"2009-07-14"
"72202012839","2020-06-10T14:53:00","FM-15","7",,,,,,,,,,,,,,,,,,,,,,,,,,,,,,,,,,,,,,"30.01","73","91","0.00",,,,"56","30.01","SCT:04 37 SCT:04 110 SCT:04 250","29.98","10.00","78","120",,"9",,,,,,,,,,,,,,,,,,,,,,,,,,,,,,,,,,,,,"MET13106/10/20 14:53:02 METAR KMIA 101953Z 12008KT 10SM SCT037 SCT110 SCT250 33/23 A3001 RMK AO2 SLP162 CB DSNT SW AND NW T03280228 (RDR)","FM-15","7",,,,,,,,,,,,,,,,,,,,,,,,,,,,"2009-07-14"
"72202012839","2020-06-10T15:53:00","FM-15","7",,,,,,,,,,,,,,,,,,,,,,,,,,,,,,,,,,,,,,"30.01","73","89","0.00",,"+0.01","6","59","30.01","SCT:04 37 SCT:04 110 SCT:04 250","29.98","10.00","78","120",,"9",,,,,,,,,,,,,,,,,,,,,,,,,,,,,,,,,,,,,"MET14506/10/20 15:53:02 METAR KMIA 102053Z 12008KT 10SM SCT037 SCT110 SCT250 32/23 A3001 RMK AO2 LTG DSNT NW SLP162 CB DSNT SW-NW T03170228 56004 (RDR)","FM-15","7",,,,,,,,,,,,,,,,,,,,,,,,,,,,"2009-07-14"
"72202012839","2020-06-10T16:00:00","FM-12","4",,,,,,,,,,,,,,,,,,,,,,,,,,,,,,,,,,,,,,,"73","89",,,"+0.01","6","59","30.01","41","29.98","9.94","78","120",,"9",,,,,,,,,,,,,,,,,,,,,,,,,,,,,,,,,,,,,"SYN06472202 32666 41208 10317 20228 30152 40162 56004 92053 555 91021=","FM-12","4",,,,,,,,,,,,,,,,,,,,,,,,,,,,"2009-07-14"
"72202012839","2020-06-10T16:53:00","FM-15","7",,,,,,,,,,,,,,,,,,,,,,,,,,,,,,,,,,,,,,"30.01","73","87","0.00",,,,"63","30.01","FEW:02 37 BKN:07 150 BKN:07 250","29.98","10.00","77","120",,"8",,,,,,,,,,,,,,,,,,,,,,,,,,,,,,,,,,,,,"MET12706/10/20 16:53:02 METAR KMIA 102153Z 12007KT 10SM FEW037 BKN150 BKN250 31/23 A3001 RMK AO2 SLP162 CB DSNT SW-NW T03060228 (RDR)","FM-15","7",,,,,,,,,,,,,,,,,,,,,,,,,,,,"2009-07-14"
"72202012839","2020-06-10T17:53:00","FM-15","7",,,,,,,,,,,,,,,,,,,,,,,,,,,,,,,,,,,,,,"30.00","74","86","0.00",,,,"67","30.00","FEW:02 32 SCT:04 120 BKN:07 130","29.97","10.00","78","130",,"10",,,,,,,,,,,,,,,,,,,,,,,,,,,,,,,,,,,,,"MET12606/10/20 17:53:02 METAR KMIA 102253Z 13009KT 10SM FEW032 SCT120 BKN130 30/23 A3000 RMK AO2 SLP159 CB DSNT W-NW T03000233 (RDR)","FM-15","7",,,,,,,,,,,,,,,,,,,,,,,,,,,,"2009-07-14"
"72202012839","2020-06-10T18:53:00","FM-15","7",,,,,,,,,,,,,,,,,,,,,,,,,,,,,,,,,,,,,,"30.02","74","85","0.00",,"-0.01","3","70","30.02","FEW:02 30 SCT:04 130 BKN:07 250","29.99","10.00","77","110",,"8",,,,,,,,,,,,,,,,,,,,,,,,,,,,,,,,,,,,,"MET14906/10/20 18:53:02 METAR KMIA 102353Z 11007KT 10SM FEW030 SCT130 BKN250 29/23 A3002 RMK AO2 SLP166 CB DSNT NE MOV SW T02940233 10328 20289 53005 (RDR)","FM-15","7",,,,,,,,,,,,,,,,,,,,,,,,,,,,"2009-07-14"
"72202012839","2020-06-10T19:00:00","FM-12","4",,,,,,,,,,,,,,,,,,,,,,,,,,,,,,,,,,,,,,,"74","85",,,"-0.01","3","70","30.02","26","29.99","9.94","77","110",,"8",,,,,,,,,,,,,,,,,,,,,,,,,,,,,,,,,,,,,"SYN08072202 32566 61107 10294 20233 30156 40166 53005 92353 333 10328 20272 555 91100=","FM-12","4",,,,,,,,,,,,,,,,,,,,,,,,,,,,"2009-07-14"
"72202012839","2020-06-10T19:53:00","FM-15","7",,,,,,,,,,,,,,,,,,,,,,,,,,,,,,,,,,,,,,"30.04","75","84","0.00",,,,"74","30.03","SCT:04 26 BKN:07 130 BKN:07 250","30.01","10.00","78","130",,"7",,,,,,,,,,,,,,,,,,,,,,,,,,,,,,,,,,,,,"MET14406/10/20 19:53:01 METAR KMIA 110053Z 13006KT 10SM SCT026 BKN130 BKN250 29/24 A3004 RMK AO2 SLP171 OCNL LTGIC DSNT NW CB DSNT NE AND NW T02890239","FM-15","7",,,,,,,,,,,,,,,,,,,,,,,,,,,,"2009-07-14"
"72202012839","2020-06-10T20:53:00","FM-15","7",,,,,,,,,,,,,,,,,,,,,,,,,,,,,,,,,,,,,,"30.05","74","84","0.00",,,,"72","30.05","SCT:04 25 SCT:04 110 SCT:04 250","30.02","10.00","77","VRB",,"3",,,,,,,,,,,,,,,,,,,,,,,,,,,,,,,,,,,,,"MET14706/10/20 20:53:01 METAR KMIA 110153Z VRB03KT 10SM SCT025 SCT110 SCT250 29/23 A3005 RMK AO2 LTG DSNT NE SLP176 OCNL LTGIC DSNT N CB DSNT N T02890233","FM-15","7",,,,,,,,,,,,,,,,,,,,,,,,,,,,"2009-07-14"
"72202012839","2020-06-10T21:53:00","FM-15","7",,,,,,,,,,,,,,,,,,,,,,,,,,,,,,,,,,,,,,"30.06","75","84","0.00",,"-0.04","2","74","30.06","SCT:04 25 BKN:07 110 BKN:07 250","30.03","10.00","78","030",,"5",,,,,,,,,,,,,,,,,,,,,,,,,,,,,,,,,,,,,"MET15606/10/20 21:53:01 METAR KMIA 110253Z 03004KT 10SM SCT025 BKN110 BKN250 29/24 A3006 RMK AO2 LTG DSNT NE SLP181 FRQ LTGICCC DSNT NE CB DSNT NE T02890239 52014","FM-15","7",,,,,,,,,,,,,,,,,,,,,,,,,,,,"2009-07-14"
"72202012839","2020-06-10T22:00:00","FM-12","4",,,,,,,,,,,,,,,,,,,,,,,,,,,,,,,,,,,,,,,"75","84",,,"-0.04","2","74","30.06","26","30.03","9.94","78","030",,"5",,,,,,,,,,,,,,,,,,,,,,,,,,,,,,,,,,,,,"SYN06472202 32566 60304 10289 20239 30169 40181 52014 90253 555 91103=","FM-12","4",,,,,,,,,,,,,,,,,,,,,,,,,,,,"2009-07-14"
"72202012839","2020-06-10T22:37:00","FM-16","7",,,,,,,,,,,,,,,,,,,,,,,,,,,,,,,,,,,,,,"30.06","77","83",,"|TS |",,,"82",,"FEW:02 25 BKN:07 60","30.03","10.00","79","020",,"5",,,,,,,,,,,,,,,,,,,,,,,,,,,,,,,,,,,,,"MET15206/10/20 22:37:01 SPECI KMIA 110337Z 02004KT 10SM TS FEW025CB BKN060 BKN1 28/25 A3006 RMK AO2 LTG DSNT E TSB37 FRQ LTGICCG SE-S TS SE-S MOV SW T02830250","FM-16","7",,,,,,,,,,,,,,,,,,,,,,,,,,,,"2009-07-14"
"72202012839","2020-06-10T22:53:00","FM-15","7",,,,,,,,,,,,,,,,,,,,,,,,,,,,,,,,,,,,,,"30.06","75","83","0.00","|TS |",,,"77","30.06","SCT:04 25 BKN:07 65","30.03","10.00","77","040",,"6",,,,,,,,,,,,,,,,,,,,,,,,,,,,,,,,,,,,,"MET19506/10/20 22:53:01 METAR KMIA 110353Z 04005KT 10SM TS SCT025CB BKN065 BKN1 28/24 A3006 RMK AO2 LTG DSNT E TSB37 SLP179 FRQ LTGICCG SE-S AND DSNT E-SE TS SE-S MOV SW CB DSNT E-SE MOV SW T02830239 $","FM-15","7",,,,,,,,,,,,,,,,,,,,,,,,,,,,"2009-07-14"
"72202012839","2020-06-10T23:34:00","FM-16","7",,,,,,,,,,,,,,,,,,,,,,,,,,,,,,,,,,,,,,"30.05","72","82",,,,,"72",,"FEW:02 20 SCT:04 50 BKN:07 120","30.02","10.00","75","140",,"5",,,,,,,,,,,,,,,,,,,,,,,,,,,,,,,,,,,,,"MET18406/10/20 23:34:01 SPECI KMIA 110434Z 14004KT 10SM FEW020 SCT050 BKN120 28/22 A3005 RMK AO2 LTG DSNT SE AND S TSE01B02E34 OCNL LTGICCC NE AND S-SW CB DSNT NE AND S-SW MOV SW T02780222 $","FM-16","7",,,,,,,,,,,,,,,,,,,,,,,,,,,,"2009-07-14"
"72202012839","2020-06-10T23:49:00","FM-16","7",,,,,,,,,,,,,,,,,,,,,,,,,,,,,,,,,,,,,,"30.05","70","81",,,,,"70",,"FEW:02 20 BKN:07 25 BKN:07 250","30.02","10.00","74","150",,"6",,,,,,,,,,,,,,,,,,,,,,,,,,,,,,,,,,,,,"MET11606/10/20 23:49:01 SPECI KMIA 110449Z 15005KT 10SM FEW020 BKN025 BKN250 27/21 A3005 RMK AO2 LTG DSNT SW TSE01B02E34 $","FM-16","7",,,,,,,,,,,,,,,,,,,,,,,,,,,,"2009-07-14"
"72202012839","2020-06-10T23:53:00","FM-15","7",,,,,,,,,,,,,,,,,,,,,,,,,,,,,,,,,,,,,,"30.05","70","80","0.00",,,,"71","30.05","FEW:02 20 BKN:07 25 BKN:07 250","30.02","10.00","73","150",,"6",,,,,,,,,,,,,,,,,,,,,,,,,,,,,,,,,,,,,"MET14306/10/20 23:53:01 METAR KMIA 110453Z 15005KT 10SM FEW020 BKN025 BKN250 27/21 A3005 RMK AO2 LTG DSNT SW TSE01B02E34 SLP177 T02670211 403280267 $","FM-15","7",,,,,,,,,,,,,,,,,,,,,,,,,,,,"2009-07-14"
"72202012839","2020-06-10T23:59:00","SOD  ","6",,,,,,,,,,,,,,,"74","86","69","30.01","29.97","77","7.0","21","3.5","0","91","80","130","19","0.00",,,"120","13","TS",,,,,,,,,,,,,,,,,,,,,,,,,,,,,,,,,,,,,,,,,,,,,,,,,,,,,,,,"SOD75624 HR PRECIPITATION (IN): 0.00 SNOW DEPTH (IN):0     24 HR SNOWFALL (IN):0.0  WEATHER(CODE):3  24 HR MAX TEMP (F): 9124 HR MIN TEMP (F): 80AVERAGE STATION PRESSURE:29.970 MINIMUM SEA LEVEL PRESSURE:29.97 TIME OF OCCURRENCE:0446 PEAK WIND SPEED (MPH): 19 PEAK WIND DIR (DEG):130 PEAK WIND TIME (LST):      FASTEST 2MIN SPEED (MPH): 13FASTEST 2MIN DIR (DEG):120 FASTEST 2MIN TIME (LST):     AVERAGE WIND SPEED (MPH): 7.0 24 HR AVG TEMP (F): 86DEPART FROM NORMAL:  4  HEATING DEGREE DAYS:  0 COOLING DEGREE DAYS: 21 LATEST DAY MAX TEMP (0700-1900 LST):91  LATEST NIGHT MIN TEMP(1900-0800 LST):81 HOURLY INCREMENTAL PRECIPITATION VALUES (IN):.00 0.00 0.00 0.00 0.00 0.00 0.00 0.00 0.00 0.00 0.00 0.00 0.00 0.00 0.00 0.00 0.00 0.00 0.00 0.00 0.00 0.00 0.00 0.00","SOD  ","6",,,,,,,,,,,,,,,,,,,,,,,,,"0529","1913",,"2009-07-14"
"72202012839","2020-06-11T00:08:00","FM-16","7",,,,,,,,,,,,,,,,,,,,,,,,,,,,,,,,,,,,,,"30.05","72","79",,,,,"79",,"FEW:02 22 FEW:02 50 BKN:07 95","30.02","10.00","74","180",,"5",,,,,,,,,,,,,,,,,,,,,,,,,,,,,,,,,,,,,"MET10706/11/20 00:08:02 SPECI KMIA 110508Z 18004KT 10SM FEW022 FEW050 BKN095 26/22 A3005 RMK AO2 T02610222 $ (AM)","FM-16","7",,,,,,,,,,,,,,,,,,,,,,,,,,,,"2009-07-14"
"72202012839","2020-06-11T00:53:00","FM-15","7",,,,,,,,,,,,,,,,,,,,,,,,,,,,,,,,,,,,,,"30.03","73","81","0.00",,"+0.04","8","77","30.03","FEW:02 22 SCT:04 80 BKN:07 120","30.00","10.00","75","000",,"0",,,,,,,,,,,,,,,,,,,,,,,,,,,,,,,,,,,,,"MET13206/11/20 00:53:02 METAR KMIA 110553Z 00000KT 10SM FEW022 SCT080 BKN120 27/23 A3003 RMK AO2 SLP168 T02720228 10294 20261 58013 $ (AM)","FM-15","7",,,,,,,,,,,,,,,,,,,,,,,,,,,,"2009-07-14"
"72202012839","2020-06-11T01:00:00","FM-12","4",,,,,,,,,,,,,,,,,,,,,,,,,,,,,,,,,,,,,,,"73","81",,,"+0.04","8","77","30.03","26","30.00","9.94","75","000",,"0",,,,,,,,,,,,,,,,,,,,,,,,,,,,,,,,,,,,,"SYN08072202 32566 60000 10272 20228 30159 40168 58013 90553 333 10294 20261 555 91106=","FM-12","4",,,,,,,,,,,,,,,,,,,,,,,,,,,,"2009-07-14"
"72202012839","2020-06-11T01:53:00","FM-15","7",,,,,,,,,,,,,,,,,,,,,,,,,,,,,,,,,,,,,,"30.01","72","81","0.00",,,,"74","30.01","FEW:02 21 FEW:02 42 FEW:02 110","29.98","10.00","75","040",,"7",,,,,,,,,,,,,,,,,,,,,,,,,,,,,,,,,,,,,"MET14606/11/20 01:53:02 METAR KMIA 110653Z 04006KT 10SM FEW021 FEW042 FEW110 27/22 A3001 RMK AO2 SLP162 OCNL LTGICCC DSNT SE CB DSNT SE T02720222 $ (AM)","FM-15","7",,,,,,,,,,,,,,,,,,,,,,,,,,,,"2009-07-14"
"72202012839","2020-06-11T02:53:00","FM-15","7",,,,,,,,,,,,,,,,,,,,,,,,,,,,,,,,,,,,,,"30.00","72","79","0.00",,,,"79","30.00","FEW:02 20 SCT:04 60 SCT:04 250","29.97","10.00","74","000",,"0",,,,,,,,,,,,,,,,,,,,,,,,,,,,,,,,,,,,,"MET11406/11/20 02:53:02 METAR KMIA 110753Z 00000KT 10SM FEW020 SCT060 SCT250 26/22 A3000 RMK AO2 SLP159 T02610222 $ (AM)","FM-15","7",,,,,,,,,,,,,,,,,,,,,,,,,,,,"2009-07-14"
"72202012839","2020-06-11T03:53:00","FM-15","7",,,,,,,,,,,,,,,,,,,,,,,,,,,,,,,,,,,,,,"30.00","73","80","0.00",,"+0.03","6","79","30.00","FEW:02 20 FEW:02 40 SCT:04 75","29.97","10.00","75","020",,"3",,,,,,,,,,,,,,,,,,,,,,,,,,,,,,,,,,,,,"MET12006/11/20 03:53:02 METAR KMIA 110853Z 02003KT 10SM FEW020 FEW040 SCT075 27/23 A3000 RMK AO2 SLP159 T02670228 56009 $ (AM)","FM-15","7",,,,,,,,,,,,,,,,,,,,,,,,,,,,"2009-07-14"
"72202012839","2020-06-11T04:00:00","FM-12","4",,,,,,,,,,,,,,,,,,,,,,,,,,,,,,,,,,,,,,,"73","80",,,"+0.03","6","79","30.00","26","29.97","9.94","75","020",,"3",,,,,,,,,,,,,,,,,,,,,,,,,,,,,,,,,,,,,"SYN06472202 32566 40203 10267 20228 30149 40159 56009 90853 555 91109=","FM-12","4",,,,,,,,,,,,,,,,,,,,,,,,,,,,"2009-07-14"
"72202012839","2020-06-11T04:53:00","FM-15","7",,,,,,,,,,,,,,,,,,,,,,,,,,,,,,,,,,,,,,"30.02","74","81","0.00",,,,"79","30.01","FEW:02 18 FEW:02 40 FEW:02 250","29.99","10.00","76","110",,"9",,,,,,,,,,,,,,,,,,,,,,,,,,,,,,,,,,,,,"MET11406/11/20 04:53:02 METAR KMIA 110953Z 11008KT 10SM FEW018 FEW040 FEW250 27/23 A3002 RMK AO2 SLP164 T02720233 $ (AM)","FM-15","7",,,,,,,,,,,,,,,,,,,,,,,,,,,,"2009-07-14"
"72202012839","2020-06-11T05:53:00","FM-15","7",,,,,,,,,,,,,,,,,,,,,,,,,,,,,,,,,,,,,,"30.05","75","81","0.00",,,,"82","30.05","FEW:02 18 FEW:02 70 FEW:02 250","30.02","10.00","77","100",,"6",,,,,,,,,,,,,,,,,,,,,,,,,,,,,,,,,,,,,"MET12706/11/20 05:53:02 METAR KMIA 111053Z 10005KT 10SM FEW018 FEW070 FEW250 27/24 A3005 RMK AO2 LTG DSNT SW SLP175 T02720239 $ (RLW)","FM-15","7",,,,,,,,,,,,,,,,,,,,,,,,,,,,"2009-07-14"
"72202012839","2020-06-11T06:44:00","FM-16","7",,,,,,,,,,,,,,,,,,,,,,,,,,,,,,,,,,,,,,"30.06","76","81","T","-RA:02 |RA |RA",,,"85",,"BKN:07 18","30.03","7.00","77",,,,,,,,,,,,,,,,,,,,,,,,,,,,,,,,,,,,,,,,"MET12606/11/20 06:44:02 SPECI KMIA 111144Z      KT 7SM R09/3500VP6000FT -RA BKN018 27/24 A3006 RMK AO2 RAB44 P0000 T02720244 $ (RLW)","FM-16","7",,,,,,,,,,,,,,,,,,,,,,,,,,,,"2009-07-14"
"72202012839","2020-06-11T06:48:00","FM-16","7",,,,,,,,,,,,,,,,,,,,,,,,,,,,,,,,,,,,,,"30.06","75","79","T","+RA:02 BR:1 |RA |RA",,,"89",,"BKN:07 18","30.03","1.50","76","VRB",,"6",,,,,,,,,,,,,,,,,,,,,,,,,,,,,,,,,,,,,"MET12306/11/20 06:48:02 SPECI KMIA 111148Z VRB05KT 1 1/2SM R09/3000VP6000FT +RA BR BKN018 26/24 A3006 RMK AO2 RAB44 P0000 $ (RLW)","FM-16","7",,,,,,,,,,,,,,,,,,,,,,,,,,,,"2009-07-14"
"72202012839","2020-06-11T06:51:00","FM-16","7",,,,,,,,,,,,,,,,,,,,,,,,,,,,,,,,,,,,,,"30.06","75","79","0.11","+RA:02 BR:1 |RA |RA",,,"89",,"BKN:07 18","30.03","3.00","76","VRB",,"6",,,,,,,,,,,,,,,,,,,,,,,,,,,,,,,,,,,,,"MET14206/11/20 06:51:02 SPECI KMIA 111151Z VRB05KT 3SM R09/3000VP6000FT +RA BR BKN018CB 26/24 A3006 RMK AO2 RAB44 CB OHD-SW-NW-N MOV W P0011 $ (RLW)","FM-16","7",,,,,,,,,,,,,,,,,,,,,,,,,,,,"2009-07-14"
"72202012839","2020-06-11T06:53:00","FM-15","7",,,,,,,,,,,,,,,,,,,,,,,,,,,,,,,,,,,,,,"30.06","75","78","0.13s","+RA:02 BR:1 |RA |RA","-0.06","1","90","30.06","BKN:07 18 BKN:07 40","30.03","4.00","76","110",,"7",,,,,,,,,,,,,,,,,,,,,,,,,,,,,,,,,,,,,"MET19606/11/20 06:53:02 METAR KMIA 111153Z 11006KT 4SM R09/3000VP6000FT +RA BR BKN018CB BKN040 26/24 A3006 RMK AO2 RAB44 SLP178 CB OHD-SW-NW-N MOV W P0012 60012 70012 T02560239 10278 20256 51019 $ (RLW)","FM-15","7",,,,,,,,,,,,,,,,,,,,,,,,,,,,"2009-07-14"
"72202012839","2020-06-11T07:00:00","FM-12","4",,,,,,,,,,,,,,,,,,,,,,,,,,,,,,,,,,,,,,,"75","78",,"||RA","-0.06","1","90","30.06","15","30.03","3.73","76","110",,"7",,,,,,,,,,,,,,,,,,,,,,,,,,,,,,,,,,,,,"SYN10472202 11456 61106 10256 20239 30169 40178 51019 60031 765// 91153 333 10328 20256 70030 96010 555 91112=","FM-12","4",,,,,,,,,,,,,,,,,,,,,,,,,,,,"2009-07-14"
"72202012839","2020-06-11T07:15:00","FM-16","7",,,,,,,,,,,,,,,,,,,,,,,,,,,,,,,,,,,,,,"30.07","75","79","0.04","VCTS:7 BR:1 ||",,,"88",,"BKN:07 20 BKN:07 30 OVC:08 55","30.04","6.00","76","290",,"3",,,,,,,,,,,,,,,,,,,,,,,,,,,,,,,,,,,,,"MET14406/11/20 07:15:02 SPECI KMIA 111215Z 29003KT 6SM VCTS BR BKN020CB BKN030 OVC055 26/24 A3007 RMK AO2 RAEMM CB S-W-N MOV W P0004 T02610239 $ (RLW)","FM-16","7",,,,,,,,,,,,,,,,,,,,,,,,,,,,"2009-07-14"
"72202012839","2020-06-11T07:37:00","FM-16","6",,,,,,,,,,,,,,,,,,,,,,,,,,,,,,,,,,,,,,"30.08","76","79",,,,,"90",,"BKN:07 18 BKN:07 27 OVC:08 50","30.05","10.00","77","VRB",,"5",,,,,,,,,,,,,,,,,,,,,,,,,,,,,,,,,,,,,"MET14206/11/20 07:37:02 SPECI KMIA 111237Z VRB04KT 10SM BKN018CB BKN027 OVC050 26/24 A3008 RMK AO2 RAEMMB23E34 CB W-NW MOV W P0004 T02610244 $ (RLW)","FM-16","6",,,,,,,,,,,,,,,,,,,,,,,,,,,,"2009-07-14"
"72202012839","2020-06-11T07:53:00","FM-15","7",,,,,,,,,,,,,,,,,,,,,,,,,,,,,,,,,,,,,,"30.07","76","80","0.05",,,,"87","30.07","BKN:07 20 BKN:07 27 OVC:08 60","30.04","10.00","77","000",,"0",,,,,,,,,,,,,,,,,,,,,,,,,,,,,,,,,,,,,"MET16606/11/20 07:53:02 METAR KMIA 111253Z 00000KT 10SM BKN020CB BKN027 OVC060 27/24 A3007 RMK AO2 LTG DSNT S AND W RAEMMB23E49 SLP183 CB W-NW MOV W P0004 T02670244 $ (RLW)","FM-15","7",,,,,,,,,,,,,,,,,,,,,,,,,,,,"2009-07-14"
"72202012839","2020-06-11T07:58:00","FM-16","7",,,,,,,,,,,,,,,,,,,,,,,,,,,,,,,,,,,,,,"30.07","76","79","0.01","VCTS:7 +RA:02 BR:1 |RA |RA",,,"90",,"SCT:04 20 BKN:07 65 BKN:07 250","30.04","6.00","77","000",,"0",,,,,,,,,,,,,,,,,,,,,,,,,,,,,,,,,,,,,"MET16406/11/20 07:58:02 SPECI KMIA 111258Z 00000KT 6SM VCTS +RA BR SCT020CB BKN065 BKN250 26/24 A3007 RMK AO2 LTG DSNT S AND W RAB54 CB W-NW MOV W P0001 T02610244 $ (RLW)","FM-16","7",,,,,,,,,,,,,,,,,,,,,,,,,,,,"2009-07-14"
"72202012839","2020-06-11T08:08:00","FM-16","7",,,,,,,,,,,,,,,,,,,,,,,,,,,,,,,,,,,,,,"30.07","77","80","0.05","|RA |RA",,,"90",,"BKN:07 20 BKN:07 30 BKN:07 50","30.04","7.00","78","280",,"3",,,,,,,,,,,,,,,,,,,,,,,,,,,,,,,,,,,,,"MET16106/11/20 08:08:02 SPECI KMIA 111308Z 28003KT 7SM VCTS -RA BKN020 BKN030 BKN050 27/25 A3007 RMK AO2 LTG DSNT W RAB1254 CB DSNT SW-NW MOV W P0005 T02670250 $ (RLW)","FM-16","7",,,,,,,,,,,,,,,,,,,,,,,,,,,,"2009-07-14"
"72202012839","2020-06-11T08:15:00","FM-16","7",,,,,,,,,,,,,,,,,,,,,,,,,,,,,,,,,,,,,,"30.07","77","80","0.05",,,,"90",,"BKN:07 20 BKN:07 40 BKN:07 250","30.04","10.00","78","VRB",,"3",,,,,,,,,,,,,,,,,,,,,,,,,,,,,,,,,,,,,"MET15606/11/20 08:15:02 SPECI KMIA 111315Z VRB03KT 10SM BKN020 BKN040 BKN250 27/25 A3007 RMK AO2 LTG DSNT W RAB1254E13 CB DSNT SW-NW MOV W P0005 T02670250 $ (RLW)","FM-16","7",,,,,,,,,,,,,,,,,,,,,,,,,,,,"2009-07-14"
"72202012839","2020-06-11T08:34:00","FM-16","7",,,,,,,,,,,,,,,,,,,,,,,,,,,,,,,,,,,,,,"30.07","77","79","0.05",,,,"94",,"SCT:04 22 BKN:07 30 BKN:07 250","30.04","10.00","78","000",,"0",,,,,,,,,,,,,,,,,,,,,,,,,,,,,,,,,,,,,"MET16106/11/20 08:34:02 SPECI KMIA 111334Z 00000KT 10SM SCT022 BKN030 BKN250 26/25 A3007 RMK AO2 LTG DSNT W RAB1254E13 CB DSNT SE-SW-NW-N MOV W P0005 T02610250 $ (RLW)","FM-16","7",,,,,,,,,,,,,,,,,,,,,,,,,,,,"2009-07-14"
"72202012839","2020-06-11T08:53:00","FM-15","7",,,,,,,,,,,,,,,,,,,,,,,,,,,,,,,,,,,,,,"30.07","77","80","0.03",,,,"90","30.07","SCT:04 22 BKN:07 30 BKN:07 250","30.04","10.00","78","000",,"0",,,,,,,,,,,,,,,,,,,,,,,,,,,,,,,,,,,,,"MET17406/11/20 08:53:02 METAR KMIA 111353Z 00000KT 10SM SCT022 BKN030 BKN250 27/25 A3007 RMK AO2 LTG DSNT SW-N RAB1254E13B39E51 SLP182 CB DSNT S-SW-NW MOV W P0005 T02670250 $ (RLW)","FM-15","7",,,,,,,,,,,,,,,,,,,,,,,,,,,,"2009-07-14"
"72202012839","2020-06-11T09:00:00","FM-16","7",,,,,,,,,,,,,,,,,,,,,,,,,,,,,,,,,,,,,,"30.07","76","81",,,,,"85",,"BKN:07 24 BKN:07 29 OVC:08 35","30.04","10.00","77","000",,"0",,,,,,,,,,,,,,,,,,,,,,,,,,,,,,,,,,,,,"MET12206/11/20 09:00:02 SPECI KMIA 111400Z 00000KT 10SM BKN024 BKN029 OVC035 27/24 A3007 RMK AO2 LTG DSNT SW-N T02720244 $ (RLW)","FM-16","7",,,,,,,,,,,,,,,,,,,,,,,,,,,,"2009-07-14"
"72202012839","2020-06-11T09:53:00","FM-15","7",,,,,,,,,,,,,,,,,,,,,,,,,,,,,,,,,,,,,,"30.08","74","85","0.00",,"-0.02","1","70","30.08","BKN:07 24 BKN:07 40 BKN:07 250","30.05","10.00","77","090",,"10",,,,,,,,,,,,,,,,,,,,,,,,,,,,,,,,,,,,,"MET15906/11/20 09:53:02 METAR KMIA 111453Z 09009KT 10SM BKN024 BKN040 BKN250 29/23 A3008 RMK AO2 LTG DSNT NW SLP185 CB DSNT SW-NW MOV W 60009 T02940233 51007 $ (RLW)","FM-15","7",,,,,,,,,,,,,,,,,,,,,,,,,,,,"2009-07-14"
"72202012839","2020-06-11T10:00:00","FM-12","4",,,,,,,,,,,,,,,,,,,,,,,,,,,,,,,,,,,,,,,"74","85",,,"-0.02","1","70","30.08","26","30.05","9.94","77","090",,"10",,,,,,,,,,,,,,,,,,,,,,,,,,,,,,,,,,,,,"SYN07072202 12566 60909 10294 20233 30176 40185 51007 60027 91453 555 91115=","FM-12","4",,,,,,,,,,,,,,,,,,,,,,,,,,,,"2009-07-14"
"72202012839","2020-06-11T10:50:00","FM-16","7",,,,,,,,,,,,,,,,,,,,,,,,,,,,,,,,,,,,,,"30.08","73","88",,,,,"62",,"SCT:04 28 BKN:07 250","30.05","10.00","77","060",,"11",,,,,,,,,,,,,,,,,,,,,,,,,,,,,,,,,,,,,"MET10906/11/20 10:50:02 SPECI KMIA 111550Z 06010KT 10SM SCT028 BKN250 31/23 A3008 RMK AO2 LTG DSNT S AND SW $ (RLW)","FM-16","7",,,,,,,,,,,,,,,,,,,,,,,,,,,,"2009-07-14"
"72202012839","2020-06-11T10:53:00","FM-15","7",,,,,,,,,,,,,,,,,,,,,,,,,,,,,,,,,,,,,,"30.08","74","87","0.00",,,,"65","30.08","SCT:04 28 BKN:07 250","30.05","10.00","78","090",,"11",,,,,,,,,,,,,,,,,,,,,,,,,,,,,,,,,,,,,"MET12606/11/20 10:53:02 METAR KMIA 111553Z 09010KT 10SM SCT028 BKN250 31/23 A3008 RMK AO2 LTG DSNT S AND SW SLP185 T03060233 $ (RLW)","FM-15","7",,,,,,,,,,,,,,,,,,,,,,,,,,,,"2009-07-14"
"72202012839","2020-06-11T11:53:00","FM-15","7",,,,,,,,,,,,,,,,,,,,,,,,,,,,,,,,,,,,,,"30.07","73","87","0.00",,,,"63","30.07","SCT:04 28 BKN:07 40","30.04","10.00","77","070",,"13",,,,,,,,,,,,,,,,,,,,,,,,,,,,,,,,,,,,,"MET13906/11/20 11:53:02 METAR KMIA 111653Z 07011KT 10SM SCT028TCU BKN040 31/23 A3007 RMK AO2 LTG DSNT SW AND W SLP183 TCU SW-NW T03060228 $ (RLW)","FM-15","7",,,,,,,,,,,,,,,,,,,,,,,,,,,,"2009-07-14"
"72202012839","2020-06-11T12:53:00","FM-15","7",,,,,,,,,,,,,,,,,,,,,,,,,,,,,,,,,,,,,,"30.05","72","87","0.00",,"+0.03","8","61","30.05","SCT:04 30 BKN:07 250","30.02","10.00","77","080",,"16",,,,,,,,,,,,,,,,,,,,,,,,,,,,,,,,,,,,,"MET14906/11/20 12:53:02 METAR KMIA 111753Z 08014KT 10SM SCT030 BKN250 31/22 A3005 RMK AO2 SLP177 CB DSNT NW MOV W 60009 T03060222 10311 20256 58009 $ (RLW)","FM-15","7",,,,,,,,,,,,,,,,,,,,,,,,,,,,"2009-07-14"
"72202012839","2020-06-11T13:00:00","FM-12","4",,,,,,,,,,,,,,,,,,,,,,,,,,,,,,,,,,,,,,,"72","87",,,"+0.03","8","61","30.05","26","30.02","9.94","77","080",,"16",,,,,,,,,,,,,,,,,,,,,,,,,,,,,,,,,,,,,"SYN08672202 12566 60814 10306 20222 30166 40177 58009 60021 91753 333 10311 20256 555 91118=","FM-12","4",,,,,,,,,,,,,,,,,,,,,,,,,,,,"2009-07-14"
"72202012839","2020-06-11T13:53:00","FM-15","7",,,,,,,,,,,,,,,,,,,,,,,,,,,,,,,,,,,,,,"30.06","71","87","0.00",,,,"59","30.06","SCT:04 33 BKN:07 250","30.03","10.00","76","070","21","15",,,,,,,,,,,,,,,,,,,,,,,,,,,,,,,,,,,,,"MET11006/11/20 13:53:02 METAR KMIA 111853Z 07013G18KT 10SM SCT033 BKN250 31/22 A3006 RMK AO2 SLP180 T03060217 $ (EM)","FM-15","7",,,,,,,,,,,,,,,,,,,,,,,,,,,,"2009-07-14"
"72202012839","2020-06-11T14:53:00","FM-15","7",,,,,,,,,,,,,,,,,,,,,,,,,,,,,,,,,,,,,,"30.04","70","86","0.00",,,,"59","30.04","SCT:04 35 BKN:07 250","30.01","10.00","75","090","26","14",,,,,,,,,,,,,,,,,,,,,,,,,,,,,,,,,,,,,"MET11006/11/20 14:53:02 METAR KMIA 111953Z 09012G23KT 10SM SCT035 BKN250 30/21 A3004 RMK AO2 SLP172 T03000211 $ (EM)","FM-15","7",,,,,,,,,,,,,,,,,,,,,,,,,,,,"2009-07-14"
"72202012839","2020-06-11T15:53:00","FM-15","7",,,,,,,,,,,,,,,,,,,,,,,,,,,,,,,,,,,,,,"30.03","68","86","0.00",,"+0.02","8","55","30.03","SCT:04 35","30.00","10.00","74","080","22","15",,,,,,,,,,,,,,,,,,,,,,,,,,,,,,,,,,,,,"MET10906/11/20 15:53:02 METAR KMIA 112053Z 08013G19KT 10SM SCT035 30/20 A3003 RMK AO2 SLP168 T03000200 58008 $ (EM)","FM-15","7",,,,,,,,,,,,,,,,,,,,,,,,,,,,"2009-07-14"
"72202012839","2020-06-11T16:00:00","FM-12","4",,,,,,,,,,,,,,,,,,,,,,,,,,,,,,,,,,,,,,,"68","86",,,"+0.02","8","55","30.03","41","30.00","9.94","74","080",,"15",,,,,,,,,,,,,,,,,,,,,,,,,,,,,,,,,,,,,"SYN07472202 32666 40813 10300 20200 30159 40168 58008 92053 333 91019 555 91121=","FM-12","4",,,,,,,,,,,,,,,,,,,,,,,,,,,,"2009-07-14"
"72202012839","2020-06-11T16:53:00","FM-15","7",,,,,,,,,,,,,,,,,,,,,,,,,,,,,,,,,,,,,,"30.02","67","85","0.00",,,,"55","30.02","FEW:02 37","29.99","10.00","73","VRB",,"11",,,,,,,,,,,,,,,,,,,,,,,,,,,,,,,,,,,,,"MET10006/11/20 16:53:02 METAR KMIA 112153Z 07010KT 10SM FEW037 29/19 A3002 RMK AO2 SLP166 T02940194 $ (EM)","FM-15","7",,,,,,,,,,,,,,,,,,,,,,,,,,,,"2009-07-14"
"72202012839","2020-06-11T17:53:00","FM-15","7",,,,,,,,,,,,,,,,,,,,,,,,,,,,,,,,,,,,,,"30.03","66","84","0.00",,,,"55","30.03","FEW:02 35 FEW:02 200","30.00","10.00","72","070",,"10",,,,,,,,,,,,,,,,,,,,,,,,,,,,,,,,,,,,,"MET11706/11/20 17:53:02 METAR KMIA 112253Z 07009KT 10SM FEW035 FEW200 29/19 A3003 RMK AO2 SLP168 CB DSNT W T02890189 $ (EM)","FM-15","7",,,,,,,,,,,,,,,,,,,,,,,,,,,,"2009-07-14"
"72202012839","2020-06-11T18:53:00","FM-15","7",,,,,,,,,,,,,,,,,,,,,,,,,,,,,,,,,,,,,,"30.05","65","82","0.00",,"-0.02","3","56","30.05","FEW:02 35 FEW:02 200","30.02","10.00","71","090",,"10",,,,,,,,,,,,,,,,,,,,,,,,,,,,,,,,,,,,,"MET12506/11/20 18:53:02 METAR KMIA 112353Z 09009KT 10SM FEW035 FEW200 28/18 A3005 RMK AO2 SLP177 T02780183 10311 20278 53008 $ (EM)","FM-15","7",,,,,,,,,,,,,,,,,,,,,,,,,,,,"2009-07-14"
"72202012839","2020-06-11T19:00:00","FM-12","4",,,,,,,,,,,,,,,,,,,,,,,,,,,,,,,,,,,,,,,"65","82",,,"-0.02","3","56","30.05","41","30.02","9.94","71","090",,"10",,,,,,,,,,,,,,,,,,,,,,,,,,,,,,,,,,,,,"SYN08072202 32666 20909 10278 20183 30166 40177 53008 92353 333 10311 20256 555 91200=","FM-12","4",,,,,,,,,,,,,,,,,,,,,,,,,,,,"2009-07-14"
"72202012839","2020-06-11T19:53:00","FM-15","7",,,,,,,,,,,,,,,,,,,,,,,,,,,,,,,,,,,,,,"30.06","67","81","0.00",,,,"62","30.06","FEW:02 35 FEW:02 200","30.03","10.00","72","050",,"8",,,,,,,,,,,,,,,,,,,,,,,,,,,,,,,,,,,,,"MET10206/11/20 19:53:01 METAR KMIA 120053Z 05007KT 10SM FEW035 FEW200 27/19 A3006 RMK AO2 SLP180 T02720194 $","FM-15","7",,,,,,,,,,,,,,,,,,,,,,,,,,,,"2009-07-14"
"72202012839","2020-06-11T20:53:00","FM-15","7",,,,,,,,,,,,,,,,,,,,,,,,,,,,,,,,,,,,,,"30.07","68","81","0.00",,,,"65","30.07","FEW:02 35 FEW:02 200","30.04","10.00","72","070",,"10",,,,,,,,,,,,,,,,,,,,,,,,,,,,,,,,,,,,,"MET10206/11/20 20:53:01 METAR KMIA 120153Z 07009KT 10SM FEW035 FEW200 27/20 A3007 RMK AO2 SLP183 T02720200 $","FM-15","7",,,,,,,,,,,,,,,,,,,,,,,,,,,,"2009-07-14"
"72202012839","2020-06-11T21:53:00","FM-15","7",,,,,,,,,,,,,,,,,,,,,,,,,,,,,,,,,,,,,,"30.07","68","81","0.00",,"-0.02","1","65","30.07","FEW:02 35 FEW:02 200","30.04","10.00","72","070",,"10",,,,,,,,,,,,,,,,,,,,,,,,,,,,,,,,,,,,,"MET10806/11/20 21:53:01 METAR KMIA 120253Z 07009KT 10SM FEW035 FEW200 27/20 A3007 RMK AO2 SLP184 T02720200 51007 $","FM-15","7",,,,,,,,,,,,,,,,,,,,,,,,,,,,"2009-07-14"
"72202012839","2020-06-11T22:00:00","FM-12","4",,,,,,,,,,,,,,,,,,,,,,,,,,,,,,,,,,,,,,,"68","81",,,"-0.02","1","65","30.07","41","30.04","9.94","72","070",,"10",,,,,,,,,,,,,,,,,,,,,,,,,,,,,,,,,,,,,"SYN06472202 32666 20709 10272 20200 30173 40184 51007 90253 555 91203=","FM-12","4",,,,,,,,,,,,,,,,,,,,,,,,,,,,"2009-07-14"
"72202012839","2020-06-11T22:53:00","FM-15","7",,,,,,,,,,,,,,,,,,,,,,,,,,,,,,,,,,,,,,"30.06","69","81","0.00",,,,"67","30.06","SCT:04 32","30.03","10.00","73","080",,"13",,,,,,,,,,,,,,,,,,,,,,,,,,,,,,,,,,,,,"MET09506/11/20 22:53:02 METAR KMIA 120353Z 08011KT 10SM SCT032 27/21 A3006 RMK AO2 SLP180 T02720206 $","FM-15","7",,,,,,,,,,,,,,,,,,,,,,,,,,,,"2009-07-14"
"72202012839","2020-06-11T23:53:00","FM-15","7",,,,,,,,,,,,,,,,,,,,,,,,,,,,,,,,,,,,,,"30.05","67","81","0.00",,,,"62","30.04","FEW:02 35","30.02","10.00","72","080",,"8",,,,,,,,,,,,,,,,,,,,,,,,,,,,,,,,,,,,,"MET10506/11/20 23:53:02 METAR KMIA 120453Z 08007KT 10SM FEW035 27/19 A3005 RMK AO2 SLP174 T02720194 403110256 $","FM-15","7",,,,,,,,,,,,,,,,,,,,,,,,,,,,"2009-07-14"
"72202012839","2020-06-11T23:59:00","SOD  ","6",,,,,,,,,,,,,,,"71","83","69","30.05","30.01","75","8.7","18","0.4","0","88","78","090","26","0.21",,,"080","21","TS RA BR",,,,,,,,,,,,,,,,,,,,,,,,,,,,,,,,,,,,,,,,,,,,,,,,,,,,,,,,"SOD75724 HR PRECIPITATION (IN): 0.21 SNOW DEPTH (IN):0     24 HR SNOWFALL (IN):0.0  WEATHER(CODE):13  24 HR MAX TEMP (F): 8824 HR MIN TEMP (F): 78AVERAGE STATION PRESSURE:30.010 MINIMUM SEA LEVEL PRESSURE:30.00 TIME OF OCCURRENCE:0434 PEAK WIND SPEED (MPH): 26 PEAK WIND DIR (DEG): 90 PEAK WIND TIME (LST):      FASTEST 2MIN SPEED (MPH): 21FASTEST 2MIN DIR (DEG): 80 FASTEST 2MIN TIME (LST):     AVERAGE WIND SPEED (MPH): 8.7 24 HR AVG TEMP (F): 83DEPART FROM NORMAL:  0  HEATING DEGREE DAYS:  0 COOLING DEGREE DAYS: 18 LATEST DAY MAX TEMP (0700-1900 LST):88  LATEST NIGHT MIN TEMP(1900-0800 LST):78 HOURLY INCREMENTAL PRECIPITATION VALUES (IN):.00 0.00 0.00 0.00 0.00 0.00 0.13 0.05 0.03 0.00 0.00 0.00 0.00 0.00 0.00 0.00 0.00 0.00 0.00 0.00 0.00 0.00 0.00 0.00","SOD  ","6",,,,,,,,,,,,,,,,,,,,,,,,,"0529","1913",,"2009-07-14"
"72202012839","2020-06-12T00:53:00","FM-15","7",,,,,,,,,,,,,,,,,,,,,,,,,,,,,,,,,,,,,,"30.03","69","80","0.00",,"+0.04","8","69","30.03","FEW:02 35","30.00","10.00","73","080",,"9",,,,,,,,,,,,,,,,,,,,,,,,,,,,,,,,,,,,,"MET11806/12/20 00:53:02 METAR KMIA 120553Z 08008KT 10SM FEW035 27/21 A3003 RMK AO2 SLP170 T02670206 10278 20267 58014 $ (AM)","FM-15","7",,,,,,,,,,,,,,,,,,,,,,,,,,,,"2009-07-14"
"72202012839","2020-06-12T01:00:00","FM-12","4",,,,,,,,,,,,,,,,,,,,,,,,,,,,,,,,,,,,,,,"69","80",,,"+0.04","8","69","30.03","41","30.00","9.94","73","080",,"9",,,,,,,,,,,,,,,,,,,,,,,,,,,,,,,,,,,,,"SYN08072202 32666 20808 10267 20206 30159 40170 58014 90553 333 10278 20256 555 91206=","FM-12","4",,,,,,,,,,,,,,,,,,,,,,,,,,,,"2009-07-14"
"72202012839","2020-06-12T01:53:00","FM-15","7",,,,,,,,,,,,,,,,,,,,,,,,,,,,,,,,,,,,,,"30.02","68","80","0.00",,,,"67","30.02","FEW:02 34","29.99","10.00","72","070",,"7",,,,,,,,,,,,,,,,,,,,,,,,,,,,,,,,,,,,,"MET10006/12/20 01:53:02 METAR KMIA 120653Z 07006KT 10SM FEW034 27/20 A3002 RMK AO2 SLP165 T02670200 $ (AM)","FM-15","7",,,,,,,,,,,,,,,,,,,,,,,,,,,,"2009-07-14"
"72202012839","2020-06-12T02:53:00","FM-15","7",,,,,,,,,,,,,,,,,,,,,,,,,,,,,,,,,,,,,,"30.00","70","80","0.00",,,,"71","30.00","FEW:02 33","29.97","10.00","73","040",,"5",,,,,,,,,,,,,,,,,,,,,,,,,,,,,,,,,,,,,"MET10006/12/20 02:53:02 METAR KMIA 120753Z 04004KT 10SM FEW033 27/21 A3000 RMK AO2 SLP159 T02670211 $ (AM)","FM-15","7",,,,,,,,,,,,,,,,,,,,,,,,,,,,"2009-07-14"
"72202012839","2020-06-12T03:53:00","FM-15","7",,,,,,,,,,,,,,,,,,,,,,,,,,,,,,,,,,,,,,"30.00","70","80","0.00",,"+0.03","6","71","30.00","FEW:02 33","29.97","10.00","73","050",,"5",,,,,,,,,,,,,,,,,,,,,,,,,,,,,,,,,,,,,"MET10606/12/20 03:53:02 METAR KMIA 120853Z 05004KT 10SM FEW033 27/21 A3000 RMK AO2 SLP159 T02670211 56010 $ (AM)","FM-15","7",,,,,,,,,,,,,,,,,,,,,,,,,,,,"2009-07-14"
"72202012839","2020-06-12T04:00:00","FM-12","4",,,,,,,,,,,,,,,,,,,,,,,,,,,,,,,,,,,,,,,"70","80",,,"+0.03","6","71","30.00","26","29.97","9.94","73","050",,"5",,,,,,,,,,,,,,,,,,,,,,,,,,,,,,,,,,,,,"SYN06472202 32566 20504 10267 20211 30149 40159 56010 90853 555 91209=","FM-12","4",,,,,,,,,,,,,,,,,,,,,,,,,,,,"2009-07-14"
"72202012839","2020-06-12T04:53:00","FM-15","7",,,,,,,,,,,,,,,,,,,,,,,,,,,,,,,,,,,,,,"30.01","70","80","0.00",,,,"71","30.01","FEW:02 30 SCT:04 60 SCT:04 250","29.98","10.00","73","060",,"6",,,,,,,,,,,,,,,,,,,,,,,,,,,,,,,,,,,,,"MET11406/12/20 04:53:02 METAR KMIA 120953Z 06005KT 10SM FEW030 SCT060 SCT250 27/21 A3001 RMK AO2 SLP164 T02670211 $ (AM)","FM-15","7",,,,,,,,,,,,,,,,,,,,,,,,,,,,"2009-07-14"
"72202012839","2020-06-12T05:53:00","FM-15","7",,,,,,,,,,,,,,,,,,,,,,,,,,,,,,,,,,,,,,"30.02","70","80","0.00",,,,"71","30.01","SCT:04 27 SCT:04 60 SCT:04 250","29.99","10.00","73","050",,"5",,,,,,,,,,,,,,,,,,,,,,,,,,,,,,,,,,,,,"MET13406/12/20 05:53:02 METAR KMIA 121053Z 05004KT 10SM SCT027 SCT060 SCT250 27/21 A3002 RMK AO2 SLP164 CB DSNT S-SW MOV W T02670211 $ (RLW)","FM-15","7",,,,,,,,,,,,,,,,,,,,,,,,,,,,"2009-07-14"
"72202012839","2020-06-12T06:53:00","FM-15","7",,,,,,,,,,,,,,,,,,,,,,,,,,,,,,,,,,,,,,"30.02","70","82","0.00",,"-0.02","1","67","30.02","FEW:02 27 FEW:02 60","29.99","10.00","74","060",,"7",,,,,,,,,,,,,,,,,,,,,,,,,,,,,,,,,,,,,"MET13206/12/20 06:53:02 METAR KMIA 121153Z 06006KT 10SM FEW027 FEW060 28/21 A3002 RMK AO2 SLP167 70009 T02780211 10278 20261 51008 $ (RLW)","FM-15","7",,,,,,,,,,,,,,,,,,,,,,,,,,,,"2009-07-14"
"72202012839","2020-06-12T07:00:00","FM-12","4",,,,,,,,,,,,,,,,,,,,,,,,,,,,,,,,,,,,,,,"70","82",,,"-0.02","1","67","30.02","26","29.99","9.94","74","060",,"7",,,,,,,,,,,,,,,,,,,,,,,,,,,,,,,,,,,,,"SYN08672202 32566 20606 10278 20211 30156 40167 51008 91153 333 10311 20261 70023 555 91212=","FM-12","4",,,,,,,,,,,,,,,,,,,,,,,,,,,,"2009-07-14"
"72202012839","2020-06-12T07:53:00","FM-15","7",,,,,,,,,,,,,,,,,,,,,,,,,,,,,,,,,,,,,,"30.03","70","83","0.00",,,,"65","30.03","SCT:04 30 SCT:04 60","30.00","10.00","74","070",,"11",,,,,,,,,,,,,,,,,,,,,,,,,,,,,,,,,,,,,"MET10606/12/20 07:53:02 METAR KMIA 121253Z 07010KT 10SM SCT030 SCT060 28/21 A3003 RMK AO2 SLP168 T02830211 (RLW)","FM-15","7",,,,,,,,,,,,,,,,,,,,,,,,,,,,"2009-07-14"
"72202012839","2020-06-12T08:53:00","FM-15","7",,,,,,,,,,,,,,,,,,,,,,,,,,,,,,,,,,,,,,"30.03","69","83","0.00",,,,"63","30.03","SCT:04 31 SCT:04 60","30.00","10.00","74","090",,"14",,,,,,,,,,,,,,,,,,,,,,,,,,,,,,,,,,,,,"MET10606/12/20 08:53:02 METAR KMIA 121353Z 09012KT 10SM SCT031 SCT060 28/21 A3003 RMK AO2 SLP169 T02830206 (RLW)","FM-15","7",,,,,,,,,,,,,,,,,,,,,,,,,,,,"2009-07-14"
"72202012839","2020-06-12T09:53:00","FM-15","7",,,,,,,,,,,,,,,,,,,,,,,,,,,,,,,,,,,,,,"30.03","71","85","0.00",,"-0.01","2","63","30.03","FEW:02 34 FEW:02 55 BKN:07 70","30.00","10.00","75","050",,"9",,,,,,,,,,,,,,,,,,,,,,,,,,,,,,,,,,,,,"MET11906/12/20 09:53:02 METAR KMIA 121453Z 05008KT 10SM FEW034 FEW055 BKN070 29/22 A3003 RMK AO2 SLP170 T02940217 52003 (RLW)","FM-15","7",,,,,,,,,,,,,,,,,,,,,,,,,,,,"2009-07-14"
"72202012839","2020-06-12T10:00:00","FM-12","4",,,,,,,,,,,,,,,,,,,,,,,,,,,,,,,,,,,,,,,"71","85",,,"-0.01","2","63","30.03","41","30.00","9.94","75","050",,"9",,,,,,,,,,,,,,,,,,,,,,,,,,,,,,,,,,,,,"SYN06472202 32666 60508 10294 20217 30159 40170 52003 91453 555 91215=","FM-12","4",,,,,,,,,,,,,,,,,,,,,,,,,,,,"2009-07-14"
"72202012839","2020-06-12T10:53:00","FM-15","7",,,,,,,,,,,,,,,,,,,,,,,,,,,,,,,,,,,,,,"30.03","68","87","0.00",,,,"53","30.03","FEW:02 33 SCT:04 40 SCT:04 70","30.00","10.00","74","070",,"9",,,,,,,,,,,,,,,,,,,,,,,,,,,,,,,,,,,,,"MET11306/12/20 10:53:02 METAR KMIA 121553Z 07008KT 10SM FEW033 SCT040 SCT070 31/20 A3003 RMK AO2 SLP170 T03060200 (RLW)","FM-15","7",,,,,,,,,,,,,,,,,,,,,,,,,,,,"2009-07-14"
"72202012839","2020-06-12T11:53:00","FM-15","7",,,,,,,,,,,,,,,,,,,,,,,,,,,,,,,,,,,,,,"30.02","69","87","0.00",,,,"55","30.02","SCT:04 34 BKN:07 60","29.99","10.00","75","090","21","10",,,,,,,,,,,,,,,,,,,,,,,,,,,,,,,,,,,,,"MET12806/12/20 11:53:02 METAR KMIA 121653Z 09009G18KT 10SM SCT034 BKN060 31/21 A3002 RMK AO2 SLP167 CB DSNT E-SE MOV W T03060206 (RLW)","FM-15","7",,,,,,,,,,,,,,,,,,,,,,,,,,,,"2009-07-14"
"72202012839","2020-06-12T12:53:00","FM-15","7",,,,,,,,,,,,,,,,,,,,,,,,,,,,,,,,,,,,,,"30.02","68","87","0.00",,"+0.02","8","53","30.01","SCT:04 35 SCT:04 60 BKN:07 70","29.99","10.00","74","060","20","14",,,,,,,,,,,,,,,,,,,,,,,,,,,,,,,,,,,,,"MET15306/12/20 12:53:02 METAR KMIA 121753Z 06012G17KT 10SM SCT035 SCT060 BKN070 31/20 A3002 RMK AO2 SLP164 CB DSNT E-SE MOV W T03060200 10311 20278 58006 (RLW)","FM-15","7",,,,,,,,,,,,,,,,,,,,,,,,,,,,"2009-07-14"
"72202012839","2020-06-12T13:00:00","FM-12","4",,,,,,,,,,,,,,,,,,,,,,,,,,,,,,,,,,,,,,,"68","87",,,"+0.02","8","53","30.01","41","29.99","9.94","74","060",,"14",,,,,,,,,,,,,,,,,,,,,,,,,,,,,,,,,,,,,"SYN08672202 32666 60612 10306 20200 30156 40164 58006 91753 333 10311 20278 91017 555 91218=","FM-12","4",,,,,,,,,,,,,,,,,,,,,,,,,,,,"2009-07-14"
"72202012839","2020-06-12T13:53:00","FM-15","7",,,,,,,,,,,,,,,,,,,,,,,,,,,,,,,,,,,,,,"30.00","75","82","0.01","-RA:02 |RA |RA",,,"79","30.00","SCT:04 23 BKN:07 32 BKN:07 75","29.97","9.00","77","110",,"15",,,,,,,,,,,,,,,,,,,,,,,,,,,,,,,,,,,,,"MET12706/12/20 13:53:02 METAR KMIA 121853Z 11013KT 9SM -RA SCT023 BKN032 BKN075 28/24 A3000 RMK AO2 RAB44 SLP160 P0001 T02780239 (EM)","FM-15","7",,,,,,,,,,,,,,,,,,,,,,,,,,,,"2009-07-14"
"72202012839","2020-06-12T14:53:00","FM-15","7",,,,,,,,,,,,,,,,,,,,,,,,,,,,,,,,,,,,,,"29.98","72","84","T",,,,"67","29.98","SCT:04 27 BKN:07 36 BKN:07 70","29.95","10.00","76","090",,"15",,,,,,,,,,,,,,,,,,,,,,,,,,,,,,,,,,,,,"MET12406/12/20 14:53:02 METAR KMIA 121953Z 09013KT 10SM SCT027 BKN036 BKN070 29/22 A2998 RMK AO2 RAE00 SLP153 P0000 T02890222 (EM)","FM-15","7",,,,,,,,,,,,,,,,,,,,,,,,,,,,"2009-07-14"
"72202012839","2020-06-12T15:53:00","FM-15","7",,,,,,,,,,,,,,,,,,,,,,,,,,,,,,,,,,,,,,"29.97","71","85","0.00",,"+0.05","8","63","29.97","BKN:07 32 OVC:08 80","29.94","10.00","75","090",,"16",,,,,,,,,,,,,,,,,,,,,,,,,,,,,,,,,,,,,"MET11706/12/20 15:53:02 METAR KMIA 122053Z 09014KT 10SM BKN032 OVC080 29/22 A2997 RMK AO2 SLP149 60001 T02940217 58016 (EM)","FM-15","7",,,,,,,,,,,,,,,,,,,,,,,,,,,,"2009-07-14"
"72202012839","2020-06-12T16:00:00","FM-12","4",,,,,,,,,,,,,,,,,,,,,,,,,,,,,,,,,,,,,,,"71","85",,,"+0.05","8","63","29.97","26","29.94","9.94","75","090",,"16",,,,,,,,,,,,,,,,,,,,,,,,,,,,,,,,,,,,,"SYN07072202 12566 80914 10294 20217 30139 40149 58016 69937 92053 555 91221=","FM-12","4",,,,,,,,,,,,,,,,,,,,,,,,,,,,"2009-07-14"
"72202012839","2020-06-12T16:53:00","FM-15","7",,,,,,,,,,,,,,,,,,,,,,,,,,,,,,,,,,,,,,"29.95","70","83","0.00",,,,"65","29.95","FEW:02 27 BKN:07 60 OVC:08 80","29.92","10.00","74","090",,"9",,,,,,,,,,,,,,,,,,,,,,,,,,,,,,,,,,,,,"MET11206/12/20 16:53:02 METAR KMIA 122153Z 09008KT 10SM FEW027 BKN060 OVC080 28/21 A2995 RMK AO2 SLP142 T02830211 (EM)","FM-15","7",,,,,,,,,,,,,,,,,,,,,,,,,,,,"2009-07-14"
"72202012839","2020-06-12T17:53:00","FM-15","7",,,,,,,,,,,,,,,,,,,,,,,,,,,,,,,,,,,,,,"29.95","70","83","0.00",,,,"65","29.95","FEW:02 30 SCT:04 65 OVC:08 80","29.92","10.00","74","100",,"9",,,,,,,,,,,,,,,,,,,,,,,,,,,,,,,,,,,,,"MET11206/12/20 17:53:02 METAR KMIA 122253Z 10008KT 10SM FEW030 SCT065 OVC080 28/21 A2995 RMK AO2 SLP142 T02830211 (EM)","FM-15","7",,,,,,,,,,,,,,,,,,,,,,,,,,,,"2009-07-14"
"72202012839","2020-06-12T18:53:00","FM-15","7",,,,,,,,,,,,,,,,,,,,,,,,,,,,,,,,,,,,,,"29.95","72","82","0.00",,"+0.02","5","72","29.95","FEW:02 29 BKN:07 75","29.92","10.00","75","090",,"9",,,,,,,,,,,,,,,,,,,,,,,,,,,,,,,,,,,,,"MET14706/12/20 18:53:02 METAR KMIA 122353Z 09008KT 10SM FEW029 BKN075 28/22 A2995 RMK AO2 SLP143 CB DSNT NE AND SE 60001 T02780222 10311 20278 55006 (EM)","FM-15","7",,,,,,,,,,,,,,,,,,,,,,,,,,,,"2009-07-14"
"72202012839","2020-06-12T19:00:00","FM-12","4",,,,,,,,,,,,,,,,,,,,,,,,,,,,,,,,,,,,,,,"72","82",,,"+0.02","5","72","29.95","26","29.92","9.94","75","090",,"9",,,,,,,,,,,,,,,,,,,,,,,,,,,,,,,,,,,,,"SYN08672202 12566 60908 10278 20222 30132 40143 55006 69931 92353 333 10311 20261 555 91300=","FM-12","4",,,,,,,,,,,,,,,,,,,,,,,,,,,,"2009-07-14"
"72202012839","2020-06-12T19:53:00","FM-15","7",,,,,,,,,,,,,,,,,,,,,,,,,,,,,,,,,,,,,,"29.96","73","81","0.00",,,,"77","29.96","FEW:02 30 SCT:04 75","29.93","10.00","75","060",,"9",,,,,,,,,,,,,,,,,,,,,,,,,,,,,,,,,,,,,"MET11806/12/20 19:53:01 METAR KMIA 130053Z 06008KT 10SM FEW030 SCT075 27/23 A2996 RMK AO2 SLP147 CB DSNT NW AND SE T02720228","FM-15","7",,,,,,,,,,,,,,,,,,,,,,,,,,,,"2009-07-14"
"72202012839","2020-06-12T20:53:00","FM-15","7",,,,,,,,,,,,,,,,,,,,,,,,,,,,,,,,,,,,,,"29.98","72","79","0.00",,,,"79","29.98","SCT:04 23 BKN:07 60 BKN:07 90","29.95","10.00","74","130",,"11",,,,,,,,,,,,,,,,,,,,,,,,,,,,,,,,,,,,,"MET13006/12/20 20:53:01 METAR KMIA 130153Z 13010KT 10SM SCT023CB BKN060 BKN090 26/22 A2998 RMK AO2 SLP152 CB N-NE AND SW MOV W T02610222","FM-15","7",,,,,,,,,,,,,,,,,,,,,,,,,,,,"2009-07-14"
"72202012839","2020-06-12T21:53:00","FM-15","7",,,,,,,,,,,,,,,,,,,,,,,,,,,,,,,,,,,,,,"29.98","73","81","0.00",,"-0.03","1","77","29.98","FEW:02 25 BKN:07 40 BKN:07 140","29.95","10.00","75","090",,"11",,,,,,,,,,,,,,,,,,,,,,,,,,,,,,,,,,,,,"MET12306/12/20 21:53:01 METAR KMIA 130253Z 09010KT 10SM FEW025 BKN040 BKN140 27/23 A2998 RMK AO2 SLP153 CB MOV NW T02720228 51011","FM-15","7",,,,,,,,,,,,,,,,,,,,,,,,,,,,"2009-07-14"
"72202012839","2020-06-12T22:00:00","FM-12","4",,,,,,,,,,,,,,,,,,,,,,,,,,,,,,,,,,,,,,,"73","81",,,"-0.03","1","77","29.98","26","29.95","9.94","75","090",,"11",,,,,,,,,,,,,,,,,,,,,,,,,,,,,,,,,,,,,"SYN06472202 32566 60910 10272 20228 30142 40153 51011 90253 555 91303=","FM-12","4",,,,,,,,,,,,,,,,,,,,,,,,,,,,"2009-07-14"
"72202012839","2020-06-12T22:53:00","FM-15","7",,,,,,,,,,,,,,,,,,,,,,,,,,,,,,,,,,,,,,"29.97","73","82","0.00",,,,"74","29.97","FEW:02 24 FEW:02 31 SCT:04 140","29.94","10.00","76","090",,"13",,,,,,,,,,,,,,,,,,,,,,,,,,,,,,,,,,,,,"MET10706/12/20 22:53:02 METAR KMIA 130353Z 09011KT 10SM FEW024 FEW031 SCT140 28/23 A2997 RMK AO2 SLP149 T02780228","FM-15","7",,,,,,,,,,,,,,,,,,,,,,,,,,,,"2009-07-14"
"72202012839","2020-06-12T23:53:00","FM-15","7",,,,,,,,,,,,,,,,,,,,,,,,,,,,,,,,,,,,,,"29.96","72","81","0.00",,,,"74","29.96","FEW:02 24 FEW:02 35 FEW:02 60","29.93","10.00","75","090",,"10",,,,,,,,,,,,,,,,,,,,,,,,,,,,,,,,,,,,,"MET11706/12/20 23:53:02 METAR KMIA 130453Z 09009KT 10SM FEW024 FEW035 FEW060 27/22 A2996 RMK AO2 SLP147 T02720222 403110250","FM-15","7",,,,,,,,,,,,,,,,,,,,,,,,,,,,"2009-07-14"
"72202012839","2020-06-12T23:59:00","SOD  ","6",,,,,,,,,,,,,,,"71","83","68","30.00","29.97","74","10.0","18","0.4","0","88","77","080","25","0.01",,,"090","23","RA",,,,,,,,,,,,,,,,,,,,,,,,,,,,,,,,,,,,,,,,,,,,,,,,,,,,,,,,"SOD73924 HR PRECIPITATION (IN): 0.01 SNOW DEPTH (IN):0     24 HR SNOWFALL (IN):0.0  24 HR MAX TEMP (F): 8824 HR MIN TEMP (F): 77AVERAGE STATION PRESSURE:29.970 MINIMUM SEA LEVEL PRESSURE:29.95 TIME OF OCCURRENCE:1906 PEAK WIND SPEED (MPH): 25 PEAK WIND DIR (DEG): 80 PEAK WIND TIME (LST):      FASTEST 2MIN SPEED (MPH): 23FASTEST 2MIN DIR (DEG): 90 FASTEST 2MIN TIME (LST):     AVERAGE WIND SPEED (MPH):10.0 24 HR AVG TEMP (F): 83DEPART FROM NORMAL:  0  HEATING DEGREE DAYS:  0 COOLING DEGREE DAYS: 18 LATEST DAY MAX TEMP (0700-1900 LST):88  LATEST NIGHT MIN TEMP(1900-0800 LST):79 HOURLY INCREMENTAL PRECIPITATION VALUES (IN):.00 0.00 0.00 0.00 0.00 0.00 0.00 0.00 0.00 0.00 0.00 0.00 0.00 0.01 T    0.00 0.00 0.00 0.00 0.00 0.00 0.00 0.00 0.00","SOD  ","6",,,,,,,,,,,,,,,,,,,,,,,,,"0529","1913",,"2009-07-14"
"72202012839","2020-06-13T00:53:00","FM-15","7",,,,,,,,,,,,,,,,,,,,,,,,,,,,,,,,,,,,,,"29.95","70","81","0.00",,"+0.03","8","69","29.95","FEW:02 24 FEW:02 60","29.92","10.00","74","090",,"9",,,,,,,,,,,,,,,,,,,,,,,,,,,,,,,,,,,,,"MET12306/13/20 00:53:02 METAR KMIA 130553Z 09008KT 10SM FEW024 FEW060 27/21 A2995 RMK AO2 SLP142 T02720211 10278 20250 58011 (GR)","FM-15","7",,,,,,,,,,,,,,,,,,,,,,,,,,,,"2009-07-14"
"72202012839","2020-06-13T01:00:00","FM-12","4",,,,,,,,,,,,,,,,,,,,,,,,,,,,,,,,,,,,,,,"70","81",,,"+0.03","8","69","29.95","26","29.92","9.94","74","090",,"9",,,,,,,,,,,,,,,,,,,,,,,,,,,,,,,,,,,,,"SYN08072202 32566 20908 10272 20211 30132 40142 58011 90553 333 10278 20250 555 91306=","FM-12","4",,,,,,,,,,,,,,,,,,,,,,,,,,,,"2009-07-14"
"72202012839","2020-06-13T01:53:00","FM-15","7",,,,,,,,,,,,,,,,,,,,,,,,,,,,,,,,,,,,,,"29.93","73","80","0.00",,,,"79","29.93","FEW:02 23 FEW:02 31","29.90","10.00","75","110",,"10",,,,,,,,,,,,,,,,,,,,,,,,,,,,,,,,,,,,,"MET10506/13/20 01:53:02 METAR KMIA 130653Z 11009KT 10SM FEW023 FEW031 27/23 A2993 RMK AO2 SLP135 T02670228 (GR)","FM-15","7",,,,,,,,,,,,,,,,,,,,,,,,,,,,"2009-07-14"
"72202012839","2020-06-13T02:53:00","FM-15","7",,,,,,,,,,,,,,,,,,,,,,,,,,,,,,,,,,,,,,"29.92","72","80","0.00",,,,"76","29.92","FEW:02 23 SCT:04 250","29.89","10.00","75","090",,"9",,,,,,,,,,,,,,,,,,,,,,,,,,,,,,,,,,,,,"MET10506/13/20 02:53:02 METAR KMIA 130753Z 09008KT 10SM FEW023 SCT250 27/22 A2992 RMK AO2 SLP131 T02670222 (GR)","FM-15","7",,,,,,,,,,,,,,,,,,,,,,,,,,,,"2009-07-14"
"72202012839","2020-06-13T03:53:00","FM-15","7",,,,,,,,,,,,,,,,,,,,,,,,,,,,,,,,,,,,,,"29.92","71","79","0.00",,"+0.04","6","77","29.92","FEW:02 23","29.89","10.00","74","080",,"5",,,,,,,,,,,,,,,,,,,,,,,,,,,,,,,,,,,,,"MET10406/13/20 03:53:02 METAR KMIA 130853Z 08004KT 10SM FEW023 26/22 A2992 RMK AO2 SLP131 T02610217 56012 (GR)","FM-15","7",,,,,,,,,,,,,,,,,,,,,,,,,,,,"2009-07-14"
"72202012839","2020-06-13T04:00:00","FM-12","4",,,,,,,,,,,,,,,,,,,,,,,,,,,,,,,,,,,,,,,"71","79",,,"+0.04","6","77","29.92","26","29.89","9.94","74","080",,"5",,,,,,,,,,,,,,,,,,,,,,,,,,,,,,,,,,,,,"SYN06472202 32566 20804 10261 20217 30122 40131 56012 90853 555 91309=","FM-12","4",,,,,,,,,,,,,,,,,,,,,,,,,,,,"2009-07-14"
"72202012839","2020-06-13T04:53:00","FM-15","7",,,,,,,,,,,,,,,,,,,,,,,,,,,,,,,,,,,,,,"29.93","71","80","0.00",,,,"74","29.93","FEW:02 23 SCT:04 35","29.90","10.00","74","080",,"5",,,,,,,,,,,,,,,,,,,,,,,,,,,,,,,,,,,,,"MET10506/13/20 04:53:02 METAR KMIA 130953Z 08004KT 10SM FEW023 SCT035 27/22 A2993 RMK AO2 SLP134 T02670217 (GR)","FM-15","7",,,,,,,,,,,,,,,,,,,,,,,,,,,,"2009-07-14"
"72202012839","2020-06-13T05:51:00","FM-16","6",,,,,,,,,,,,,,,,,,,,,,,,,,,,,,,,,,,,,,"29.94","72","81",,,,,"74",,"BKN:07 27 BKN:07 38","29.91","10.00","75","080",,"8",,,,,,,,,,,,,,,,,,,,,,,,,,,,,,,,,,,,,"MET10506/13/20 05:51:02 SPECI KMIA 131051Z 08007KT 10SM BKN027 BKN038 27/22 A2994 RMK AO2 MDT CU NE-E FIBI (EM)","FM-16","6",,,,,,,,,,,,,,,,,,,,,,,,,,,,"2009-07-14"
"72202012839","2020-06-13T05:53:00","FM-15","7",,,,,,,,,,,,,,,,,,,,,,,,,,,,,,,,,,,,,,"29.94","72","81","T",,,,"74","29.94","BKN:07 27 BKN:07 38","29.91","10.00","75","060",,"9",,,,,,,,,,,,,,,,,,,,,,,,,,,,,,,,,,,,,"MET11706/13/20 05:53:02 METAR KMIA 131053Z 06008KT 10SM BKN027 BKN038 27/22 A2994 RMK AO2 SLP138 MDT CU NE-E T02720222 (EM)","FM-15","7",,,,,,,,,,,,,,,,,,,,,,,,,,,,"2009-07-14"
"72202012839","2020-06-13T06:44:00","FM-16","7",,,,,,,,,,,,,,,,,,,,,,,,,,,,,,,,,,,,,,"29.94","72","81","0.01",,,,"74",,"SCT:04 29 BKN:07 60 BKN:07 250","29.91","10.00","75","060",,"5",,,,,,,,,,,,,,,,,,,,,,,,,,,,,,,,,,,,,"MET12206/13/20 06:44:02 SPECI KMIA 131144Z 06004KT 10SM SCT029 BKN060 BKN250 27/22 A2994 RMK AO2 RAB1059E12 P0001 T02720222 (EM)","FM-16","7",,,,,,,,,,,,,,,,,,,,,,,,,,,,"2009-07-14"
"72202012839","2020-06-13T06:53:00","FM-15","7",,,,,,,,,,,,,,,,,,,,,,,,,,,,,,,,,,,,,,"29.94","73","82","0.01",,"-0.03","1","74","29.94","OVC:08 65","29.91","10.00","76","080",,"5",,,,,,,,,,,,,,,,,,,,,,,,,,,,,,,,,,,,,"MET14506/13/20 06:53:02 METAR KMIA 131153Z 08004KT 10SM OVC065 28/23 A2994 RMK AO2 RAB1059E12 SLP140 P0001 60001 70002 T02780228 10278 20256 51009 (EM)","FM-15","7",,,,,,,,,,,,,,,,,,,,,,,,,,,,"2009-07-14"
"72202012839","2020-06-13T07:00:00","FM-12","4",,,,,,,,,,,,,,,,,,,,,,,,,,,,,,,,,,,,,,,"73","82",,,"-0.03","1","74","29.94","57","29.91","9.94","76","080",,"5",,,,,,,,,,,,,,,,,,,,,,,,,,,,,,,,,,,,,"SYN09272202 12766 80804 10278 20228 30129 40140 51009 69931 91153 333 10311 20250 70005 555 91312=","FM-12","4",,,,,,,,,,,,,,,,,,,,,,,,,,,,"2009-07-14"
"72202012839","2020-06-13T07:53:00","FM-15","7",,,,,,,,,,,,,,,,,,,,,,,,,,,,,,,,,,,,,,"29.96","71","84","0.00",,,,"65","29.96","SCT:04 26 BKN:07 34 BKN:07 70","29.93","10.00","75","100",,"10",,,,,,,,,,,,,,,,,,,,,,,,,,,,,,,,,,,,,"MET11206/13/20 07:53:02 METAR KMIA 131253Z 10009KT 10SM SCT026 BKN034 BKN070 29/22 A2996 RMK AO2 SLP147 T02890217 (EM)","FM-15","7",,,,,,,,,,,,,,,,,,,,,,,,,,,,"2009-07-14"
"72202012839","2020-06-13T08:53:00","FM-15","7",,,,,,,,,,,,,,,,,,,,,,,,,,,,,,,,,,,,,,"29.96","72","85","0.00",,,,"65","29.96","SCT:04 29 BKN:07 200","29.93","10.00","76","080",,"9",,,,,,,,,,,,,,,,,,,,,,,,,,,,,,,,,,,,,"MET10506/13/20 08:53:02 METAR KMIA 131353Z 08008KT 10SM SCT029 BKN200 29/22 A2996 RMK AO2 SLP145 T02940222 (EM)","FM-15","7",,,,,,,,,,,,,,,,,,,,,,,,,,,,"2009-07-14"
"72202012839","2020-06-13T09:53:00","FM-15","7",,,,,,,,,,,,,,,,,,,,,,,,,,,,,,,,,,,,,,"29.96","71","86","0.00",,"-0.02","1","61","29.96","BKN:07 34 BKN:07 250","29.93","10.00","76","110",,"7",,,,,,,,,,,,,,,,,,,,,,,,,,,,,,,,,,,,,"MET11106/13/20 09:53:02 METAR KMIA 131453Z 11006KT 10SM BKN034 BKN250 30/22 A2996 RMK AO2 SLP147 T03000217 51007 (EM)","FM-15","7",,,,,,,,,,,,,,,,,,,,,,,,,,,,"2009-07-14"
"72202012839","2020-06-13T10:00:00","FM-12","4",,,,,,,,,,,,,,,,,,,,,,,,,,,,,,,,,,,,,,,"71","86",,,"-0.02","1","61","29.96","41","29.93","9.94","76","110",,"7",,,,,,,,,,,,,,,,,,,,,,,,,,,,,,,,,,,,,"SYN06472202 32666 61106 10300 20217 30135 40147 51007 91453 555 91315=","FM-12","4",,,,,,,,,,,,,,,,,,,,,,,,,,,,"2009-07-14"
"72202012839","2020-06-13T10:53:00","FM-15","7",,,,,,,,,,,,,,,,,,,,,,,,,,,,,,,,,,,,,,"29.97","72","86","0.00",,,,"63","29.97","SCT:04 28 BKN:07 35 BKN:07 250","29.94","10.00","76","100",,"13",,,,,,,,,,,,,,,,,,,,,,,,,,,,,,,,,,,,,"MET11206/13/20 10:53:02 METAR KMIA 131553Z 10011KT 10SM SCT028 BKN035 BKN250 30/22 A2997 RMK AO2 SLP149 T03000222 (EM)","FM-15","7",,,,,,,,,,,,,,,,,,,,,,,,,,,,"2009-07-14"
"72202012839","2020-06-13T11:53:00","FM-15","7",,,,,,,,,,,,,,,,,,,,,,,,,,,,,,,,,,,,,,"29.95","72","88","0.00",,,,"59","29.95","SCT:04 33 BKN:07 250","29.92","10.00","77","110",,"14",,,,,,,,,,,,,,,,,,,,,,,,,,,,,,,,,,,,,"MET10506/13/20 11:53:02 METAR KMIA 131653Z 11012KT 10SM SCT033 BKN250 31/22 A2995 RMK AO2 SLP142 T03110222 (EM)","FM-15","7",,,,,,,,,,,,,,,,,,,,,,,,,,,,"2009-07-14"
"72202012839","2020-06-13T12:53:00","FM-15","7",,,,,,,,,,,,,,,,,,,,,,,,,,,,,,,,,,,,,,"29.93","72","88","0.00",,"+0.04","8","59","29.93","SCT:04 35 BKN:07 250","29.90","10.00","77","140","22","14",,,,,,,,,,,,,,,,,,,,,,,,,,,,,,,,,,,,,"MET12606/13/20 12:53:02 METAR KMIA 131753Z 14012G19KT 10SM SCT035 BKN250 31/22 A2993 RMK AO2 SLP135 T03110222 10317 20278 58012 (EM)","FM-15","7",,,,,,,,,,,,,,,,,,,,,,,,,,,,"2009-07-14"
"72202012839","2020-06-13T13:00:00","FM-12","4",,,,,,,,,,,,,,,,,,,,,,,,,,,,,,,,,,,,,,,"72","88",,,"+0.04","8","59","29.93","41","29.90","9.94","77","140",,"14",,,,,,,,,,,,,,,,,,,,,,,,,,,,,,,,,,,,,"SYN08672202 32666 61412 10311 20222 30125 40135 58012 91753 333 10317 20278 91019 555 91318=","FM-12","4",,,,,,,,,,,,,,,,,,,,,,,,,,,,"2009-07-14"
"72202012839","2020-06-13T13:53:00","FM-15","7",,,,,,,,,,,,,,,,,,,,,,,,,,,,,,,,,,,,,,"29.93","71","88","0.00",,,,"57","29.93","SCT:04 35 SCT:04 130 BKN:07 250","29.90","10.00","76","090",,"14",,,,,,,,,,,,,,,,,,,,,,,,,,,,,,,,,,,,,"MET11306/13/20 13:53:02 METAR KMIA 131853Z 09012KT 10SM SCT035 SCT130 BKN250 31/22 A2993 RMK AO2 SLP135 T03110217 (RDR)","FM-15","7",,,,,,,,,,,,,,,,,,,,,,,,,,,,"2009-07-14"
"72202012839","2020-06-13T14:53:00","FM-15","7",,,,,,,,,,,,,,,,,,,,,,,,,,,,,,,,,,,,,,"29.92","72","88","0.00",,,,"59","29.91","SCT:04 35 SCT:04 130 BKN:07 250","29.89","10.00","77","100",,"11",,,,,,,,,,,,,,,,,,,,,,,,,,,,,,,,,,,,,"MET11306/13/20 14:53:02 METAR KMIA 131953Z 10010KT 10SM SCT035 SCT130 BKN250 31/22 A2992 RMK AO2 SLP130 T03110222 (RDR)","FM-15","7",,,,,,,,,,,,,,,,,,,,,,,,,,,,"2009-07-14"
"72202012839","2020-06-13T15:53:00","FM-15","7",,,,,,,,,,,,,,,,,,,,,,,,,,,,,,,,,,,,,,"29.91","70","88","0.00",,"+0.02","8","55","29.91","SCT:04 35 SCT:04 130 SCT:04 250","29.88","10.00","76","090",,"13",,,,,,,,,,,,,,,,,,,,,,,,,,,,,,,,,,,,,"MET11906/13/20 15:53:02 METAR KMIA 132053Z 09011KT 10SM SCT035 SCT130 SCT250 31/21 A2991 RMK AO2 SLP128 T03110211 58007 (RDR)","FM-15","7",,,,,,,,,,,,,,,,,,,,,,,,,,,,"2009-07-14"
"72202012839","2020-06-13T16:00:00","FM-12","4",,,,,,,,,,,,,,,,,,,,,,,,,,,,,,,,,,,,,,,"70","88",,,"+0.02","8","55","29.91","41","29.88","9.94","76","090",,"13",,,,,,,,,,,,,,,,,,,,,,,,,,,,,,,,,,,,,"SYN06472202 32666 40911 10311 20211 30119 40128 58007 92053 555 91321=","FM-12","4",,,,,,,,,,,,,,,,,,,,,,,,,,,,"2009-07-14"
"72202012839","2020-06-13T16:53:00","FM-15","7",,,,,,,,,,,,,,,,,,,,,,,,,,,,,,,,,,,,,,"29.90","71","85","0.00",,,,"63","29.90","FEW:02 37 FEW:02 130 SCT:04 250","29.87","10.00","75","090",,"16",,,,,,,,,,,,,,,,,,,,,,,,,,,,,,,,,,,,,"MET12706/13/20 16:53:02 METAR KMIA 132153Z 09014KT 10SM FEW037 FEW130 SCT250 29/22 A2990 RMK AO2 SLP126 CB DSNT SW-NW T02940217 (RDR)","FM-15","7",,,,,,,,,,,,,,,,,,,,,,,,,,,,"2009-07-14"
"72202012839","2020-06-13T17:53:00","FM-15","7",,,,,,,,,,,,,,,,,,,,,,,,,,,,,,,,,,,,,,"29.93","72","83","0.00",,,,"70","29.93","FEW:02 26 FEW:02 70 SCT:04 130","29.90","10.00","75","070",,"14",,,,,,,,,,,,,,,,,,,,,,,,,,,,,,,,,,,,,"MET13706/13/20 17:53:02 METAR KMIA 132253Z 07012KT 10SM FEW026 FEW070 SCT130 28/22 A2993 RMK AO2 SLP136 CB DSNT NE-SE AND SW-NW T02830222 (RDR)","FM-15","7",,,,,,,,,,,,,,,,,,,,,,,,,,,,"2009-07-14"
"72202012839","2020-06-13T18:53:00","FM-15","7",,,,,,,,,,,,,,,,,,,,,,,,,,,,,,,,,,,,,,"29.95","71","83","0.00",,"-0.04","3","67","29.94","FEW:02 25 FEW:02 70 SCT:04 140","29.92","10.00","75","080",,"13",,,,,,,,,,,,,,,,,,,,,,,,,,,,,,,,,,,,,"MET14806/13/20 18:53:02 METAR KMIA 132353Z 08011KT 10SM FEW025 FEW070 SCT140 28/22 A2995 RMK AO2 SLP140 CB DSNT E AND SW T02830217 10317 20283 53012 (RDR)","FM-15","7",,,,,,,,,,,,,,,,,,,,,,,,,,,,"2009-07-14"
"72202012839","2020-06-13T19:00:00","FM-12","4",,,,,,,,,,,,,,,,,,,,,,,,,,,,,,,,,,,,,,,"71","83",,,"-0.04","3","67","29.94","26","29.92","9.94","75","080",,"13",,,,,,,,,,,,,,,,,,,,,,,,,,,,,,,,,,,,,"SYN08072202 32566 60811 10283 20217 30132 40140 53012 92353 333 10317 20256 555 91400=","FM-12","4",,,,,,,,,,,,,,,,,,,,,,,,,,,,"2009-07-14"
"72202012839","2020-06-13T19:53:00","FM-15","7",,,,,,,,,,,,,,,,,,,,,,,,,,,,,,,,,,,,,,"29.95","72","83","0.00",,,,"70","29.94","SCT:04 25 SCT:04 70 SCT:04 140","29.92","10.00","75","060",,"10",,,,,,,,,,,,,,,,,,,,,,,,,,,,,,,,,,,,,"MET15006/13/20 19:53:01 METAR KMIA 140053Z 06009KT 10SM SCT025 SCT070 SCT140 28/22 A2995 RMK AO2 LTG DSNT W SLP140 OCNL LTGIC DSNT S CB DSNT SE-SW T02830222","FM-15","7",,,,,,,,,,,,,,,,,,,,,,,,,,,,"2009-07-14"
"72202012839","2020-06-13T20:53:00","FM-15","7",,,,,,,,,,,,,,,,,,,,,,,,,,,,,,,,,,,,,,"29.96","72","82","T","|RA |RA",,,"72","29.96","SCT:04 29 SCT:04 60 SCT:04 110","29.93","10.00","75","080",,"11",,,,,,,,,,,,,,,,,,,,,,,,,,,,,,,,,,,,,"MET12306/13/20 20:53:01 METAR KMIA 140153Z 08010KT 10SM -RA SCT029 SCT060 SCT110 28/22 A2996 RMK AO2 RAB52 SLP147 P0000 T02780222","FM-15","7",,,,,,,,,,,,,,,,,,,,,,,,,,,,"2009-07-14"
"72202012839","2020-06-13T21:53:00","FM-15","7",,,,,,,,,,,,,,,,,,,,,,,,,,,,,,,,,,,,,,"29.97","72","82","T",,"-0.02","3","72","29.96","FEW:02 23 OVC:08 180","29.94","10.00","75","080",,"8",,,,,,,,,,,,,,,,,,,,,,,,,,,,,,,,,,,,,"MET12406/13/20 21:53:01 METAR KMIA 140253Z 08007KT 10SM FEW023 OVC180 28/22 A2997 RMK AO2 RAE01 SLP147 P0000 60000 T02780222 53007","FM-15","7",,,,,,,,,,,,,,,,,,,,,,,,,,,,"2009-07-14"
"72202012839","2020-06-13T22:00:00","FM-12","4",,,,,,,,,,,,,,,,,,,,,,,,,,,,,,,,,,,,,,,"72","82",,,"-0.02","3","72","29.96","26","29.94","9.94","75","080",,"8",,,,,,,,,,,,,,,,,,,,,,,,,,,,,,,,,,,,,"SYN07072202 12566 80807 10278 20222 30139 40147 53007 69907 90253 555 91403=","FM-12","4",,,,,,,,,,,,,,,,,,,,,,,,,,,,"2009-07-14"
"72202012839","2020-06-13T22:53:00","FM-15","7",,,,,,,,,,,,,,,,,,,,,,,,,,,,,,,,,,,,,,"29.98","73","82","0.00",,,,"74","29.98","FEW:02 23 FEW:02 140 OVC:08 210","29.95","10.00","76","100",,"8",,,,,,,,,,,,,,,,,,,,,,,,,,,,,,,,,,,,,"MET10706/13/20 22:53:02 METAR KMIA 140353Z 10007KT 10SM FEW023 FEW140 OVC210 28/23 A2998 RMK AO2 SLP151 T02780228","FM-15","7",,,,,,,,,,,,,,,,,,,,,,,,,,,,"2009-07-14"
"72202012839","2020-06-13T23:53:00","FM-15","7",,,,,,,,,,,,,,,,,,,,,,,,,,,,,,,,,,,,,,"29.96","74","82","0.00",,,,"77","29.96","SCT:04 22 SCT:04 31 OVC:08 230","29.93","10.00","76","090",,"11",,,,,,,,,,,,,,,,,,,,,,,,,,,,,,,,,,,,,"MET11706/13/20 23:53:02 METAR KMIA 140453Z 09010KT 10SM SCT022 SCT031 OVC230 28/23 A2996 RMK AO2 SLP147 T02780233 403170256","FM-15","7",,,,,,,,,,,,,,,,,,,,,,,,,,,,"2009-07-14"
"72202012839","2020-06-13T23:59:00","SOD  ","6",,,,,,,,,,,,,,,"72","84","68","29.94","29.91","75","10.4","19","1.3","0","89","78","090","24","0.01",,,"080","17","RA",,,,,,,,,,,,,,,,,,,,,,,,,,,,,,,,,,,,,,,,,,,,,,,,,,,,,,,,"SOD73924 HR PRECIPITATION (IN): 0.01 SNOW DEPTH (IN):0     24 HR SNOWFALL (IN):0.0  24 HR MAX TEMP (F): 8924 HR MIN TEMP (F): 78AVERAGE STATION PRESSURE:29.905 MINIMUM SEA LEVEL PRESSURE:29.90 TIME OF OCCURRENCE:1706 PEAK WIND SPEED (MPH): 24 PEAK WIND DIR (DEG): 90 PEAK WIND TIME (LST):      FASTEST 2MIN SPEED (MPH): 17FASTEST 2MIN DIR (DEG): 80 FASTEST 2MIN TIME (LST):     AVERAGE WIND SPEED (MPH):10.4 24 HR AVG TEMP (F): 84DEPART FROM NORMAL:  1  HEATING DEGREE DAYS:  0 COOLING DEGREE DAYS: 19 LATEST DAY MAX TEMP (0700-1900 LST):89  LATEST NIGHT MIN TEMP(1900-0800 LST):77 HOURLY INCREMENTAL PRECIPITATION VALUES (IN):.00 0.00 0.00 0.00 0.00 T    0.01 0.00 0.00 0.00 0.00 0.00 0.00 0.00 0.00 0.00 0.00 0.00 0.00 0.00 T    T    0.00 0.00","SOD  ","6",,,,,,,,,,,,,,,,,,,,,,,,,"0529","1914",,"2009-07-14"
"72202012839","2020-06-14T00:53:00","FM-15","7",,,,,,,,,,,,,,,,,,,,,,,,,,,,,,,,,,,,,,"29.95","74","81","0.00",,"+0.01","8","79","29.95","FEW:02 20 FEW:02 32 SCT:04 140","29.92","10.00","76","100",,"9",,,,,,,,,,,,,,,,,,,,,,,,,,,,,,,,,,,,,"MET13606/14/20 00:53:02 METAR KMIA 140553Z 10008KT 10SM FEW020 FEW032 SCT140 27/23 A2995 RMK AO2 SLP143 60000 T02720233 10283 20272 58004 (GR)","FM-15","7",,,,,,,,,,,,,,,,,,,,,,,,,,,,"2009-07-14"
"72202012839","2020-06-14T01:00:00","FM-12","4",,,,,,,,,,,,,,,,,,,,,,,,,,,,,,,,,,,,,,,"74","81",,,"+0.01","8","79","29.95","26","29.92","9.94","76","100",,"9",,,,,,,,,,,,,,,,,,,,,,,,,,,,,,,,,,,,,"SYN08672202 12566 61008 10272 20233 30132 40143 58004 69901 90553 333 10283 20256 555 91406=","FM-12","4",,,,,,,,,,,,,,,,,,,,,,,,,,,,"2009-07-14"
"72202012839","2020-06-14T01:53:00","FM-15","7",,,,,,,,,,,,,,,,,,,,,,,,,,,,,,,,,,,,,,"29.95","73","81","0.00",,,,"77","29.94","FEW:02 20 SCT:04 140 BKN:07 220","29.92","10.00","75","100",,"9",,,,,,,,,,,,,,,,,,,,,,,,,,,,,,,,,,,,,"MET11206/14/20 01:53:02 METAR KMIA 140653Z 10008KT 10SM FEW020 SCT140 BKN220 27/23 A2995 RMK AO2 SLP140 T02720228 (GR)","FM-15","7",,,,,,,,,,,,,,,,,,,,,,,,,,,,"2009-07-14"
"72202012839","2020-06-14T02:53:00","FM-15","7",,,,,,,,,,,,,,,,,,,,,,,,,,,,,,,,,,,,,,"29.95","74","82","0.00",,,,"77","29.95","SCT:04 21 BKN:07 31 BKN:07 150","29.92","10.00","76","100",,"6",,,,,,,,,,,,,,,,,,,,,,,,,,,,,,,,,,,,,"MET13006/14/20 02:53:02 METAR KMIA 140753Z 10005KT 10SM SCT021 BKN031 BKN150 28/23 A2995 RMK AO2 LTG DSNT E AND SE SLP141 T02780233 (GR)","FM-15","7",,,,,,,,,,,,,,,,,,,,,,,,,,,,"2009-07-14"
"72202012839","2020-06-14T03:53:00","FM-15","7",,,,,,,,,,,,,,,,,,,,,,,,,,,,,,,,,,,,,,"29.94","74","82","T",,"+0.01","6","77","29.94","SCT:04 21 BKN:07 50","29.91","10.00","76","060",,"8",,,,,,,,,,,,,,,,,,,,,,,,,,,,,,,,,,,,,"MET16406/14/20 03:53:02 METAR KMIA 140853Z 06007KT 10SM SCT021CB BKN050 BKN1 28/23 A2994 RMK AO2 LTG DSNT E RAB38E50 SLP139 CB NE-E MOV W P0000 60000 T02780233 56004 (GR)","FM-15","7",,,,,,,,,,,,,,,,,,,,,,,,,,,,"2009-07-14"
"72202012839","2020-06-14T04:00:00","FM-12","4",,,,,,,,,,,,,,,,,,,,,,,,,,,,,,,,,,,,,,,"74","82",,,"+0.01","6","77","29.94","26","29.91","9.94","76","060",,"8",,,,,,,,,,,,,,,,,,,,,,,,,,,,,,,,,,,,,"SYN07072202 12566 80607 10278 20233 30129 40139 56004 69907 90853 555 91409=","FM-12","4",,,,,,,,,,,,,,,,,,,,,,,,,,,,"2009-07-14"
"72202012839","2020-06-14T04:26:00","FM-16","7",,,,,,,,,,,,,,,,,,,,,,,,,,,,,,,,,,,,,,"29.96","70","78",,,,,"76",,"FEW:02 20 BKN:07 33","29.93","10.00","73","100",,"13",,,,,,,,,,,,,,,,,,,,,,,,,,,,,,,,,,,,,"MET13706/14/20 04:26:02 SPECI KMIA 140926Z 10011KT 10SM FEW020CB BKN033 BKN0 26/21 A2996 RMK AO2 LTG DSNT SE CB N AND SE-S MOV W T02560211 (GR)","FM-16","7",,,,,,,,,,,,,,,,,,,,,,,,,,,,"2009-07-14"
"72202012839","2020-06-14T04:53:00","FM-15","7",,,,,,,,,,,,,,,,,,,,,,,,,,,,,,,,,,,,,,"29.96","71","77","T","|RA |RA",,,"82","29.96","FEW:02 20 BKN:07 60 BKN:07 110","29.93","10.00","73","100",,"5",,,,,,,,,,,,,,,,,,,,,,,,,,,,,,,,,,,,,"MET15806/14/20 04:53:02 METAR KMIA 140953Z 10004KT 10SM -RA FEW020 BKN060 BKN110 25/22 A2996 RMK AO2 LTG DSNT SE RAB34 SLP144 CB DSIPTD N AND S P0000 T02500217 (GR)","FM-15","7",,,,,,,,,,,,,,,,,,,,,,,,,,,,"2009-07-14"
"72202012839","2020-06-14T05:53:00","FM-15","7",,,,,,,,,,,,,,,,,,,,,,,,,,,,,,,,,,,,,,"29.97","72","77","T",,,,"85","29.97","FEW:02 20 SCT:04 80 BKN:07 150","29.94","10.00","74","080",,"6",,,,,,,,,,,,,,,,,,,,,,,,,,,,,,,,,,,,,"MET16006/14/20 05:53:02 METAR KMIA 141053Z 08005KT 10SM FEW020 SCT080 BKN150 25/22 A2997 RMK AO2 LTG DSNT E AND SE RAE18 SLP148 CB DSNT SE AND SW P0000 T02500222 (EM)","FM-15","7",,,,,,,,,,,,,,,,,,,,,,,,,,,,"2009-07-14"
"72202012839","2020-06-14T06:53:00","FM-15","7",,,,,,,,,,,,,,,,,,,,,,,,,,,,,,,,,,,,,,"29.99","73","79","0.00",,"-0.05","3","82","29.99","FEW:02 20 FEW:02 80 BKN:07 150","29.96","10.00","75","090",,"5",,,,,,,,,,,,,,,,,,,,,,,,,,,,,,,,,,,,,"MET14706/14/20 06:53:02 METAR KMIA 141153Z 09004KT 10SM FEW020 FEW080 BKN150 26/23 A2999 RMK AO2 SLP155 CB DSNT SE 60000 T02610228 10278 20244 53016 (EM)","FM-15","7",,,,,,,,,,,,,,,,,,,,,,,,,,,,"2009-07-14"
"72202012839","2020-06-14T07:00:00","FM-12","4",,,,,,,,,,,,,,,,,,,,,,,,,,,,,,,,,,,,,,,"73","79",,,"-0.05","3","82","29.99","26","29.96","9.94","75","090",,"5",,,,,,,,,,,,,,,,,,,,,,,,,,,,,,,,,,,,,"SYN08672202 12566 80904 10261 20228 30146 40155 53016 69901 91153 333 10317 20244 555 91412=","FM-12","4",,,,,,,,,,,,,,,,,,,,,,,,,,,,"2009-07-14"
"72202012839","2020-06-14T07:53:00","FM-15","7",,,,,,,,,,,,,,,,,,,,,,,,,,,,,,,,,,,,,,"30.00","74","80","0.00",,,,"82","30.00","FEW:02 20 FEW:02 80 SCT:04 150","29.97","10.00","76","100",,"5",,,,,,,,,,,,,,,,,,,,,,,,,,,,,,,,,,,,,"MET11206/14/20 07:53:02 METAR KMIA 141253Z 10004KT 10SM FEW020 FEW080 SCT150 27/23 A3000 RMK AO2 SLP160 T02670233 (EM)","FM-15","7",,,,,,,,,,,,,,,,,,,,,,,,,,,,"2009-07-14"
"72202012839","2020-06-14T08:53:00","FM-15","7",,,,,,,,,,,,,,,,,,,,,,,,,,,,,,,,,,,,,,"30.02","74","84","0.00",,,,"72","30.01","SCT:04 20 SCT:04 150 BKN:07 250","29.99","10.00","77","080",,"9",,,,,,,,,,,,,,,,,,,,,,,,,,,,,,,,,,,,,"MET11206/14/20 08:53:02 METAR KMIA 141353Z 08008KT 10SM SCT020 SCT150 BKN250 29/23 A3002 RMK AO2 SLP164 T02890233 (EM)","FM-15","7",,,,,,,,,,,,,,,,,,,,,,,,,,,,"2009-07-14"
"72202012839","2020-06-14T09:53:00","FM-15","7",,,,,,,,,,,,,,,,,,,,,,,,,,,,,,,,,,,,,,"30.02","72","86","0.00",,"-0.03","1","63","30.02","SCT:04 20 SCT:04 100 BKN:07 250","29.99","10.00","76","100",,"8",,,,,,,,,,,,,,,,,,,,,,,,,,,,,,,,,,,,,"MET14406/14/20 09:53:02 METAR KMIA 141453Z 10007KT 10SM SCT020CB SCT100 BKN250 30/22 A3002 RMK AO2 LTG DSNT NE SLP165 CB NE MOV W T03000222 51011 (EM)","FM-15","7",,,,,,,,,,,,,,,,,,,,,,,,,,,,"2009-07-14"
"72202012839","2020-06-14T10:00:00","FM-12","4",,,,,,,,,,,,,,,,,,,,,,,,,,,,,,,,,,,,,,,"72","86",,,"-0.03","1","63","30.02","26","29.99","9.94","76","100",,"8",,,,,,,,,,,,,,,,,,,,,,,,,,,,,,,,,,,,,"SYN06472202 32566 61007 10300 20222 30156 40165 51011 91453 555 91415=","FM-12","4",,,,,,,,,,,,,,,,,,,,,,,,,,,,"2009-07-14"
"72202012839","2020-06-14T10:53:00","FM-15","7",,,,,,,,,,,,,,,,,,,,,,,,,,,,,,,,,,,,,,"30.02","76","83","T","-RA:02 |RA |RA",,,"79","30.02","SCT:04 25 BKN:07 70 BKN:07 250","29.99","10.00","78","060",,"8",,,,,,,,,,,,,,,,,,,,,,,,,,,,,,,,,,,,,"MET13906/14/20 10:53:02 METAR KMIA 141553Z 06007KT 10SM -RA SCT025TCU BKN070 BKN250 28/24 A3002 RMK AO2 RAB39 SLP166 TCU OHD P0000 T02830244 (EM)","FM-15","7",,,,,,,,,,,,,,,,,,,,,,,,,,,,"2009-07-14"
"72202012839","2020-06-14T11:53:00","FM-15","7",,,,,,,,,,,,,,,,,,,,,,,,,,,,,,,,,,,,,,"30.01","74","84","0.01","-RA:02 |RA |RA",,,"72","30.01","BKN:07 28 BKN:07 50 BKN:07 250","29.98","10.00","77","110",,"9",,,,,,,,,,,,,,,,,,,,,,,,,,,,,,,,,,,,,"MET15206/14/20 11:53:02 METAR KMIA 141653Z 11008KT 10SM -RA BKN028TCU BKN050 BKN250 29/23 A3001 RMK AO2 SLP163 VIS NW 2 1/2 TCU SW AND NW P0001 T02890233 (EM)","FM-15","7",,,,,,,,,,,,,,,,,,,,,,,,,,,,"2009-07-14"
"72202012839","2020-06-14T12:19:00","FM-16","7",,,,,,,,,,,,,,,,,,,,,,,,,,,,,,,,,,,,,,"30.01","75","81","0.03","TS:7 RA:02 |RA TS TS |RA",,,"82",,"BKN:07 28 BKN:07 55 OVC:08 250","29.98","5.00","77","280",,"7",,,,,,,,,,,,,,,,,,,,,,,,,,,,,,,,,,,,,"MET17006/14/20 12:19:02 SPECI KMIA 141719Z 28006KT 5SM TSRA BKN028CB BKN055 OVC250 27/24 A3001 RMK AO2 TSB19 OCNL LTGIC OHD-SW-NW TS OHD-SW-NW MOV W TCU SE P0003 T02720239 (EM)","FM-16","7",,,,,,,,,,,,,,,,,,,,,,,,,,,,"2009-07-14"
"72202012839","2020-06-14T12:53:00","FM-15","7",,,,,,,,,,,,,,,,,,,,,,,,,,,,,,,,,,,,,,"30.00","77","81","0.15s","|TS |RA","+0.02","8","88","30.00","BKN:07 28 BKN:07 60","29.97","10.00","78","170",,"3",,,,,,,,,,,,,,,,,,,,,,,,,,,,,,,,,,,,,"MET19106/14/20 12:53:02 METAR KMIA 141753Z 17003KT 10SM -TSRA BKN028CB BKN060 BKN1 27/25 A3000 RMK AO2 LTG DSNT W TSB19 SLP159 OCNL LTGIC SW TS SW MOV W P0013 60014 T02720250 10306 20261 58006 (EM)","FM-15","7",,,,,,,,,,,,,,,,,,,,,,,,,,,,"2009-07-14"
"72202012839","2020-06-14T13:00:00","FM-12","4",,,,,,,,,,,,,,,,,,,,,,,,,,,,,,,,,,,,,,,"77","81",,,"+0.02","8","88","30.00","26","29.97","9.94","78","170",,"3",,,,,,,,,,,,,,,,,,,,,,,,,,,,,,,,,,,,,"SYN08672202 11566 81703 10272 20250 30149 40159 58006 60041 91753 333 10306 20261 555 91418=","FM-12","4",,,,,,,,,,,,,,,,,,,,,,,,,,,,"2009-07-14"
"72202012839","2020-06-14T13:16:00","FM-16","7",,,,,,,,,,,,,,,,,,,,,,,,,,,,,,,,,,,,,,"29.99","76","83","0.02","|RA |RA",,,"79",,"SCT:04 28 BKN:07 75 BKN:07 100","29.96","10.00","78","110",,"8",,,,,,,,,,,,,,,,,,,,,,,,,,,,,,,,,,,,,"MET16706/14/20 13:16:02 SPECI KMIA 141816Z 11007KT 10SM -RA SCT028 BKN075 BKN100 28/24 A2999 RMK AO2 LTG DSNT SW AND W TSE15 TS MOV SW CB DSNT E-S-W-NW P0002 T02830244 (RDR)","FM-16","7",,,,,,,,,,,,,,,,,,,,,,,,,,,,"2009-07-14"
"72202012839","2020-06-14T13:53:00","FM-15","7",,,,,,,,,,,,,,,,,,,,,,,,,,,,,,,,,,,,,,"30.00","74","83","T",,,,"74","30.00","FEW:02 25 SCT:04 75 SCT:04 110","29.97","10.00","77","120",,"7",,,,,,,,,,,,,,,,,,,,,,,,,,,,,,,,,,,,,"MET17006/14/20 13:53:02 METAR KMIA 141853Z 12006KT 10SM FEW025 SCT075 SCT110 28/23 A3000 RMK AO2 LTG DSNT NW RAE17 TSE15 SLP158 TS MOV SW CB DSNT E-S-W-NW P0002 T02830233 (RDR)","FM-15","7",,,,,,,,,,,,,,,,,,,,,,,,,,,,"2009-07-14"
"72202012839","2020-06-14T14:53:00","FM-15","7",,,,,,,,,,,,,,,,,,,,,,,,,,,,,,,,,,,,,,"29.97","73","89","0.00",,,,"59","29.97","FEW:02 25 FEW:02 75 BKN:07 250","29.94","10.00","78","130",,"8",,,,,,,,,,,,,,,,,,,,,,,,,,,,,,,,,,,,,"MET16306/14/20 14:53:02 METAR KMIA 141953Z 13007KT 10SM FEW025 FEW075 BKN250 32/23 A2997 RMK AO2 LTG DSNT SW AND NW PRESFR SLP149 CB DSNT NE-SE AND SW-NW T03170228 (RDR)","FM-15","7",,,,,,,,,,,,,,,,,,,,,,,,,,,,"2009-07-14"
"72202012839","2020-06-14T15:53:00","FM-15","7",,,,,,,,,,,,,,,,,,,,,,,,,,,,,,,,,,,,,,"29.98","73","90","0.00",,"+0.02","5","58","29.98","FEW:02 25 FEW:02 75 BKN:07 250","29.95","10.00","78","130",,"8",,,,,,,,,,,,,,,,,,,,,,,,,,,,,,,,,,,,,"MET15706/14/20 15:53:02 METAR KMIA 142053Z 13007KT 10SM FEW025 FEW075 BKN250 32/23 A2998 RMK AO2 LTG DSNT S SLP151 CB DSNT NE-SE AND NW 60002 T03220228 55008 (RDR)","FM-15","7",,,,,,,,,,,,,,,,,,,,,,,,,,,,"2009-07-14"
"72202012839","2020-06-14T16:00:00","FM-12","4",,,,,,,,,,,,,,,,,,,,,,,,,,,,,,,,,,,,,,,"73","90",,,"+0.02","5","58","29.98","26","29.95","9.94","78","130",,"8",,,,,,,,,,,,,,,,,,,,,,,,,,,,,,,,,,,,,"SYN07072202 12566 61307 10322 20228 30142 40151 55008 69957 92053 555 91421=","FM-12","4",,,,,,,,,,,,,,,,,,,,,,,,,,,,"2009-07-14"
"72202012839","2020-06-14T16:53:00","FM-15","7",,,,,,,,,,,,,,,,,,,,,,,,,,,,,,,,,,,,,,"29.99","75","91","0.00",,,,"59","29.99","FEW:02 25 SCT:04 75 BKN:07 250","29.96","10.00","80","110",,"8",,,,,,,,,,,,,,,,,,,,,,,,,,,,,,,,,,,,,"MET16006/14/20 16:53:02 METAR KMIA 142153Z 11007KT 10SM FEW025 SCT075 BKN250 33/24 A2999 RMK AO2 LTG DSNT N AND S AND NW SLP156 CB DSNT E AND S AND NW T03280239 (RDR)","FM-15","7",,,,,,,,,,,,,,,,,,,,,,,,,,,,"2009-07-14"
"72202012839","2020-06-14T17:53:00","FM-15","7",,,,,,,,,,,,,,,,,,,,,,,,,,,,,,,,,,,,,,"29.99","74","88","0.00",,,,"63","29.99","FEW:02 28 SCT:04 60 SCT:04 75","29.96","10.00","78","120",,"7",,,,,,,,,,,,,,,,,,,,,,,,,,,,,,,,,,,,,"MET16806/14/20 17:53:02 METAR KMIA 142253Z 12006KT 10SM FEW028 SCT060 SCT075 31/23 A2999 RMK AO2 LTG DSNT S-NW SLP157 OCNL LTGIC DSNT NW CB DSNT S-SW AND NW-N T03110233 (RDR)","FM-15","7",,,,,,,,,,,,,,,,,,,,,,,,,,,,"2009-07-14"
"72202012839","2020-06-14T18:37:00","FM-16","7",,,,,,,,,,,,,,,,,,,,,,,,,,,,,,,,,,,,,,"30.00","74","88",,"||RA",,,"63",,"FEW:02 25 FEW:02 70 FEW:02 150","29.97","10.00","78","130",,"8",,,,,,,,,,,,,,,,,,,,,,,,,,,,,,,,,,,,,"MET14606/14/20 18:37:02 SPECI KMIA 142337Z 13007KT 10SM VCTS FEW025 FEW070 FEW150 31/23 A3000 RMK AO2 LTG DSNT S-NW TSE31 CB DSNT S-W-NW T03110233 (RDR)","FM-16","7",,,,,,,,,,,,,,,,,,,,,,,,,,,,"2009-07-14"
"72202012839","2020-06-14T18:51:00","FM-16","6",,,,,,,,,,,,,,,,,,,,,,,,,,,,,,,,,,,,,,"30.00","73","88",,,,,"62",,"FEW:02 25 FEW:02 70 FEW:02 150","29.97","10.00","77","130",,"9",,,,,,,,,,,,,,,,,,,,,,,,,,,,,,,,,,,,,"MET13406/14/20 18:51:02 SPECI KMIA 142351Z 13008KT 10SM FEW025 FEW070 FEW150 31/23 A3000 RMK AO2 LTG DSNT SW TSE31 CB DSNT S-W-NW FIBI (RDR)","FM-16","6",,,,,,,,,,,,,,,,,,,,,,,,,,,,"2009-07-14"
"72202012839","2020-06-14T18:53:00","FM-15","7",,,,,,,,,,,,,,,,,,,,,,,,,,,,,,,,,,,,,,"30.00","73","88","0.00",,"-0.00","1","61","29.99","FEW:02 25 FEW:02 70 FEW:02 150","29.97","10.00","77","130",,"8",,,,,,,,,,,,,,,,,,,,,,,,,,,,,,,,,,,,,"MET17406/14/20 18:53:02 METAR KMIA 142353Z 13007KT 10SM FEW025 FEW070 FEW150 31/23 A3000 RMK AO2 LTG DSNT SW TSE31 SLP157 CB DSNT E AND S-SW 60002 T03110228 10333 20272 51001 (RDR)","FM-15","7",,,,,,,,,,,,,,,,,,,,,,,,,,,,"2009-07-14"
"72202012839","2020-06-14T19:00:00","FM-12","4",,,,,,,,,,,,,,,,,,,,,,,,,,,,,,,,,,,,,,,"73","88",,,"-0.00","1","61","29.99","26","29.97","9.94","77","130",,"8",,,,,,,,,,,,,,,,,,,,,,,,,,,,,,,,,,,,,"SYN08672202 12566 81307 10311 20228 30149 40157 51001 69951 92353 333 10333 20244 555 91500=","FM-12","4",,,,,,,,,,,,,,,,,,,,,,,,,,,,"2009-07-14"
"72202012839","2020-06-14T19:53:00","FM-15","7",,,,,,,,,,,,,,,,,,,,,,,,,,,,,,,,,,,,,,"30.01","74","87","T","|RA |RA",,,"65","30.01","FEW:02 25 SCT:04 50 BKN:07 110","29.98","10.00","78","150",,"5",,,,,,,,,,,,,,,,,,,,,,,,,,,,,,,,,,,,,"MET12306/14/20 19:53:01 METAR KMIA 150053Z 15004KT 10SM -RA FEW025 SCT050 BKN110 31/23 A3001 RMK AO2 RAB36 SLP162 P0000 T03060233","FM-15","7",,,,,,,,,,,,,,,,,,,,,,,,,,,,"2009-07-14"
"72202012839","2020-06-14T20:53:00","FM-15","7",,,,,,,,,,,,,,,,,,,,,,,,,,,,,,,,,,,,,,"30.04","74","87","0.00",,,,"65","30.03","SCT:04 30 SCT:04 50 SCT:04 150","30.01","10.00","78","340",,"3",,,,,,,,,,,,,,,,,,,,,,,,,,,,,,,,,,,,,"MET12106/14/20 20:53:01 METAR KMIA 150153Z 34003KT 10SM SCT030 SCT050 SCT150 31/23 A3004 RMK AO2 RAE0058 SLP171 P0000 T03060233","FM-15","7",,,,,,,,,,,,,,,,,,,,,,,,,,,,"2009-07-14"
"72202012839","2020-06-14T21:53:00","FM-15","7",,,,,,,,,,,,,,,,,,,,,,,,,,,,,,,,,,,,,,"30.04","74","78","0.00",,"-0.04","0","87","30.03","FEW:02 22 SCT:04 32 SCT:04 46","30.01","10.00","75","000",,"0",,,,,,,,,,,,,,,,,,,,,,,,,,,,,,,,,,,,,"MET15306/14/20 21:53:01 METAR KMIA 150253Z 00000KT 10SM FEW022 SCT032 SCT046 26/23 A3004 RMK AO2 LTG DSNT E AND S SLP171 CB E AND S MOV W 60000 T02560233 50014","FM-15","7",,,,,,,,,,,,,,,,,,,,,,,,,,,,"2009-07-14"
"72202012839","2020-06-14T22:00:00","FM-12","4",,,,,,,,,,,,,,,,,,,,,,,,,,,,,,,,,,,,,,,"74","78",,,"0.04","9","87","30.03","26","30.01","9.94","75","000",,"0",,,,,,,,,,,,,,,,,,,,,,,,,,,,,,,,,,,,,"SYN07072202 12566 80000 10256 20233 30163 40171 50014 69907 90253 555 91503=","FM-12","4",,,,,,,,,,,,,,,,,,,,,,,,,,,,"2009-07-14"
"72202012839","2020-06-14T22:43:00","FM-16","7",,,,,,,,,,,,,,,,,,,,,,,,,,,,,,,,,,,,,,"30.04","73","78",,,,,"85",,"SCT:04 18 BKN:07 27","30.01","10.00","75","110",,"7",,,,,,,,,,,,,,,,,,,,,,,,,,,,,,,,,,,,,"MET11606/14/20 22:43:02 SPECI KMIA 150343Z 11006KT 10SM SCT018CB BKN027 BKN0 26/23 A3004 RMK AO2 CB NE-SE MOV SW T02560228","FM-16","7",,,,,,,,,,,,,,,,,,,,,,,,,,,,"2009-07-14"
"72202012839","2020-06-14T22:50:00","FM-16","7",,,,,,,,,,,,,,,,,,,,,,,,,,,,,,,,,,,,,,"30.04","75","75",,"-RA:02 BR:1 |RA |RA",,,"100",,"BKN:07 18 BKN:07 29 OVC:08 60","30.01","2.00","75","070",,"9",,,,,,,,,,,,,,,,,,,,,,,,,,,,,,,,,,,,,"MET11606/14/20 22:50:02 SPECI KMIA 150350Z 07008KT 2SM -RA BR BKN018CB BKN029 OVC060 24/24 A3004 RMK AO2 CB OHD-N-E MOV SW","FM-16","7",,,,,,,,,,,,,,,,,,,,,,,,,,,,"2009-07-14"
"72202012839","2020-06-14T22:53:00","FM-15","7",,,,,,,,,,,,,,,,,,,,,,,,,,,,,,,,,,,,,,"30.04","75","76","T","-RA:02 BR:1 |RA |RA",,,"97","30.04","BKN:07 16 BKN:07 35 OVC:08 60","30.01","2.00","75","080",,"8",,,,,,,,,,,,,,,,,,,,,,,,,,,,,,,,,,,,,"MET14506/14/20 22:53:02 METAR KMIA 150353Z 08007KT 2SM -RA BR BKN016CB BKN035 OVC060 24/24 A3004 RMK AO2 RAB53 SLP173 CB OHD-N-E MOV SW P0000 T02440239","FM-15","7",,,,,,,,,,,,,,,,,,,,,,,,,,,,"2009-07-14"
"72202012839","2020-06-14T23:07:00","FM-16","7",,,,,,,,,,,,,,,,,,,,,,,,,,,,,,,,,,,,,,"30.03","74","74","0.01","-RA:02 BR:1 |RA |RA",,,"100",,"SCT:04 16 BKN:07 38 OVC:08 55","30.00","4.00","74","120",,"5",,,,,,,,,,,,,,,,,,,,,,,,,,,,,,,,,,,,,"MET12506/14/20 23:07:02 SPECI KMIA 150407Z 12004KT 4SM -RA BR SCT016 BKN038 OVC055 23/23 A3003 RMK AO2 CB DSIPTD NW P0001 T02330233","FM-16","7",,,,,,,,,,,,,,,,,,,,,,,,,,,,"2009-07-14"
"72202012839","2020-06-14T23:53:00","FM-15","7",,,,,,,,,,,,,,,,,,,,,,,,,,,,,,,,,,,,,,"30.00","75","78","0.01",,,,"90","30.00","FEW:02 16 FEW:02 70 BKN:07 250","29.97","10.00","76","000",,"0",,,,,,,,,,,,,,,,,,,,,,,,,,,,,,,,,,,,,"MET12906/14/20 23:53:02 METAR KMIA 150453Z 00000KT 10SM FEW016 FEW070 BKN250 26/24 A3000 RMK AO2 RAE25 SLP159 P0001 T02560239 403330233","FM-15","7",,,,,,,,,,,,,,,,,,,,,,,,,,,,"2009-07-14"
"72202012839","2020-06-14T23:59:00","SOD  ","6",,,,,,,,,,,,,,,"74","82","75","29.99","29.95","77","6.3","17","-0.7","0","89","74","060","19","0.17",,,"090","15","TS RA BR",,,,,,,,,,,,,,,,,,,,,,,,,,,,,,,,,,,,,,,,,,,,,,,,,,,,,,,,"SOD75724 HR PRECIPITATION (IN): 0.17 SNOW DEPTH (IN):0     24 HR SNOWFALL (IN):0.0  WEATHER(CODE):13  24 HR MAX TEMP (F): 8924 HR MIN TEMP (F): 74AVERAGE STATION PRESSURE:29.950 MINIMUM SEA LEVEL PRESSURE:29.94 TIME OF OCCURRENCE:0357 PEAK WIND SPEED (MPH): 19 PEAK WIND DIR (DEG): 60 PEAK WIND TIME (LST):      FASTEST 2MIN SPEED (MPH): 15FASTEST 2MIN DIR (DEG): 90 FASTEST 2MIN TIME (LST):     AVERAGE WIND SPEED (MPH): 6.3 24 HR AVG TEMP (F): 82DEPART FROM NORMAL: -1  HEATING DEGREE DAYS:  0 COOLING DEGREE DAYS: 17 LATEST DAY MAX TEMP (0700-1900 LST):92  LATEST NIGHT MIN TEMP(1900-0800 LST):76 HOURLY INCREMENTAL PRECIPITATION VALUES (IN):.00 0.00 0.00 T    T    T    0.00 0.00 0.00 0.00 T    0.01 0.15 T    0.00 0.00 0.00 0.00 0.00 T    0.00 0.00 T    0.01","SOD  ","6",,,,,,,,,,,,,,,,,,,,,,,,,"0529","1914",,"2009-07-14"
"72202012839","2020-06-15T00:53:00","FM-15","7",,,,,,,,,,,,,,,,,,,,,,,,,,,,,,,,,,,,,,"29.99","75","78","0.00",,"+0.05","8","90","29.98","FEW:02 18 SCT:04 250","29.96","10.00","76","000",,"0",,,,,,,,,,,,,,,,,,,,,,,,,,,,,,,,,,,,,"MET12906/15/20 00:53:02 METAR KMIA 150553Z 00000KT 10SM FEW018 SCT250 26/24 A2999 RMK AO2 SLP154 60001 T02560239 10311 20233 58017 (GR)","FM-15","7",,,,,,,,,,,,,,,,,,,,,,,,,,,,"2009-07-14"
"72202012839","2020-06-15T01:00:00","FM-12","4",,,,,,,,,,,,,,,,,,,,,,,,,,,,,,,,,,,,,,,"75","78",,,"+0.05","8","90","29.98","15","29.96","9.94","76","000",,"0",,,,,,,,,,,,,,,,,,,,,,,,,,,,,,,,,,,,,"SYN08672202 12466 40000 10256 20239 30146 40154 58017 69931 90553 333 10311 20233 555 91506=","FM-12","4",,,,,,,,,,,,,,,,,,,,,,,,,,,,"2009-07-14"
"72202012839","2020-06-15T01:53:00","FM-15","7",,,,,,,,,,,,,,,,,,,,,,,,,,,,,,,,,,,,,,"29.99","75","78","0.00",,,,"90","29.98","FEW:02 18 FEW:02 250","29.96","10.00","76","000",,"0",,,,,,,,,,,,,,,,,,,,,,,,,,,,,,,,,,,,,"MET10506/15/20 01:53:02 METAR KMIA 150653Z 00000KT 10SM FEW018 FEW250 26/24 A2999 RMK AO2 SLP154 T02560239 (GR)","FM-15","7",,,,,,,,,,,,,,,,,,,,,,,,,,,,"2009-07-14"
"72202012839","2020-06-15T02:53:00","FM-15","7",,,,,,,,,,,,,,,,,,,,,,,,,,,,,,,,,,,,,,"29.98","75","77","0.00",,,,"94","29.98","FEW:02 18 FEW:02 30 SCT:04 250","29.95","10.00","76","000",,"0",,,,,,,,,,,,,,,,,,,,,,,,,,,,,,,,,,,,,"MET11206/15/20 02:53:02 METAR KMIA 150753Z 00000KT 10SM FEW018 FEW030 SCT250 25/24 A2998 RMK AO2 SLP153 T02500239 (GR)","FM-15","7",,,,,,,,,,,,,,,,,,,,,,,,,,,,"2009-07-14"
"72202012839","2020-06-15T03:53:00","FM-15","7",,,,,,,,,,,,,,,,,,,,,,,,,,,,,,,,,,,,,,"29.99","75","78","0.00",,"-0.00","3","90","29.98","SCT:04 20 SCT:04 26 SCT:04 250","29.96","10.00","76","310",,"3",,,,,,,,,,,,,,,,,,,,,,,,,,,,,,,,,,,,,"MET13406/15/20 03:53:02 METAR KMIA 150853Z 31003KT 10SM SCT020CB SCT026 SCT250 25/24 A2999 RMK AO2 SLP154 CB N-E MOV NE T02560239 53000 (GR)","FM-15","7",,,,,,,,,,,,,,,,,,,,,,,,,,,,"2009-07-14"
"72202012839","2020-06-15T04:00:00","FM-12","4",,,,,,,,,,,,,,,,,,,,,,,,,,,,,,,,,,,,,,,"75","78",,,"0.00","4","90","29.98","26","29.96","9.94","76","310",,"3",,,,,,,,,,,,,,,,,,,,,,,,,,,,,,,,,,,,,"SYN06472202 32566 43103 10256 20239 30146 40154 53000 90853 555 91509=","FM-12","4",,,,,,,,,,,,,,,,,,,,,,,,,,,,"2009-07-14"
"72202012839","2020-06-15T04:49:00","FM-16","7",,,,,,,,,,,,,,,,,,,,,,,,,,,,,,,,,,,,,,"29.99","75","79",,,,,"89",,"BKN:07 20 BKN:07 250","29.96","10.00","76","000",,"0",,,,,,,,,,,,,,,,,,,,,,,,,,,,,,,,,,,,,"MET10306/15/20 04:49:02 SPECI KMIA 150949Z 00000KT 10SM BKN020CB BKN250 26/24 A2999 RMK AO2 CB NE MOV NE (GR)","FM-16","7",,,,,,,,,,,,,,,,,,,,,,,,,,,,"2009-07-14"
"72202012839","2020-06-15T04:53:00","FM-15","7",,,,,,,,,,,,,,,,,,,,,,,,,,,,,,,,,,,,,,"29.99","75","78","0.00",,,,"90","29.99","BKN:07 20 BKN:07 250","29.96","10.00","76","000",,"0",,,,,,,,,,,,,,,,,,,,,,,,,,,,,,,,,,,,,"MET12006/15/20 04:53:02 METAR KMIA 150953Z 00000KT 10SM BKN020CB BKN250 26/24 A2999 RMK AO2 SLP155 CB NE MOV NE T02560239 (GR)","FM-15","7",,,,,,,,,,,,,,,,,,,,,,,,,,,,"2009-07-14"
"72202012839","2020-06-15T05:18:00","FM-16","7",,,,,,,,,,,,,,,,,,,,,,,,,,,,,,,,,,,,,,"29.99","75","78",,,,,"90",,"SCT:04 20 BKN:07 250","29.96","10.00","76","000",,"0",,,,,,,,,,,,,,,,,,,,,,,,,,,,,,,,,,,,,"MET11106/15/20 05:18:02 SPECI KMIA 151018Z 00000KT 10SM SCT020 BKN250 26/24 A2999 RMK AO2 CB DSNT SE-S T02560239 (GR)","FM-16","7",,,,,,,,,,,,,,,,,,,,,,,,,,,,"2009-07-14"
"72202012839","2020-06-15T05:53:00","FM-15","7",,,,,,,,,,,,,,,,,,,,,,,,,,,,,,,,,,,,,,"30.00","75","79","0.00",,,,"88","30.00","SCT:04 17 SCT:04 30 BKN:07 250","29.97","10.00","76","000",,"0",,,,,,,,,,,,,,,,,,,,,,,,,,,,,,,,,,,,,"MET13206/15/20 05:53:02 METAR KMIA 151053Z 00000KT 10SM SCT017 SCT030 BKN250 26/24 A3000 RMK AO2 SLP158 CB DSNT SE-S MOV E T02610239 (RLW)","FM-15","7",,,,,,,,,,,,,,,,,,,,,,,,,,,,"2009-07-14"
"72202012839","2020-06-15T06:53:00","FM-15","7",,,,,,,,,,,,,,,,,,,,,,,,,,,,,,,,,,,,,,"30.01","73","79","0.00",,"-0.03","3","82","30.01","FEW:02 17 FEW:02 30 SCT:04 250","29.98","10.00","75","000",,"0",,,,,,,,,,,,,,,,,,,,,,,,,,,,,,,,,,,,,"MET15606/15/20 06:53:02 METAR KMIA 151153Z 00000KT 10SM FEW017 FEW030 SCT250 26/23 A3001 RMK AO2 SLP164 CB DSNT SE-S MOV E 70017 T02610228 10261 20250 53009 (RLW)","FM-15","7",,,,,,,,,,,,,,,,,,,,,,,,,,,,"2009-07-14"
"72202012839","2020-06-15T07:00:00","FM-12","4",,,,,,,,,,,,,,,,,,,,,,,,,,,,,,,,,,,,,,,"73","79",,,"-0.03","3","82","30.01","15","29.98","9.94","75","000",,"0",,,,,,,,,,,,,,,,,,,,,,,,,,,,,,,,,,,,,"SYN08672202 32466 40000 10261 20228 30152 40164 53009 91153 333 10333 20233 70043 555 91512=","FM-12","4",,,,,,,,,,,,,,,,,,,,,,,,,,,,"2009-07-14"
"72202012839","2020-06-15T07:53:00","FM-15","7",,,,,,,,,,,,,,,,,,,,,,,,,,,,,,,,,,,,,,"30.02","72","79","0.00",,,,"79","30.02","FEW:02 20 FEW:02 100 FEW:02 250","29.99","10.00","74","000",,"0",,,,,,,,,,,,,,,,,,,,,,,,,,,,,,,,,,,,,"MET13006/15/20 07:53:02 METAR KMIA 151253Z 00000KT 10SM FEW020 FEW100 FEW250 26/22 A3002 RMK AO2 SLP167 CB DSNT SE MOV E T02610222 (RLW)","FM-15","7",,,,,,,,,,,,,,,,,,,,,,,,,,,,"2009-07-14"
"72202012839","2020-06-15T08:53:00","FM-15","7",,,,,,,,,,,,,,,,,,,,,,,,,,,,,,,,,,,,,,"30.04","73","83","0.00",,,,"72","30.04","SCT:04 24 BKN:07 60 BKN:07 250","30.01","10.00","76","000",,"0",,,,,,,,,,,,,,,,,,,,,,,,,,,,,,,,,,,,,"MET11306/15/20 08:53:02 METAR KMIA 151353Z 00000KT 10SM SCT024 BKN060 BKN250 29/23 A3004 RMK AO2 SLP172 T02830228 (RLW)","FM-15","7",,,,,,,,,,,,,,,,,,,,,,,,,,,,"2009-07-14"
"72202012839","2020-06-15T09:53:00","FM-15","7",,,,,,,,,,,,,,,,,,,,,,,,,,,,,,,,,,,,,,"30.03","72","86","0.00",,"-0.02","0","63","30.03","SCT:04 25 SCT:04 45 SCT:04 60","30.00","10.00","76","VRB",,"3",,,,,,,,,,,,,,,,,,,,,,,,,,,,,,,,,,,,,"MET11906/15/20 09:53:02 METAR KMIA 151453Z VRB03KT 10SM SCT025 SCT045 SCT060 30/22 A3003 RMK AO2 SLP171 T03000222 50007 (RLW)","FM-15","7",,,,,,,,,,,,,,,,,,,,,,,,,,,,"2009-07-14"
"72202012839","2020-06-15T10:00:00","FM-12","4",,,,,,,,,,,,,,,,,,,,,,,,,,,,,,,,,,,,,,,"72","86",,,"0.02","9","63","30.03","26","30.00","9.94","76",,,"3",,,,,,,,,,,,,,,,,,,,,,,,,,,,,,,,,,,,,"SYN06472202 32566 6//03 10300 20222 30159 40171 50007 91453 555 91515=","FM-12","4",,,,,,,,,,,,,,,,,,,,,,,,,,,,"2009-07-14"
"72202012839","2020-06-15T10:53:00","FM-15","7",,,,,,,,,,,,,,,,,,,,,,,,,,,,,,,,,,,,,,"30.03","71","88","0.00",,,,"57","30.03","SCT:04 33 BKN:07 40 BKN:07 60","30.00","10.00","76","VRB",,"3",,,,,,,,,,,,,,,,,,,,,,,,,,,,,,,,,,,,,"MET11306/15/20 10:53:02 METAR KMIA 151553Z VRB03KT 10SM SCT033 BKN040 BKN060 31/22 A3003 RMK AO2 SLP169 T03110217 (RLW)","FM-15","7",,,,,,,,,,,,,,,,,,,,,,,,,,,,"2009-07-14"
"72202012839","2020-06-15T11:53:00","FM-15","7",,,,,,,,,,,,,,,,,,,,,,,,,,,,,,,,,,,,,,"30.02","72","88","0.00",,,,"59","30.01","BKN:07 38 BKN:07 70 BKN:07 250","29.99","10.00","77","010",,"7",,,,,,,,,,,,,,,,,,,,,,,,,,,,,,,,,,,,,"MET12806/15/20 11:53:02 METAR KMIA 151653Z 01006KT 10SM BKN038CB BKN070 BKN250 31/22 A3002 RMK AO2 SLP164 CB SE MOV SE T03110222 (RLW)","FM-15","7",,,,,,,,,,,,,,,,,,,,,,,,,,,,"2009-07-14"
"72202012839","2020-06-15T12:53:00","FM-15","7",,,,,,,,,,,,,,,,,,,,,,,,,,,,,,,,,,,,,,"30.00","73","86","0.00",,"+0.04","8","65","29.99","BKN:07 30 BKN:07 65 BKN:07 250","29.97","10.00","77","110",,"9",,,,,,,,,,,,,,,,,,,,,,,,,,,,,,,,,,,,,"MET13106/15/20 12:53:02 METAR KMIA 151753Z 11008KT 10SM BKN030 BKN065 BKN250 30/23 A3000 RMK AO2 SLP157 T03000228 10311 20261 58013 (RLW)","FM-15","7",,,,,,,,,,,,,,,,,,,,,,,,,,,,"2009-07-14"
"72202012839","2020-06-15T13:00:00","FM-12","4",,,,,,,,,,,,,,,,,,,,,,,,,,,,,,,,,,,,,,,"73","86",,,"+0.04","8","65","29.99","26","29.97","9.94","77","110",,"9",,,,,,,,,,,,,,,,,,,,,,,,,,,,,,,,,,,,,"SYN08072202 32566 61108 10300 20228 30149 40157 58013 91753 333 10311 20261 555 91518=","FM-12","4",,,,,,,,,,,,,,,,,,,,,,,,,,,,"2009-07-14"
"72202012839","2020-06-15T13:53:00","FM-15","7",,,,,,,,,,,,,,,,,,,,,,,,,,,,,,,,,,,,,,"30.00","72","86","0.00",,,,"63","30.00","BKN:07 32 BKN:07 100 BKN:07 250","29.97","10.00","76","080",,"7",,,,,,,,,,,,,,,,,,,,,,,,,,,,,,,,,,,,,"MET13006/15/20 13:53:02 METAR KMIA 151853Z 08006KT 10SM BKN032TCU BKN100 BKN250 30/22 A3000 RMK AO2 SLP158 TCU SW-NW-N T03000222 $ (RDR)","FM-15","7",,,,,,,,,,,,,,,,,,,,,,,,,,,,"2009-07-14"
"72202012839","2020-06-15T14:09:00","FM-16","7",,,,,,,,,,,,,,,,,,,,,,,,,,,,,,,,,,,,,,"29.99","72","86",,"TS:7 |TS TS |",,,"63",,"SCT:04 32 BKN:07 100 BKN:07 250","29.96","10.00","76","120",,"10",,,,,,,,,,,,,,,,,,,,,,,,,,,,,,,,,,,,,"MET17606/15/20 14:09:02 SPECI KMIA 151909Z 12009KT 10SM TS SCT032CB BKN100 BKN250 30/22 A2999 RMK AO2 LTG DSNT SW TSB09 OCNL LTGCG SW TS SW MOV STNRY CB N MOV STNRY T03000222 $ (RDR)","FM-16","7",,,,,,,,,,,,,,,,,,,,,,,,,,,,"2009-07-14"
"72202012839","2020-06-15T14:53:00","FM-15","7",,,,,,,,,,,,,,,,,,,,,,,,,,,,,,,,,,,,,,"29.98","72","86","0.00","TS:7 |TS TS |",,,"63","29.98","BKN:07 30 BKN:07 100 OVC:08 250","29.95","10.00","76","120",,"13",,,,,,,,,,,,,,,,,,,,,,,,,,,,,,,,,,,,,"MET16206/15/20 14:53:02 METAR KMIA 151953Z 12011KT 10SM TS BKN030CB BKN100 OVC250 30/22 A2998 RMK AO2 TSB09 SLP154 OCNL LTGICCG NW-NE TS NW-NE MOV STNRY T03000222 (RDR)","FM-15","7",,,,,,,,,,,,,,,,,,,,,,,,,,,,"2009-07-14"
"72202012839","2020-06-15T15:14:00","FM-16","7",,,,,,,,,,,,,,,,,,,,,,,,,,,,,,,,,,,,,,"29.99","73","84",,"TS:7 |TS TS |",,,"70",,"BKN:07 25 BKN:07 100 OVC:08 250","29.96","10.00","76","110",,"9",,,,,,,,,,,,,,,,,,,,,,,,,,,,,,,,,,,,,"MET15606/15/20 15:14:02 SPECI KMIA 152014Z 11008KT 10SM TS BKN025CB BKN100 OVC250 29/23 A2999 RMK AO2 LTG DSNT N OCNL LTGICCG OHD TS OHD MOV STNRY T02890228 (RDR)","FM-16","7",,,,,,,,,,,,,,,,,,,,,,,,,,,,"2009-07-14"
"72202012839","2020-06-15T15:26:00","FM-16","7",,,,,,,,,,,,,,,,,,,,,,,,,,,,,,,,,,,,,,"30.00","72","76","0.01","TS:7 +RA:02 BR:1 |RA TS |RA",,,"88",,"FEW:02 14 BKN:07 25 OVC:08 100","29.97","2.00","73","020","30","15",,,,,,,,,,,,,,,,,,,,,,,,,,,,,,,,,,,,,"MET21106/15/20 15:26:02 SPECI KMIA 152026Z 02013G26KT 2SM R09/1600VP6000FT +TSRA BR FEW014 BKN025CB OVC100 24/22 A3000 RMK AO2 PK WND 04026/2023 LTG DSNT N RAB24 OCNL LTGICCG OHD TS OHD MOV STNRY P0001 T02440222 (RDR)","FM-16","7",,,,,,,,,,,,,,,,,,,,,,,,,,,,"2009-07-14"
"72202012839","2020-06-15T15:34:00","FM-16","7",,,,,,,,,,,,,,,,,,,,,,,,,,,,,,,,,,,,,,"29.99","72","75","0.34","TS:7 +RA:02 BR:1 |RA TS |RA",,,"90",,"FEW:02 14 BKN:07 25 OVC:08 100","29.96","3.00","73","110",,"9",,,,,,,,,,,,,,,,,,,,,,,,,,,,,,,,,,,,,"MET21406/15/20 15:34:02 SPECI KMIA 152034Z 11008KT 3SM R09/1600V5000FT +TSRA BR FEW014 BKN025CB OVC100 24/22 A2999 RMK AO2 PK WND 04026/2023 LTG DSNT N AND NE RAB24 OCNL LTGICCG OHD TS OHD MOV STNRY P0034 T02390222 (RDR)","FM-16","7",,,,,,,,,,,,,,,,,,,,,,,,,,,,"2009-07-14"
"72202012839","2020-06-15T15:50:00","FM-16","7",,,,,,,,,,,,,,,,,,,,,,,,,,,,,,,,,,,,,,"30.00","72","75","0.70","|RA |RA",,,"89",,"FEW:02 14 SCT:04 22","29.97","6.00","73","240",,"5",,,,,,,,,,,,,,,,,,,,,,,,,,,,,,,,,,,,,"MET19806/15/20 15:50:02 SPECI KMIA 152050Z 24004KT 6SM R09/4500VP6000FT +RA BR FEW014 SCT022CB BKN0 24/22 A3000 RMK AO2 PK WND 04026/2023 LTG DSNT N AND NE RAB24 TSE49 TS DSIPTD CB ALQDS MOV S P0070 (RDR)","FM-16","7",,,,,,,,,,,,,,,,,,,,,,,,,,,,"2009-07-14"
"72202012839","2020-06-15T15:53:00","FM-15","7",,,,,,,,,,,,,,,,,,,,,,,,,,,,,,,,,,,,,,"30.00","71","75","0.76s","|RA |RA","+0.00","6","88","29.99","FEW:02 14 SCT:04 22","29.97","6.00","72","VRB",,"3",,,,,,,,,,,,,,,,,,,,,,,,,,,,,,,,,,,,,"MET22706/15/20 15:53:02 METAR KMIA 152053Z VRB03KT 6SM R09/5500VP6000FT +RA BR FEW014 SCT022CB BKN0 24/22 A3000 RMK AO2 PK WND 04026/2023 LTG DSNT N AND NE RAB24 TSE49 SLP157 TS DSIPTD CB ALQDS MOV S P0072 60072 T02390217 56000 (RDR)","FM-15","7",,,,,,,,,,,,,,,,,,,,,,,,,,,,"2009-07-14"
"72202012839","2020-06-15T16:00:00","FM-12","4",,,,,,,,,,,,,,,,,,,,,,,,,,,,,,,,,,,,,,,"71","75",,"||RA","0.00","4","88","29.99","15","29.97","5.59","72",,,"3",,,,,,,,,,,,,,,,,,,,,,,,,,,,,,,,,,,,,"SYN08672202 11459 8//03 10239 20217 30149 40157 56000 60187 765// 92053 333 96010 555 91521=","FM-12","4",,,,,,,,,,,,,,,,,,,,,,,,,,,,"2009-07-14"
"72202012839","2020-06-15T16:53:00","FM-15","7",,,,,,,,,,,,,,,,,,,,,,,,,,,,,,,,,,,,,,"30.00","71","75","0.06",,,,"88","30.00","SCT:04 14 SCT:04 45","29.97","10.00","72","050","21","14",,,,,,,,,,,,,,,,,,,,,,,,,,,,,,,,,,,,,"MET17306/15/20 16:53:02 METAR KMIA 152153Z 05012G18KT 10SM SCT014CB SCT045 BKN0 24/22 A3000 RMK AO2 LTG DSNT ALQDS RAE39 SLP158 CB NE-SE-SW MOV SE CB DSNT NW P0010 T02390217 (RDR)","FM-15","7",,,,,,,,,,,,,,,,,,,,,,,,,,,,"2009-07-14"
"72202012839","2020-06-15T17:19:00","FM-16","7",,,,,,,,,,,,,,,,,,,,,,,,,,,,,,,,,,,,,,"30.01","69","75",,"||RA",,,"82",,"FEW:02 16 SCT:04 47","29.98","10.00","71","080",,"9",,,,,,,,,,,,,,,,,,,,,,,,,,,,,,,,,,,,,"MET16106/15/20 17:19:02 SPECI KMIA 152219Z 08008KT 10SM VCTS FEW016CB SCT047 BKN0 24/21 A3001 RMK AO2 LTG DSNT E AND W AND NW TSE13 CB S AND DSNT SW-NW T02390206 (RDR)","FM-16","7",,,,,,,,,,,,,,,,,,,,,,,,,,,,"2009-07-14"
"72202012839","2020-06-15T17:34:00","FM-16","7",,,,,,,,,,,,,,,,,,,,,,,,,,,,,,,,,,,,,,"30.01","71","76",,,,,"85",,"FEW:02 16 SCT:04 45","29.98","10.00","73","080",,"7",,,,,,,,,,,,,,,,,,,,,,,,,,,,,,,,,,,,,"MET15006/15/20 17:34:02 SPECI KMIA 152234Z 08006KT 10SM FEW016CB SCT045 SCT0 25/22 A3001 RMK AO2 LTG DSNT E AND NW TSE13 CB S AND DSNT SW-NW T02440217 (RDR)","FM-16","7",,,,,,,,,,,,,,,,,,,,,,,,,,,,"2009-07-14"
"72202012839","2020-06-15T17:53:00","FM-15","7",,,,,,,,,,,,,,,,,,,,,,,,,,,,,,,,,,,,,,"30.01","70","77","0.00",,,,"79","30.01","FEW:02 20 FEW:02 45","29.98","10.00","72","070",,"6",,,,,,,,,,,,,,,,,,,,,,,,,,,,,,,,,,,,,"MET15706/15/20 17:53:02 METAR KMIA 152253Z 07005KT 10SM FEW020CB FEW045 SCT0 25/21 A3001 RMK AO2 LTG DSNT W AND NW TSE13 SLP162 CB S AND DSNT SW-NW T02500211 (RDR)","FM-15","7",,,,,,,,,,,,,,,,,,,,,,,,,,,,"2009-07-14"
"72202012839","2020-06-15T18:53:00","FM-15","7",,,,,,,,,,,,,,,,,,,,,,,,,,,,,,,,,,,,,,"30.03","72","75","0.01","|RA |RA","-0.04","3","90","30.03","FEW:02 20 SCT:04 90 BKN:07 110","30.00","8.00","73","200",,"8",,,,,,,,,,,,,,,,,,,,,,,,,,,,,,,,,,,,,"MET19406/15/20 18:53:02 METAR KMIA 152353Z 20007KT 8SM -RA FEW020 SCT090 BKN110 24/22 A3003 RMK AO2 LTG DSNT SW RAB37 SLP170 OCNL LTGIC DSNT SW CB DSNT SW P0001 60083 T02390222 10300 20239 53012 (RDR)","FM-15","7",,,,,,,,,,,,,,,,,,,,,,,,,,,,"2009-07-14"
"72202012839","2020-06-15T19:00:00","FM-12","4",,,,,,,,,,,,,,,,,,,,,,,,,,,,,,,,,,,,,,,"72","75",,"||RA","-0.04","3","90","30.03","26","30.00","7.46","73","200",,"8",,,,,,,,,,,,,,,,,,,,,,,,,,,,,,,,,,,,,"SYN09272202 11562 82007 10239 20222 30159 40170 53012 60211 761// 92353 333 10311 20239 555 91600=","FM-12","4",,,,,,,,,,,,,,,,,,,,,,,,,,,,"2009-07-14"
"72202012839","2020-06-15T19:53:00","FM-15","7",,,,,,,,,,,,,,,,,,,,,,,,,,,,,,,,,,,,,,"30.04","72","75","0.01","-RA:02 |RA |RA",,,"90","30.04","FEW:02 20 BKN:07 140 OVC:08 250","30.01","10.00","73","270",,"6",,,,,,,,,,,,,,,,,,,,,,,,,,,,,,,,,,,,,"MET12606/15/20 19:53:01 METAR KMIA 160053Z 27005KT 10SM -RA FEW020 BKN140 OVC250 24/22 A3004 RMK AO2 RAE19B39 SLP173 P0001 T02390222","FM-15","7",,,,,,,,,,,,,,,,,,,,,,,,,,,,"2009-07-14"
"72202012839","2020-06-15T20:53:00","FM-15","7",,,,,,,,,,,,,,,,,,,,,,,,,,,,,,,,,,,,,,"30.05","73","75","T","|RA |RA",,,"94","30.04","FEW:02 20 FEW:02 80 BKN:07 130","30.02","10.00","74","240",,"3",,,,,,,,,,,,,,,,,,,,,,,,,,,,,,,,,,,,,"MET12606/15/20 20:53:01 METAR KMIA 160153Z 24003KT 10SM -RA FEW020 FEW080 BKN130 24/23 A3005 RMK AO2 RAE03B41 SLP174 P0000 T02390228","FM-15","7",,,,,,,,,,,,,,,,,,,,,,,,,,,,"2009-07-14"
"72202012839","2020-06-15T21:53:00","FM-15","7",,,,,,,,,,,,,,,,,,,,,,,,,,,,,,,,,,,,,,"30.05","73","75","T",,"-0.01","0","94","30.04","FEW:02 80 BKN:07 130 OVC:08 250","30.02","10.00","74","000",,"0",,,,,,,,,,,,,,,,,,,,,,,,,,,,,,,,,,,,,"MET13106/15/20 21:53:01 METAR KMIA 160253Z 00000KT 10SM FEW080 BKN130 OVC250 24/23 A3005 RMK AO2 RAE36 SLP174 P0000 60001 T02390228 50004","FM-15","7",,,,,,,,,,,,,,,,,,,,,,,,,,,,"2009-07-14"
"72202012839","2020-06-15T22:00:00","FM-12","4",,,,,,,,,,,,,,,,,,,,,,,,,,,,,,,,,,,,,,,"73","75",,,"0.01","9","94","30.04","74","30.02","9.94","74","000",,"0",,,,,,,,,,,,,,,,,,,,,,,,,,,,,,,,,,,,,"SYN07072202 12866 80000 10239 20228 30166 40174 50004 69937 90253 555 91603=","FM-12","4",,,,,,,,,,,,,,,,,,,,,,,,,,,,"2009-07-14"
"72202012839","2020-06-15T22:53:00","FM-15","7",,,,,,,,,,,,,,,,,,,,,,,,,,,,,,,,,,,,,,"30.04","74","75","0.00",,,,"96","30.04","FEW:02 130 BKN:07 200","30.01","10.00","74","330",,"3",,,,,,,,,,,,,,,,,,,,,,,,,,,,,,,,,,,,,"MET10006/15/20 22:53:02 METAR KMIA 160353Z 33003KT 10SM FEW130 BKN200 24/23 A3004 RMK AO2 SLP174 T02390233","FM-15","7",,,,,,,,,,,,,,,,,,,,,,,,,,,,"2009-07-14"
"72202012839","2020-06-15T23:53:00","FM-15","7",,,,,,,,,,,,,,,,,,,,,,,,,,,,,,,,,,,,,,"30.04","74","75","0.00",,,,"96","30.03","FEW:02 24 SCT:04 250","30.01","10.00","74","000",,"0",,,,,,,,,,,,,,,,,,,,,,,,,,,,,,,,,,,,,"MET11006/15/20 23:53:02 METAR KMIA 160453Z 00000KT 10SM FEW024 SCT250 24/23 A3004 RMK AO2 SLP171 T02390233 403610239","FM-15","7",,,,,,,,,,,,,,,,,,,,,,,,,,,,"2009-07-14"
"72202012839","2020-06-15T23:59:00","SOD  ","6",,,,,,,,,,,,,,,"73","81","81","30.01","29.97","75","3.7","16","-1.8","0","88","73","040","30","0.84",,,"040","24","TS RA BR",,,,,,,,,,,,,,,,,,,,,,,,,,,,,,,,,,,,,,,,,,,,,,,,,,,,,,,,"SOD75824 HR PRECIPITATION (IN): 0.84 SNOW DEPTH (IN):0     24 HR SNOWFALL (IN):0.0  WEATHER(CODE):138  24 HR MAX TEMP (F): 8824 HR MIN TEMP (F): 73AVERAGE STATION PRESSURE:29.970 MINIMUM SEA LEVEL PRESSURE:29.98 TIME OF OCCURRENCE:1619 PEAK WIND SPEED (MPH): 29 PEAK WIND DIR (DEG): 40 PEAK WIND TIME (LST):      FASTEST 2MIN SPEED (MPH): 24FASTEST 2MIN DIR (DEG): 40 FASTEST 2MIN TIME (LST):     AVERAGE WIND SPEED (MPH): 3.7 24 HR AVG TEMP (F): 81DEPART FROM NORMAL: -2  HEATING DEGREE DAYS:  0 COOLING DEGREE DAYS: 16 LATEST DAY MAX TEMP (0700-1900 LST):99  LATEST NIGHT MIN TEMP(1900-0800 LST):82 HOURLY INCREMENTAL PRECIPITATION VALUES (IN):.00 0.00 0.00 0.00 0.00 0.00 0.00 0.00 0.00 0.00 0.00 0.00 0.00 0.00 0.00 0.76 0.06 0.00 0.01 0.01 T    T    0.00 0.00","SOD  ","6",,,,,,,,,,,,,,,,,,,,,,,,,"0530","1914",,"2009-07-14"
"72202012839","2020-06-16T00:53:00","FM-15","7",,,,,,,,,,,,,,,,,,,,,,,,,,,,,,,,,,,,,,"30.02","73","76","0.00",,"+0.02","8","91","30.02","FEW:02 25 BKN:07 250","29.99","10.00","74","000",,"0",,,,,,,,,,,,,,,,,,,,,,,,,,,,,,,,,,,,,"MET12906/16/20 00:53:02 METAR KMIA 160553Z 00000KT 10SM FEW025 BKN250 24/23 A3002 RMK AO2 SLP167 60001 T02440228 10244 20239 58007 (EM)","FM-15","7",,,,,,,,,,,,,,,,,,,,,,,,,,,,"2009-07-14"
"72202012839","2020-06-16T01:00:00","FM-12","4",,,,,,,,,,,,,,,,,,,,,,,,,,,,,,,,,,,,,,,"73","76",,,"+0.02","8","91","30.02","26","29.99","9.94","74","000",,"0",,,,,,,,,,,,,,,,,,,,,,,,,,,,,,,,,,,,,"SYN08672202 12566 60000 10244 20228 30156 40167 58007 69931 90553 333 10261 20239 555 91606=","FM-12","4",,,,,,,,,,,,,,,,,,,,,,,,,,,,"2009-07-14"
"72202012839","2020-06-16T01:53:00","FM-15","7",,,,,,,,,,,,,,,,,,,,,,,,,,,,,,,,,,,,,,"30.02","74","76","0.00",,,,"94","30.01","BKN:07 250","29.99","10.00","75","000",,"0",,,,,,,,,,,,,,,,,,,,,,,,,,,,,,,,,,,,,"MET09806/16/20 01:53:02 METAR KMIA 160653Z 00000KT 10SM BKN250 24/23 A3002 RMK AO2 SLP164 T02440233 (EM)","FM-15","7",,,,,,,,,,,,,,,,,,,,,,,,,,,,"2009-07-14"
"72202012839","2020-06-16T02:53:00","FM-15","7",,,,,,,,,,,,,,,,,,,,,,,,,,,,,,,,,,,,,,"30.01","73","76","0.00",,,,"91","30.01","SCT:04 250","29.98","10.00","74","350",,"3",,,,,,,,,,,,,,,,,,,,,,,,,,,,,,,,,,,,,"MET09806/16/20 02:53:02 METAR KMIA 160753Z 35003KT 10SM SCT250 24/23 A3001 RMK AO2 SLP161 T02440228 (EM)","FM-15","7",,,,,,,,,,,,,,,,,,,,,,,,,,,,"2009-07-14"
"72202012839","2020-06-16T03:53:00","FM-15","7",,,,,,,,,,,,,,,,,,,,,,,,,,,,,,,,,,,,,,"30.01","73","76","0.00",,"+0.01","5","91","30.01","SCT:04 250","29.98","10.00","74","360",,"5",,,,,,,,,,,,,,,,,,,,,,,,,,,,,,,,,,,,,"MET10406/16/20 03:53:02 METAR KMIA 160853Z 36004KT 10SM SCT250 24/23 A3001 RMK AO2 SLP163 T02440228 55004 (EM)","FM-15","7",,,,,,,,,,,,,,,,,,,,,,,,,,,,"2009-07-14"
"72202012839","2020-06-16T04:00:00","FM-12","4",,,,,,,,,,,,,,,,,,,,,,,,,,,,,,,,,,,,,,,"73","76",,,"+0.01","5","91","30.01",,"29.98","9.94","74","360",,"5",,,,,,,,,,,,,,,,,,,,,,,,,,,,,,,,,,,,,"SYN06472202 32966 43604 10244 20228 30152 40163 55004 90853 555 91609=","FM-12","4",,,,,,,,,,,,,,,,,,,,,,,,,,,,"2009-07-14"
"72202012839","2020-06-16T04:53:00","FM-15","7",,,,,,,,,,,,,,,,,,,,,,,,,,,,,,,,,,,,,,"30.02","71","74","0.00",,,,"91","30.02","FEW:02 25 BKN:07 250","29.99","10.00","72","010",,"3",,,,,,,,,,,,,,,,,,,,,,,,,,,,,,,,,,,,,"MET11806/16/20 04:53:02 METAR KMIA 160953Z 01003KT 10SM FEW025 BKN250 23/22 A3002 RMK AO2 SLP165 CB DSNT E-SE T02330217 (EM)","FM-15","7",,,,,,,,,,,,,,,,,,,,,,,,,,,,"2009-07-14"
"72202012839","2020-06-16T05:53:00","FM-15","7",,,,,,,,,,,,,,,,,,,,,,,,,,,,,,,,,,,,,,"30.02","72","73","0.00",,,,"96","30.02","FEW:02 25 SCT:04 250","29.99","10.00","72","360",,"3",,,,,,,,,,,,,,,,,,,,,,,,,,,,,,,,,,,,,"MET12706/16/20 05:53:02 METAR KMIA 161053Z 36003KT 10SM FEW025 SCT250 23/22 A3002 RMK AO2 SLP166 CB DSNT SE MOV STNRY T02280222 (RLW)","FM-15","7",,,,,,,,,,,,,,,,,,,,,,,,,,,,"2009-07-14"
"72202012839","2020-06-16T06:53:00","FM-15","7",,,,,,,,,,,,,,,,,,,,,,,,,,,,,,,,,,,,,,"30.04","72","76","0.00",,"-0.02","3","88","30.03","FEW:02 25 FEW:02 250","30.01","10.00","73","360",,"7",,,,,,,,,,,,,,,,,,,,,,,,,,,,,,,,,,,,,"MET15306/16/20 06:53:02 METAR KMIA 161153Z 36006KT 10SM FEW025 FEW250 23/22 A3004 RMK AO2 SLP171 CB DSNT E-SE MOV STNRY 70084 T02440222 10244 20228 53008 (RLW)","FM-15","7",,,,,,,,,,,,,,,,,,,,,,,,,,,,"2009-07-14"
"72202012839","2020-06-16T07:00:00","FM-12","4",,,,,,,,,,,,,,,,,,,,,,,,,,,,,,,,,,,,,,,"72","76",,,"-0.02","3","88","30.03","26","30.01","9.94","73","360",,"7",,,,,,,,,,,,,,,,,,,,,,,,,,,,,,,,,,,,,"SYN08672202 32566 23606 10244 20222 30163 40171 53008 91153 333 10361 20228 70213 555 91612=","FM-12","4",,,,,,,,,,,,,,,,,,,,,,,,,,,,"2009-07-14"
"72202012839","2020-06-16T07:53:00","FM-15","7",,,,,,,,,,,,,,,,,,,,,,,,,,,,,,,,,,,,,,"30.05","72","79","0.00",,,,"79","30.05","FEW:02 25 FEW:02 250","30.02","10.00","74","030",,"7",,,,,,,,,,,,,,,,,,,,,,,,,,,,,,,,,,,,,"MET10606/16/20 07:53:02 METAR KMIA 161253Z 03006KT 10SM FEW025 FEW250 26/22 A3005 RMK AO2 SLP176 T02610222 (RLW)","FM-15","7",,,,,,,,,,,,,,,,,,,,,,,,,,,,"2009-07-14"
"72202012839","2020-06-16T08:53:00","FM-15","7",,,,,,,,,,,,,,,,,,,,,,,,,,,,,,,,,,,,,,"30.05","72","82","0.00",,,,"72","30.05","FEW:02 25 FEW:02 90 FEW:02 250","30.02","10.00","75","VRB",,"6",,,,,,,,,,,,,,,,,,,,,,,,,,,,,,,,,,,,,"MET11306/16/20 08:53:02 METAR KMIA 161353Z VRB05KT 10SM FEW025 FEW090 FEW250 28/22 A3005 RMK AO2 SLP177 T02780222 (RLW)","FM-15","7",,,,,,,,,,,,,,,,,,,,,,,,,,,,"2009-07-14"
"72202012839","2020-06-16T09:53:00","FM-15","7",,,,,,,,,,,,,,,,,,,,,,,,,,,,,,,,,,,,,,"30.07","72","84","0.00",,"-0.03","1","67","30.06","FEW:02 27 FEW:02 90 FEW:02 250","30.04","10.00","76","030",,"7",,,,,,,,,,,,,,,,,,,,,,,,,,,,,,,,,,,,,"MET11906/16/20 09:53:02 METAR KMIA 161453Z 03006KT 10SM FEW027 FEW090 FEW250 29/22 A3007 RMK AO2 SLP181 T02890222 51010 (RLW)","FM-15","7",,,,,,,,,,,,,,,,,,,,,,,,,,,,"2009-07-14"
"72202012839","2020-06-16T10:00:00","FM-12","4",,,,,,,,,,,,,,,,,,,,,,,,,,,,,,,,,,,,,,,"72","84",,,"-0.03","1","67","30.06","26","30.04","9.94","76","030",,"7",,,,,,,,,,,,,,,,,,,,,,,,,,,,,,,,,,,,,"SYN06472202 32566 20306 10289 20222 30173 40181 51010 91453 555 91615=","FM-12","4",,,,,,,,,,,,,,,,,,,,,,,,,,,,"2009-07-14"
"72202012839","2020-06-16T10:53:00","FM-15","7",,,,,,,,,,,,,,,,,,,,,,,,,,,,,,,,,,,,,,"30.06","67","86","0.00",,,,"53","30.06","FEW:02 30 FEW:02 40 SCT:04 250","30.03","10.00","73","VRB",,"6",,,,,,,,,,,,,,,,,,,,,,,,,,,,,,,,,,,,,"MET11306/16/20 10:53:02 METAR KMIA 161553Z VRB05KT 10SM FEW030 FEW040 SCT250 30/19 A3006 RMK AO2 SLP180 T03000194 (RLW)","FM-15","7",,,,,,,,,,,,,,,,,,,,,,,,,,,,"2009-07-14"
"72202012839","2020-06-16T11:53:00","FM-15","7",,,,,,,,,,,,,,,,,,,,,,,,,,,,,,,,,,,,,,"30.05","65","88","0.00",,,,"47","30.05","SCT:04 48 SCT:04 80 BKN:07 250","30.02","10.00","73","040",,"9",,,,,,,,,,,,,,,,,,,,,,,,,,,,,,,,,,,,,"MET11306/16/20 11:53:02 METAR KMIA 161653Z 04008KT 10SM SCT048 SCT080 BKN250 31/18 A3005 RMK AO2 SLP175 T03100183 (RLW)","FM-15","7",,,,,,,,,,,,,,,,,,,,,,,,,,,,"2009-07-14"
"72202012839","2020-06-16T12:53:00","FM-15","7",,,,,,,,,,,,,,,,,,,,,,,,,,,,,,,,,,,,,,"30.05","69","88","0.00",,"+0.01","5","54","30.05","SCT:04 40 BKN:07 60 BKN:07 80","30.02","10.00","75","080",,"13",,,,,,,,,,,,,,,,,,,,,,,,,,,,,,,,,,,,,"MET13106/16/20 12:53:02 METAR KMIA 161753Z 08011KT 10SM SCT040 BKN060 BKN080 31/20 A3005 RMK AO2 SLP176 T03110206 10311 20228 55005 (RLW)","FM-15","7",,,,,,,,,,,,,,,,,,,,,,,,,,,,"2009-07-14"
"72202012839","2020-06-16T13:00:00","FM-12","4",,,,,,,,,,,,,,,,,,,,,,,,,,,,,,,,,,,,,,,"69","88",,,"+0.01","5","54","30.05","41","30.02","9.94","75","080",,"13",,,,,,,,,,,,,,,,,,,,,,,,,,,,,,,,,,,,,"SYN08072202 32666 60811 10311 20206 30166 40176 55005 91753 333 10311 20228 555 91618=","FM-12","4",,,,,,,,,,,,,,,,,,,,,,,,,,,,"2009-07-14"
"72202012839","2020-06-16T13:53:00","FM-15","7",,,,,,,,,,,,,,,,,,,,,,,,,,,,,,,,,,,,,,"30.04","68","84","0.00",,,,"59","30.03","BKN:07 45 BKN:07 85 BKN:07 250","30.01","10.00","73","050","20","14",,,,,,,,,,,,,,,,,,,,,,,,,,,,,,,,,,,,,"MET11606/16/20 13:53:02 METAR KMIA 161853Z 05012G17KT 10SM BKN045 BKN085 BKN250 29/20 A3004 RMK AO2 SLP171 T02890200 (RDR)","FM-15","7",,,,,,,,,,,,,,,,,,,,,,,,,,,,"2009-07-14"
"72202012839","2020-06-16T14:53:00","FM-15","7",,,,,,,,,,,,,,,,,,,,,,,,,,,,,,,,,,,,,,"30.03","66","88","0.00",,,,"48","30.03","FEW:02 30 FEW:02 45 SCT:04 80","30.00","10.00","73","080",,"14",,,,,,,,,,,,,,,,,,,,,,,,,,,,,,,,,,,,,"MET11306/16/20 14:53:02 METAR KMIA 161953Z 08012KT 10SM FEW030 FEW045 SCT080 31/19 A3003 RMK AO2 SLP168 T03110189 (RDR)","FM-15","7",,,,,,,,,,,,,,,,,,,,,,,,,,,,"2009-07-14"
"72202012839","2020-06-16T15:53:00","FM-15","7",,,,,,,,,,,,,,,,,,,,,,,,,,,,,,,,,,,,,,"30.02","64","86","0.00",,"+0.03","6","48","30.02","FEW:02 45 FEW:02 80 SCT:04 250","29.99","10.00","72","080",,"14",,,,,,,,,,,,,,,,,,,,,,,,,,,,,,,,,,,,,"MET11906/16/20 15:53:02 METAR KMIA 162053Z 08012KT 10SM FEW045 FEW080 SCT250 30/18 A3002 RMK AO2 SLP167 T03000178 56009 (RDR)","FM-15","7",,,,,,,,,,,,,,,,,,,,,,,,,,,,"2009-07-14"
"72202012839","2020-06-16T16:00:00","FM-12","4",,,,,,,,,,,,,,,,,,,,,,,,,,,,,,,,,,,,,,,"64","86",,,"+0.03","6","48","30.02","41","29.99","9.94","72","080",,"14",,,,,,,,,,,,,,,,,,,,,,,,,,,,,,,,,,,,,"SYN06472202 32666 40812 10300 20178 30156 40167 56009 92053 555 91621=","FM-12","4",,,,,,,,,,,,,,,,,,,,,,,,,,,,"2009-07-14"
"72202012839","2020-06-16T16:53:00","FM-15","7",,,,,,,,,,,,,,,,,,,,,,,,,,,,,,,,,,,,,,"30.02","66","84","0.00",,,,"55","30.02","FEW:02 40 FEW:02 90 SCT:04 250","29.99","10.00","72","VRB",,"10",,,,,,,,,,,,,,,,,,,,,,,,,,,,,,,,,,,,,"MET11306/16/20 16:53:02 METAR KMIA 162153Z 06009KT 10SM FEW040 FEW090 SCT250 29/19 A3002 RMK AO2 SLP166 T02890189 (RDR)","FM-15","7",,,,,,,,,,,,,,,,,,,,,,,,,,,,"2009-07-14"
"72202012839","2020-06-16T17:53:00","FM-15","7",,,,,,,,,,,,,,,,,,,,,,,,,,,,,,,,,,,,,,"30.02","66","84","0.00",,,,"55","30.02","FEW:02 40 FEW:02 90 FEW:02 250","29.99","10.00","72","040",,"11",,,,,,,,,,,,,,,,,,,,,,,,,,,,,,,,,,,,,"MET11306/16/20 17:53:02 METAR KMIA 162253Z 04010KT 10SM FEW040 FEW090 FEW250 29/19 A3002 RMK AO2 SLP165 T02890189 (RDR)","FM-15","7",,,,,,,,,,,,,,,,,,,,,,,,,,,,"2009-07-14"
"72202012839","2020-06-16T18:53:00","FM-15","7",,,,,,,,,,,,,,,,,,,,,,,,,,,,,,,,,,,,,,"30.02","64","82","0.00",,"-0.00","3","55","30.02","FEW:02 40 FEW:02 100 FEW:02 250","29.99","10.00","70","050",,"10",,,,,,,,,,,,,,,,,,,,,,,,,,,,,,,,,,,,,"MET13106/16/20 18:53:02 METAR KMIA 162353Z 05009KT 10SM FEW040 FEW100 FEW250 28/18 A3002 RMK AO2 SLP167 T02780178 10311 20278 53000 (RDR)","FM-15","7",,,,,,,,,,,,,,,,,,,,,,,,,,,,"2009-07-14"
"72202012839","2020-06-16T19:00:00","FM-12","4",,,,,,,,,,,,,,,,,,,,,,,,,,,,,,,,,,,,,,,"64","82",,,"0.00","4","55","30.02","41","29.99","9.94","70","050",,"10",,,,,,,,,,,,,,,,,,,,,,,,,,,,,,,,,,,,,"SYN08072202 32666 20509 10278 20178 30156 40167 53000 92353 333 10311 20228 555 91700=","FM-12","4",,,,,,,,,,,,,,,,,,,,,,,,,,,,"2009-07-14"
"72202012839","2020-06-16T19:53:00","FM-15","7",,,,,,,,,,,,,,,,,,,,,,,,,,,,,,,,,,,,,,"30.04","66","81","0.00",,,,"61","30.04","FEW:02 36 FEW:02 100 FEW:02 250","30.01","10.00","71","040",,"7",,,,,,,,,,,,,,,,,,,,,,,,,,,,,,,,,,,,,"MET10706/16/20 19:53:01 METAR KMIA 170053Z 04006KT 10SM FEW036 FEW100 FEW250 27/19 A3004 RMK AO2 SLP172 T02720189","FM-15","7",,,,,,,,,,,,,,,,,,,,,,,,,,,,"2009-07-14"
"72202012839","2020-06-16T20:53:00","FM-15","7",,,,,,,,,,,,,,,,,,,,,,,,,,,,,,,,,,,,,,"30.05","66","81","0.00",,,,"61","30.05","CLR:00","30.02","10.00","71","060",,"7",,,,,,,,,,,,,,,,,,,,,,,,,,,,,,,,,,,,,"MET09006/16/20 20:53:01 METAR KMIA 170153Z 06006KT 10SM CLR 27/19 A3005 RMK AO2 SLP176 T02720189","FM-15","7",,,,,,,,,,,,,,,,,,,,,,,,,,,,"2009-07-14"
"72202012839","2020-06-16T21:53:00","FM-15","7",,,,,,,,,,,,,,,,,,,,,,,,,,,,,,,,,,,,,,"30.06","67","80","0.00",,"-0.04","1","64","30.06","FEW:02 30","30.03","10.00","71","090",,"9",,,,,,,,,,,,,,,,,,,,,,,,,,,,,,,,,,,,,"MET09906/16/20 21:53:01 METAR KMIA 170253Z 09008KT 10SM FEW030 27/19 A3006 RMK AO2 SLP179 T02670194 51012","FM-15","7",,,,,,,,,,,,,,,,,,,,,,,,,,,,"2009-07-14"
"72202012839","2020-06-16T22:00:00","FM-12","4",,,,,,,,,,,,,,,,,,,,,,,,,,,,,,,,,,,,,,,"67","80",,,"-0.04","1","64","30.06","26","30.03","9.94","71","090",,"9",,,,,,,,,,,,,,,,,,,,,,,,,,,,,,,,,,,,,"SYN06472202 32566 20908 10267 20194 30169 40179 51012 90253 555 91703=","FM-12","4",,,,,,,,,,,,,,,,,,,,,,,,,,,,"2009-07-14"
"72202012839","2020-06-16T22:53:00","FM-15","7",,,,,,,,,,,,,,,,,,,,,,,,,,,,,,,,,,,,,,"30.06","68","79","0.00",,,,"69","30.06","FEW:02 35","30.03","10.00","72","090",,"11",,,,,,,,,,,,,,,,,,,,,,,,,,,,,,,,,,,,,"MET09306/16/20 22:53:02 METAR KMIA 170353Z 09010KT 10SM FEW035 26/20 A3006 RMK AO2 SLP178 T02610200","FM-15","7",,,,,,,,,,,,,,,,,,,,,,,,,,,,"2009-07-14"
"72202012839","2020-06-16T23:53:00","FM-15","7",,,,,,,,,,,,,,,,,,,,,,,,,,,,,,,,,,,,,,"30.05","69","79","0.00",,,,"72","30.05","FEW:02 35","30.02","10.00","72","090",,"8",,,,,,,,,,,,,,,,,,,,,,,,,,,,,,,,,,,,,"MET10306/16/20 23:53:02 METAR KMIA 170453Z 09007KT 10SM FEW035 26/21 A3005 RMK AO2 SLP177 T02610206 403110228","FM-15","7",,,,,,,,,,,,,,,,,,,,,,,,,,,,"2009-07-14"
"72202012839","2020-06-16T23:59:00","SOD  ","6",,,,,,,,,,,,,,,"69","81","68","30.03","29.99","73","7.7","16","-1.8","0","88","73","090","27","0.00",,,"090","20",,,,,,,,,,,,,,,,,,,,,,,,,,,,,,,,,,,,,,,,,,,,,,,,,,,,,,,,,"SOD65924 HR PRECIPITATION (IN): 0.00 SNOW DEPTH (IN):0     24 HR SNOWFALL (IN):0.0  24 HR MAX TEMP (F): 8824 HR MIN TEMP (F): 73AVERAGE STATION PRESSURE:29.995 MINIMUM SEA LEVEL PRESSURE:30.00 TIME OF OCCURRENCE:0254 PEAK WIND SPEED (MPH): 27 PEAK WIND DIR (DEG): 90 PEAK WIND TIME (LST):      FASTEST 2MIN SPEED (MPH): 20FASTEST 2MIN DIR (DEG): 90 FASTEST 2MIN TIME (LST):     AVERAGE WIND SPEED (MPH): 7.7 24 HR AVG TEMP (F): 81DEPART FROM NORMAL: -2  HEATING DEGREE DAYS:  0 COOLING DEGREE DAYS: 16 HOURLY INCREMENTAL PRECIPITATION VALUES (IN):.00 0.00 0.00 0.00 0.00 0.00 0.00 0.00 0.00 0.00 0.00 0.00 0.00 0.00 0.00 0.00 0.00 0.00 0.00 0.00 0.00 0.00 0.00 0.00","SOD  ","6",,,,,,,,,,,,,,,,,,,,,,,,,"0530","1915",,"2009-07-14"
"72202012839","2020-06-17T00:53:00","FM-15","7",,,,,,,,,,,,,,,,,,,,,,,,,,,,,,,,,,,,,,"30.05","70","78","0.00",,"+0.01","8","76","30.04","FEW:02 34","30.02","10.00","73","090",,"9",,,,,,,,,,,,,,,,,,,,,,,,,,,,,,,,,,,,,"MET11606/17/20 00:53:02 METAR KMIA 170553Z 09008KT 10SM FEW034 26/21 A3005 RMK AO2 SLP174 T02560211 10278 20256 58005 (AM)","FM-15","7",,,,,,,,,,,,,,,,,,,,,,,,,,,,"2009-07-14"
"72202012839","2020-06-17T01:00:00","FM-12","4",,,,,,,,,,,,,,,,,,,,,,,,,,,,,,,,,,,,,,,"70","78",,,"+0.01","8","76","30.04","41","30.02","9.94","73","090",,"9",,,,,,,,,,,,,,,,,,,,,,,,,,,,,,,,,,,,,"SYN08072202 32666 20908 10256 20211 30166 40174 58005 90553 333 10278 20228 555 91706=","FM-12","4",,,,,,,,,,,,,,,,,,,,,,,,,,,,"2009-07-14"
"72202012839","2020-06-17T01:53:00","FM-15","7",,,,,,,,,,,,,,,,,,,,,,,,,,,,,,,,,,,,,,"30.03","70","78","0.00",,,,"76","30.03","FEW:02 33","30.00","10.00","73","090",,"8",,,,,,,,,,,,,,,,,,,,,,,,,,,,,,,,,,,,,"MET09806/17/20 01:53:02 METAR KMIA 170653Z 09007KT 10SM FEW033 26/21 A3003 RMK AO2 SLP169 T02560211 (AM)","FM-15","7",,,,,,,,,,,,,,,,,,,,,,,,,,,,"2009-07-14"
"72202012839","2020-06-17T02:53:00","FM-15","7",,,,,,,,,,,,,,,,,,,,,,,,,,,,,,,,,,,,,,"30.02","69","77","0.00",,,,"77","30.02","FEW:02 33","29.99","10.00","72","100",,"5",,,,,,,,,,,,,,,,,,,,,,,,,,,,,,,,,,,,,"MET09806/17/20 02:53:02 METAR KMIA 170753Z 10004KT 10SM FEW033 25/21 A3002 RMK AO2 SLP166 T02500206 (AM)","FM-15","7",,,,,,,,,,,,,,,,,,,,,,,,,,,,"2009-07-14"
"72202012839","2020-06-17T03:53:00","FM-15","7",,,,,,,,,,,,,,,,,,,,,,,,,,,,,,,,,,,,,,"30.02","70","77","0.00",,"+0.02","5","79","30.02","FEW:02 32","29.99","10.00","72","360",,"5",,,,,,,,,,,,,,,,,,,,,,,,,,,,,,,,,,,,,"MET10406/17/20 03:53:02 METAR KMIA 170853Z 36004KT 10SM FEW032 25/21 A3002 RMK AO2 SLP166 T02500211 55008 (AM)","FM-15","7",,,,,,,,,,,,,,,,,,,,,,,,,,,,"2009-07-14"
"72202012839","2020-06-17T04:00:00","FM-12","4",,,,,,,,,,,,,,,,,,,,,,,,,,,,,,,,,,,,,,,"70","77",,,"+0.02","5","79","30.02","26","29.99","9.94","72","360",,"5",,,,,,,,,,,,,,,,,,,,,,,,,,,,,,,,,,,,,"SYN06472202 32566 23604 10250 20211 30156 40166 55008 90853 555 91709=","FM-12","4",,,,,,,,,,,,,,,,,,,,,,,,,,,,"2009-07-14"
"72202012839","2020-06-17T04:53:00","FM-15","7",,,,,,,,,,,,,,,,,,,,,,,,,,,,,,,,,,,,,,"30.03","70","78","0.00",,,,"76","30.03","FEW:02 32","30.00","10.00","73","360",,"3",,,,,,,,,,,,,,,,,,,,,,,,,,,,,,,,,,,,,"MET09806/17/20 04:53:02 METAR KMIA 170953Z 36003KT 10SM FEW032 26/21 A3003 RMK AO2 SLP168 T02560211 (AM)","FM-15","7",,,,,,,,,,,,,,,,,,,,,,,,,,,,"2009-07-14"
"72202012839","2020-06-17T05:53:00","FM-15","7",,,,,,,,,,,,,,,,,,,,,,,,,,,,,,,,,,,,,,"30.04","70","78","0.00",,,,"76","30.04","FEW:02 27","30.01","10.00","73","360",,"3",,,,,,,,,,,,,,,,,,,,,,,,,,,,,,,,,,,,,"MET09906/17/20 05:53:02 METAR KMIA 171053Z 36003KT 10SM FEW027 26/21 A3004 RMK AO2 SLP172 T02560211 (RLW)","FM-15","7",,,,,,,,,,,,,,,,,,,,,,,,,,,,"2009-07-14"
"72202012839","2020-06-17T06:53:00","FM-15","7",,,,,,,,,,,,,,,,,,,,,,,,,,,,,,,,,,,,,,"30.04","72","81","0.00",,"-0.02","1","74","30.04","FEW:02 24","30.01","10.00","75","020",,"5",,,,,,,,,,,,,,,,,,,,,,,,,,,,,,,,,,,,,"MET11706/17/20 06:53:02 METAR KMIA 171153Z 02004KT 10SM FEW024 27/22 A3004 RMK AO2 SLP173 T02720222 10272 20250 51007 (RLW)","FM-15","7",,,,,,,,,,,,,,,,,,,,,,,,,,,,"2009-07-14"
"72202012839","2020-06-17T07:00:00","FM-12","4",,,,,,,,,,,,,,,,,,,,,,,,,,,,,,,,,,,,,,,"72","81",,,"-0.02","1","74","30.04","26","30.01","9.94","75","020",,"5",,,,,,,,,,,,,,,,,,,,,,,,,,,,,,,,,,,,,"SYN08072202 32566 20204 10272 20222 30163 40173 51007 91153 333 10311 20250 555 91712=","FM-12","4",,,,,,,,,,,,,,,,,,,,,,,,,,,,"2009-07-14"
"72202012839","2020-06-17T07:53:00","FM-15","7",,,,,,,,,,,,,,,,,,,,,,,,,,,,,,,,,,,,,,"30.05","73","83","0.00",,,,"72","30.05","FEW:02 23","30.02","10.00","76","050",,"7",,,,,,,,,,,,,,,,,,,,,,,,,,,,,,,,,,,,,"MET09906/17/20 07:53:02 METAR KMIA 171253Z 05006KT 10SM FEW023 28/23 A3005 RMK AO2 SLP177 T02830228 (RLW)","FM-15","7",,,,,,,,,,,,,,,,,,,,,,,,,,,,"2009-07-14"
"72202012839","2020-06-17T08:53:00","FM-15","7",,,,,,,,,,,,,,,,,,,,,,,,,,,,,,,,,,,,,,"30.06","72","84","0.11","-RA:02 |RA |RA",,,"67","30.06","SCT:04 25 BKN:07 33","30.03","7.00","76","070",,"11",,,,,,,,,,,,,,,,,,,,,,,,,,,,,,,,,,,,,"MET13006/17/20 08:53:02 METAR KMIA 171353Z 07010KT 7SM -RA SCT025CB BKN033 29/22 A3006 RMK AO2 RAB51 SLP180 CB N-E P0000 T02890222 (RLW)","FM-15","7",,,,,,,,,,,,,,,,,,,,,,,,,,,,"2009-07-14"
"72202012839","2020-06-17T09:53:00","FM-15","7",,,,,,,,,,,,,,,,,,,,,,,,,,,,,,,,,,,,,,"30.06","72","84","T",,"-0.02","1","67","30.06","SCT:04 27 BKN:07 45","30.03","10.00","76","090",,"11",,,,,,,,,,,,,,,,,,,,,,,,,,,,,,,,,,,,,"MET14606/17/20 09:53:02 METAR KMIA 171453Z 09010KT 10SM SCT027CB BKN045 29/22 A3006 RMK AO2 RAE17 SLP180 CB NE-E AND S P0011 60011 T02890222 51007 (RLW)","FM-15","7",,,,,,,,,,,,,,,,,,,,,,,,,,,,"2009-07-14"
"72202012839","2020-06-17T10:00:00","FM-12","4",,,,,,,,,,,,,,,,,,,,,,,,,,,,,,,,,,,,,,,"72","84",,,"-0.02","1","67","30.06","26","30.03","9.94","76","090",,"11",,,,,,,,,,,,,,,,,,,,,,,,,,,,,,,,,,,,,"SYN07072202 12566 60910 10289 20222 30169 40180 51007 60037 91453 555 91715=","FM-12","4",,,,,,,,,,,,,,,,,,,,,,,,,,,,"2009-07-14"
"72202012839","2020-06-17T10:53:00","FM-15","7",,,,,,,,,,,,,,,,,,,,,,,,,,,,,,,,,,,,,,"30.07","73","82","0.00",,,,"74","30.07","SCT:04 25 BKN:07 30 BKN:07 47","30.04","10.00","76","070",,"10",,,,,,,,,,,,,,,,,,,,,,,,,,,,,,,,,,,,,"MET13306/17/20 10:53:02 METAR KMIA 171553Z 07009KT 10SM SCT025 BKN030 BKN047 29/22 A3007 RMK AO2 SLP182 CB DSNT ALQDS MOV N T02780228 (RLW)","FM-15","7",,,,,,,,,,,,,,,,,,,,,,,,,,,,"2009-07-14"
"72202012839","2020-06-17T11:53:00","FM-15","7",,,,,,,,,,,,,,,,,,,,,,,,,,,,,,,,,,,,,,"30.07","72","83","0.00",,,,"70","30.07","SCT:04 22 BKN:07 85 BKN:07 100","30.04","10.00","75","070","20","15",,,,,,,,,,,,,,,,,,,,,,,,,,,,,,,,,,,,,"MET14906/17/20 11:53:02 METAR KMIA 171653Z 07013G17KT 10SM SCT022 BKN085 BKN100 28/22 A3007 RMK AO2 LTG DSNT SW SLP184 CB DSNT ALQDS MOV NE T02830222 (RLW)","FM-15","7",,,,,,,,,,,,,,,,,,,,,,,,,,,,"2009-07-14"
"72202012839","2020-06-17T12:53:00","FM-15","7",,,,,,,,,,,,,,,,,,,,,,,,,,,,,,,,,,,,,,"30.07","71","82","0.01","|RA |RA","-0.00","0","69","30.06","FEW:02 20 SCT:04 45 BKN:07 95","30.04","10.00","75","090",,"11",,,,,,,,,,,,,,,,,,,,,,,,,,,,,,,,,,,,,"MET19206/17/20 12:53:02 METAR KMIA 171753Z 09010KT 10SM -RA FEW020 SCT045 BKN095 28/22 A3007 RMK AO2 LTG DSNT SW AND W RAB30 SLP181 CB DSNT ALQDS MOV NE P0000 60011 T02780217 10289 20272 50001 (RLW)","FM-15","7",,,,,,,,,,,,,,,,,,,,,,,,,,,,"2009-07-14"
"72202012839","2020-06-17T13:00:00","FM-12","4",,,,,,,,,,,,,,,,,,,,,,,,,,,,,,,,,,,,,,,"71","82",,"||RA","0.00","9","69","30.06","26","30.04","9.94","75","090",,"11",,,,,,,,,,,,,,,,,,,,,,,,,,,,,,,,,,,,,"SYN09272202 11566 80910 10278 20217 30173 40181 50001 60031 761// 91753 333 10289 20272 555 91718=","FM-12","4",,,,,,,,,,,,,,,,,,,,,,,,,,,,"2009-07-14"
"72202012839","2020-06-17T13:53:00","FM-15","7",,,,,,,,,,,,,,,,,,,,,,,,,,,,,,,,,,,,,,"30.04","72","82","0.03","|RA |RA",,,"72","30.04","FEW:02 20 SCT:04 55 BKN:07 95","30.01","10.00","75","060",,"7",,,,,,,,,,,,,,,,,,,,,,,,,,,,,,,,,,,,,"MET16206/17/20 13:53:02 METAR KMIA 171853Z 06006KT 10SM -RA FEW020 SCT055 BKN095 28/22 A3004 RMK AO2 LTG DSNT E AND SW SLP173 CB DSNT E-S-W MOV NE P0004 T02780222 (RDR)","FM-15","7",,,,,,,,,,,,,,,,,,,,,,,,,,,,"2009-07-14"
"72202012839","2020-06-17T14:53:00","FM-15","7",,,,,,,,,,,,,,,,,,,,,,,,,,,,,,,,,,,,,,"30.05","75","80","T","-RA:02 |RA |RA",,,"85","30.05","SCT:04 24 BKN:07 43 OVC:08 150","30.02","10.00","77","090",,"15",,,,,,,,,,,,,,,,,,,,,,,,,,,,,,,,,,,,,"MET16406/17/20 14:53:02 METAR KMIA 171953Z 09013KT 10SM -RA SCT024CB BKN043 OVC150 27/24 A3005 RMK AO2 LTG DSNT SE SLP176 CB SW AND DSNT SE-S MOV NE P0000 T02670239 (RDR)","FM-15","7",,,,,,,,,,,,,,,,,,,,,,,,,,,,"2009-07-14"
"72202012839","2020-06-17T15:53:00","FM-15","7",,,,,,,,,,,,,,,,,,,,,,,,,,,,,,,,,,,,,,"30.04","75","81","0.01","|RA |RA","+0.02","6","82","30.04","SCT:04 25 BKN:07 48","30.01","10.00","77","080",,"11",,,,,,,,,,,,,,,,,,,,,,,,,,,,,,,,,,,,,"MET16806/17/20 15:53:02 METAR KMIA 172053Z 08010KT 10SM -RA SCT025CB BKN048 BKN0 27/24 A3004 RMK AO2 SLP173 CB SW-NW AND DSNT NE-SE-S MOV NE P0001 60005 T02720239 56008 (RDR)","FM-15","7",,,,,,,,,,,,,,,,,,,,,,,,,,,,"2009-07-14"
"72202012839","2020-06-17T16:00:00","FM-12","4",,,,,,,,,,,,,,,,,,,,,,,,,,,,,,,,,,,,,,,"75","81",,"||RA","+0.02","6","82","30.04","26","30.01","9.94","77","080",,"11",,,,,,,,,,,,,,,,,,,,,,,,,,,,,,,,,,,,,"SYN07672202 11566 80810 10272 20239 30163 40173 56008 60017 761// 92053 555 91721=","FM-12","4",,,,,,,,,,,,,,,,,,,,,,,,,,,,"2009-07-14"
"72202012839","2020-06-17T16:53:00","FM-15","7",,,,,,,,,,,,,,,,,,,,,,,,,,,,,,,,,,,,,,"30.04","74","80","T",,,,"82","30.04","SCT:04 17 BKN:07 48 BKN:07 85","30.01","10.00","76","090",,"13",,,,,,,,,,,,,,,,,,,,,,,,,,,,,,,,,,,,,"MET14006/17/20 16:53:02 METAR KMIA 172153Z 09011KT 10SM SCT017 BKN048 BKN085 27/23 A3004 RMK AO2 RAE03 SLP173 CB DSNT E-S-SW P0000 T02670233 (RDR)","FM-15","7",,,,,,,,,,,,,,,,,,,,,,,,,,,,"2009-07-14"
"72202012839","2020-06-17T17:33:00","FM-16","7",,,,,,,,,,,,,,,,,,,,,,,,,,,,,,,,,,,,,,"30.03","74","80","T","-RA:02 |RA |RA",,,"82",,"FEW:02 14 BKN:07 21 OVC:08 85","30.00","7.00","76","060","18","13",,,,,,,,,,,,,,,,,,,,,,,,,,,,,,,,,,,,,"MET14306/17/20 17:33:02 SPECI KMIA 172233Z 06011G16KT 7SM -RA FEW014 BKN021CB OVC085 27/23 A3003 RMK AO2 RAB00 CB OHD MOV STNRY P0000 T02670233 (RDR)","FM-16","7",,,,,,,,,,,,,,,,,,,,,,,,,,,,"2009-07-14"
"72202012839","2020-06-17T17:48:00","FM-16","7",,,,,,,,,,,,,,,,,,,,,,,,,,,,,,,,,,,,,,"30.04","72","75","0.01","|RA |RA",,,"89",,"SCT:04 21 BKN:07 32","30.01","7.00","73","VRB",,"8",,,,,,,,,,,,,,,,,,,,,,,,,,,,,,,,,,,,,"MET14506/17/20 17:48:02 SPECI KMIA 172248Z 05007KT 7SM R09/5000VP6000FT -RA SCT021CB BKN032 BKN0 24/22 A3004 RMK AO2 RAB00 CB OHD MOV STNRY P0001 (RDR)","FM-16","7",,,,,,,,,,,,,,,,,,,,,,,,,,,,"2009-07-14"
"72202012839","2020-06-17T17:53:00","FM-15","7",,,,,,,,,,,,,,,,,,,,,,,,,,,,,,,,,,,,,,"30.04","72","75","0.07","|RA |RA",,,"90","30.04","SCT:04 21 BKN:07 32","30.01","7.00","73","040",,"8",,,,,,,,,,,,,,,,,,,,,,,,,,,,,,,,,,,,,"MET16206/17/20 17:53:02 METAR KMIA 172253Z 04007KT 7SM R09/5000VP6000FT +RA SCT021CB BKN032 BKN0 24/22 A3004 RMK AO2 RAB00 SLP174 CB OHD MOV STNRY P0003 T02390222 (RDR)","FM-15","7",,,,,,,,,,,,,,,,,,,,,,,,,,,,"2009-07-14"
"72202012839","2020-06-17T18:04:00","FM-16","7",,,,,,,,,,,,,,,,,,,,,,,,,,,,,,,,,,,,,,"30.05","72","75","0.04","VCTS:7 RA:02 BR:1 |RA |RA",,,"90",,"SCT:04 21 BKN:07 49 OVC:08 65","30.02","6.00","73","040",,"9",,,,,,,,,,,,,,,,,,,,,,,,,,,,,,,,,,,,,"MET15906/17/20 18:04:02 SPECI KMIA 172304Z 04008KT 6SM VCTS RA BR SCT021CB BKN049 OVC065 24/22 A3005 RMK AO2 LTG DSNT W CB NE-SE-SW-W MOV STNRY P0004 T02390222 (RDR)","FM-16","7",,,,,,,,,,,,,,,,,,,,,,,,,,,,"2009-07-14"
"72202012839","2020-06-17T18:29:00","FM-16","7",,,,,,,,,,,,,,,,,,,,,,,,,,,,,,,,,,,,,,"30.04","72","75","0.05","|RA |RA",,,"90",,"SCT:04 21 SCT:04 49","30.01","10.00","73","VRB",,"3",,,,,,,,,,,,,,,,,,,,,,,,,,,,,,,,,,,,,"MET14106/17/20 18:29:02 SPECI KMIA 172329Z VRB03KT 10SM -RA SCT021CB SCT049 BKN0 24/22 A3004 RMK AO2 CB NE AND SW-W MOV STNRY P0005 T02390222 (RDR)","FM-16","7",,,,,,,,,,,,,,,,,,,,,,,,,,,,"2009-07-14"
"72202012839","2020-06-17T18:49:00","FM-16","7",,,,,,,,,,,,,,,,,,,,,,,,,,,,,,,,,,,,,,"30.06","72","75","0.07","|RA |RA",,,"89",,"FEW:02 21 SCT:04 49","30.03","7.00","73","170",,"5",,,,,,,,,,,,,,,,,,,,,,,,,,,,,,,,,,,,,"MET12906/17/20 18:49:02 SPECI KMIA 172349Z 17004KT 7SM VCTS RA FEW021CB SCT049 BKN0 24/22 A3006 RMK AO2 CB E-S-SW MOV STNRY P0007 (RDR)","FM-16","7",,,,,,,,,,,,,,,,,,,,,,,,,,,,"2009-07-14"
"72202012839","2020-06-17T18:53:00","FM-15","7",,,,,,,,,,,,,,,,,,,,,,,,,,,,,,,,,,,,,,"30.06","72","76","0.04","|RA |RA","-0.02","3","88","30.06","FEW:02 21 SCT:04 49","30.03","7.00","73","140",,"6",,,,,,,,,,,,,,,,,,,,,,,,,,,,,,,,,,,,,"MET17806/17/20 18:53:02 METAR KMIA 172353Z 14005KT 7SM VCTS -RA FEW021CB SCT049 BKN0 24/22 A3006 RMK AO2 PRESRR SLP181 CB E-S-SW MOV STNRY P0007 60015 T02440222 10278 20239 53008 (RDR)","FM-15","7",,,,,,,,,,,,,,,,,,,,,,,,,,,,"2009-07-14"
"72202012839","2020-06-17T19:00:00","FM-12","4",,,,,,,,,,,,,,,,,,,,,,,,,,,,,,,,,,,,,,,"72","76",,"||RA","-0.02","3","88","30.06","26","30.03","6.84","73","140",,"6",,,,,,,,,,,,,,,,,,,,,,,,,,,,,,,,,,,,,"SYN09872202 11561 81405 10244 20222 30169 40181 53008 60041 761// 92353 333 10289 20239 96061 555 91800=","FM-12","4",,,,,,,,,,,,,,,,,,,,,,,,,,,,"2009-07-14"
"72202012839","2020-06-17T19:04:00","FM-16","7",,,,,,,,,,,,,,,,,,,,,,,,,,,,,,,,,,,,,,"30.05","73","76","0.04","|RA |RA",,,"91",,"FEW:02 21 SCT:04 49","30.02","6.00","74","080",,"10",,,,,,,,,,,,,,,,,,,,,,,,,,,,,,,,,,,,,"MET13206/17/20 19:04:01 SPECI KMIA 180004Z 08009KT 6SM +RA BR FEW021CB SCT049 BKN0 24/23 A3005 RMK AO2 CB E-S-SW MOV STNRY P0004 T02440228","FM-16","7",,,,,,,,,,,,,,,,,,,,,,,,,,,,"2009-07-14"
"72202012839","2020-06-17T19:13:00","FM-16","7",,,,,,,,,,,,,,,,,,,,,,,,,,,,,,,,,,,,,,"30.06","73","76","0.07","TS:7 RA:02 BR:1 |RA TS |RA",,,"91",,"FEW:02 21 BKN:07 65 OVC:08 80","30.03","6.00","74","120",,"8",,,,,,,,,,,,,,,,,,,,,,,,,,,,,,,,,,,,,"MET14106/17/20 19:13:01 SPECI KMIA 180013Z 12007KT 6SM TSRA BR FEW021CB BKN065 OVC080 24/23 A3006 RMK AO2 TSB07 CB E-S-SW MOV STNRY P0007 T02440228","FM-16","7",,,,,,,,,,,,,,,,,,,,,,,,,,,,"2009-07-14"
"72202012839","2020-06-17T19:28:00","FM-16","7",,,,,,,,,,,,,,,,,,,,,,,,,,,,,,,,,,,,,,"30.06","73","76","0.09","RA:02 |RA |RA",,,"91",,"FEW:02 21 BKN:07 65 OVC:08 100","30.03","7.00","74","120",,"3",,,,,,,,,,,,,,,,,,,,,,,,,,,,,,,,,,,,,"MET13706/17/20 19:28:01 SPECI KMIA 180028Z 12003KT 7SM RA FEW021CB BKN065 OVC100 24/23 A3006 RMK AO2 TSB07E22 CB S-SW MOV STNRY P0009 T02440228","FM-16","7",,,,,,,,,,,,,,,,,,,,,,,,,,,,"2009-07-14"
"72202012839","2020-06-17T19:53:00","FM-15","7",,,,,,,,,,,,,,,,,,,,,,,,,,,,,,,,,,,,,,"30.05","70","73","0.15","RA:02 |RA |RA",,,"90","30.05","FEW:02 21 SCT:04 80 OVC:08 110","30.02","9.00","71","120",,"6",,,,,,,,,,,,,,,,,,,,,,,,,,,,,,,,,,,,,"MET12406/17/20 19:53:01 METAR KMIA 180053Z 12005KT 9SM RA FEW021 SCT080 OVC110 23/21 A3005 RMK AO2 TSB07E22 SLP176 P0015 T02280211","FM-15","7",,,,,,,,,,,,,,,,,,,,,,,,,,,,"2009-07-14"
"72202012839","2020-06-17T20:53:00","FM-15","7",,,,,,,,,,,,,,,,,,,,,,,,,,,,,,,,,,,,,,"30.06","71","74","0.14","RA:02 |RA |RA",,,"91","30.06","FEW:02 20 SCT:04 90 OVC:08 120","30.03","7.00","72","080",,"6",,,,,,,,,,,,,,,,,,,,,,,,,,,,,,,,,,,,,"MET11506/17/20 20:53:01 METAR KMIA 180153Z 08005KT 7SM RA FEW020 SCT090 OVC120 23/22 A3006 RMK AO2 SLP179 P0014 T02330217","FM-15","7",,,,,,,,,,,,,,,,,,,,,,,,,,,,"2009-07-14"
"72202012839","2020-06-17T21:53:00","FM-15","7",,,,,,,,,,,,,,,,,,,,,,,,,,,,,,,,,,,,,,"30.06","74","75","0.01",,"+0.00","5","96","30.06","FEW:02 17 BKN:07 80 OVC:08 120","30.03","10.00","74","090",,"8",,,,,,,,,,,,,,,,,,,,,,,,,,,,,,,,,,,,,"MET13106/17/20 21:53:01 METAR KMIA 180253Z 09007KT 10SM FEW017 BKN080 OVC120 24/23 A3006 RMK AO2 RAE31 SLP180 P0002 60031 T02390233 55001","FM-15","7",,,,,,,,,,,,,,,,,,,,,,,,,,,,"2009-07-14"
"72202012839","2020-06-17T22:00:00","FM-12","4",,,,,,,,,,,,,,,,,,,,,,,,,,,,,,,,,,,,,,,"74","75",,,"+0.00","5","96","30.06","15","30.03","9.94","74","090",,"8",,,,,,,,,,,,,,,,,,,,,,,,,,,,,,,,,,,,,"SYN07072202 12466 80907 10239 20233 30169 40180 55001 60087 90253 555 91803=","FM-12","4",,,,,,,,,,,,,,,,,,,,,,,,,,,,"2009-07-14"
"72202012839","2020-06-17T22:53:00","FM-15","7",,,,,,,,,,,,,,,,,,,,,,,,,,,,,,,,,,,,,,"30.07","74","76","0.00",,,,"94","30.06","FEW:02 19 BKN:07 80 BKN:07 120","30.04","10.00","75","110",,"11",,,,,,,,,,,,,,,,,,,,,,,,,,,,,,,,,,,,,"MET10706/17/20 22:53:02 METAR KMIA 180353Z 11010KT 10SM FEW019 BKN080 BKN120 24/23 A3007 RMK AO2 SLP181 T02440233","FM-15","7",,,,,,,,,,,,,,,,,,,,,,,,,,,,"2009-07-14"
"72202012839","2020-06-17T23:53:00","FM-15","7",,,,,,,,,,,,,,,,,,,,,,,,,,,,,,,,,,,,,,"30.04","74","77","0.00",,,,"90","30.04","FEW:02 18 BKN:07 75 OVC:08 120","30.01","10.00","75","100",,"9",,,,,,,,,,,,,,,,,,,,,,,,,,,,,,,,,,,,,"MET11706/17/20 23:53:02 METAR KMIA 180453Z 10008KT 10SM FEW018 BKN075 OVC120 25/23 A3004 RMK AO2 SLP173 T02500233 402890228","FM-15","7",,,,,,,,,,,,,,,,,,,,,,,,,,,,"2009-07-14"
"72202012839","2020-06-17T23:59:00","SOD  ","6",,,,,,,,,,,,,,,"72","79","80","30.05","30.02","74","8.5","14","-3.9","0","84","73","090","23","0.57",,,"090","18","TS RA BR",,,,,,,,,,,,,,,,,,,,,,,,,,,,,,,,,,,,,,,,,,,,,,,,,,,,,,,,"SOD67724 HR PRECIPITATION (IN): 0.57 SNOW DEPTH (IN):0     24 HR SNOWFALL (IN):0.0  WEATHER(CODE):13  24 HR MAX TEMP (F): 8424 HR MIN TEMP (F): 73AVERAGE STATION PRESSURE:30.020 MINIMUM SEA LEVEL PRESSURE:30.02 TIME OF OCCURRENCE:0451 PEAK WIND SPEED (MPH): 23 PEAK WIND DIR (DEG): 90 PEAK WIND TIME (LST):      FASTEST 2MIN SPEED (MPH): 18FASTEST 2MIN DIR (DEG): 90 FASTEST 2MIN TIME (LST):     AVERAGE WIND SPEED (MPH): 8.5 24 HR AVG TEMP (F): 79DEPART FROM NORMAL: -4  HEATING DEGREE DAYS:  0 COOLING DEGREE DAYS: 14 HOURLY INCREMENTAL PRECIPITATION VALUES (IN):.00 0.00 0.00 0.00 0.00 0.00 0.00 0.00 0.11 T    0.00 0.00 0.01 0.03 T    0.01 T    0.07 0.04 0.15 0.14 0.01 0.00 0.00","SOD  ","6",,,,,,,,,,,,,,,,,,,,,,,,,"0530","1915",,"2009-07-14"
"72202012839","2020-06-18T00:53:00","FM-15","7",,,,,,,,,,,,,,,,,,,,,,,,,,,,,,,,,,,,,,"30.02","74","77","0.00",,"+0.04","8","90","30.02","FEW:02 15 FEW:02 25 SCT:04 75","29.99","10.00","75","110",,"6",,,,,,,,,,,,,,,,,,,,,,,,,,,,,,,,,,,,,"MET13606/18/20 00:53:02 METAR KMIA 180553Z 11005KT 10SM FEW015 FEW025 SCT075 25/23 A3002 RMK AO2 SLP166 60031 T02500233 10250 20228 58014 (AM)","FM-15","7",,,,,,,,,,,,,,,,,,,,,,,,,,,,"2009-07-14"
"72202012839","2020-06-18T01:00:00","FM-12","4",,,,,,,,,,,,,,,,,,,,,,,,,,,,,,,,,,,,,,,"74","77",,,"+0.04","8","90","30.02","15","29.99","9.94","75","110",,"6",,,,,,,,,,,,,,,,,,,,,,,,,,,,,,,,,,,,,"SYN08672202 12466 81105 10250 20233 30156 40166 58014 60081 90553 333 10272 20228 555 91806=","FM-12","4",,,,,,,,,,,,,,,,,,,,,,,,,,,,"2009-07-14"
"72202012839","2020-06-18T01:53:00","FM-15","7",,,,,,,,,,,,,,,,,,,,,,,,,,,,,,,,,,,,,,"30.01","75","77","0.00",,,,"94","30.01","FEW:02 20 BKN:07 60 OVC:08 250","29.98","10.00","76","000",,"0",,,,,,,,,,,,,,,,,,,,,,,,,,,,,,,,,,,,,"MET11206/18/20 01:53:02 METAR KMIA 180653Z 00000KT 10SM FEW020 BKN060 OVC250 25/24 A3001 RMK AO2 SLP163 T02500239 (AM)","FM-15","7",,,,,,,,,,,,,,,,,,,,,,,,,,,,"2009-07-14"
"72202012839","2020-06-18T02:53:00","FM-15","7",,,,,,,,,,,,,,,,,,,,,,,,,,,,,,,,,,,,,,"29.99","76","78","0.00",,,,"93","29.99","FEW:02 20 BKN:07 60 BKN:07 120","29.96","10.00","77","110",,"3",,,,,,,,,,,,,,,,,,,,,,,,,,,,,,,,,,,,,"MET11206/18/20 02:53:02 METAR KMIA 180753Z 11003KT 10SM FEW020 BKN060 BKN120 26/24 A2999 RMK AO2 SLP157 T02560244 (AM)","FM-15","7",,,,,,,,,,,,,,,,,,,,,,,,,,,,"2009-07-14"
"72202012839","2020-06-18T03:53:00","FM-15","7",,,,,,,,,,,,,,,,,,,,,,,,,,,,,,,,,,,,,,"29.99","75","78","0.00",,"+0.03","6","90","29.99","FEW:02 20 BKN:07 65 OVC:08 120","29.96","10.00","76","100",,"5",,,,,,,,,,,,,,,,,,,,,,,,,,,,,,,,,,,,,"MET11806/18/20 03:53:02 METAR KMIA 180853Z 10004KT 10SM FEW020 BKN065 OVC120 26/24 A2999 RMK AO2 SLP156 T02560239 56010 (AM)","FM-15","7",,,,,,,,,,,,,,,,,,,,,,,,,,,,"2009-07-14"
"72202012839","2020-06-18T04:00:00","FM-12","4",,,,,,,,,,,,,,,,,,,,,,,,,,,,,,,,,,,,,,,"75","78",,,"+0.03","6","90","29.99","26","29.96","9.94","76","100",,"5",,,,,,,,,,,,,,,,,,,,,,,,,,,,,,,,,,,,,"SYN06472202 32566 81004 10256 20239 30146 40156 56010 90853 555 91809=","FM-12","4",,,,,,,,,,,,,,,,,,,,,,,,,,,,"2009-07-14"
"72202012839","2020-06-18T04:53:00","FM-15","7",,,,,,,,,,,,,,,,,,,,,,,,,,,,,,,,,,,,,,"29.99","75","79","0.00",,,,"88","29.99","FEW:02 20 BKN:07 65 BKN:07 250","29.96","10.00","76","000",,"0",,,,,,,,,,,,,,,,,,,,,,,,,,,,,,,,,,,,,"MET11206/18/20 04:53:02 METAR KMIA 180953Z 00000KT 10SM FEW020 BKN065 BKN250 26/24 A2999 RMK AO2 SLP156 T02610239 (AM)","FM-15","7",,,,,,,,,,,,,,,,,,,,,,,,,,,,"2009-07-14"
"72202012839","2020-06-18T05:53:00","FM-15","7",,,,,,,,,,,,,,,,,,,,,,,,,,,,,,,,,,,,,,"30.00","74","79","0.00",,,,"85","30.00","FEW:02 20 BKN:07 140 BKN:07 220","29.97","10.00","76","140",,"3",,,,,,,,,,,,,,,,,,,,,,,,,,,,,,,,,,,,,"MET13006/18/20 05:53:02 METAR KMIA 181053Z 14003KT 10SM FEW020 BKN140 BKN220 26/23 A3000 RMK AO2 SLP159 CB DSNT S MOV NE T02610233 (RLW)","FM-15","7",,,,,,,,,,,,,,,,,,,,,,,,,,,,"2009-07-14"
"72202012839","2020-06-18T06:53:00","FM-15","7",,,,,,,,,,,,,,,,,,,,,,,,,,,,,,,,,,,,,,"30.01","75","80","0.00",,"-0.02","3","85","30.01","FEW:02 20 SCT:04 150 BKN:07 180","29.98","10.00","77","000",,"0",,,,,,,,,,,,,,,,,,,,,,,,,,,,,,,,,,,,,"MET13706/18/20 06:53:02 METAR KMIA 181153Z 00000KT 10SM FEW020 SCT150 BKN180 27/24 A3001 RMK AO2 SLP162 70057 T02670239 10267 20250 53006 (RLW)","FM-15","7",,,,,,,,,,,,,,,,,,,,,,,,,,,,"2009-07-14"
"72202012839","2020-06-18T07:00:00","FM-12","4",,,,,,,,,,,,,,,,,,,,,,,,,,,,,,,,,,,,,,,"75","80",,,"-0.02","3","85","30.01","26","29.98","9.94","77","000",,"0",,,,,,,,,,,,,,,,,,,,,,,,,,,,,,,,,,,,,"SYN08672202 32566 60000 10267 20239 30152 40162 53006 91153 333 10289 20228 70145 555 91812=","FM-12","4",,,,,,,,,,,,,,,,,,,,,,,,,,,,"2009-07-14"
"72202012839","2020-06-18T07:53:00","FM-15","7",,,,,,,,,,,,,,,,,,,,,,,,,,,,,,,,,,,,,,"30.04","75","82","0.00",,,,"79","30.03","SCT:04 20 SCT:04 40","30.01","10.00","77","220",,"7",,,,,,,,,,,,,,,,,,,,,,,,,,,,,,,,,,,,,"MET16306/18/20 07:53:02 METAR KMIA 181253Z 22006KT 10SM SCT020CB SCT040 BKN0 28/24 A3004 RMK AO2 LTG DSNT S SLP171 CB W-NW MOV N CB DSNT N AND S-SW MOV N T02780239 (RLW)","FM-15","7",,,,,,,,,,,,,,,,,,,,,,,,,,,,"2009-07-14"
"72202012839","2020-06-18T08:31:00","FM-16","7",,,,,,,,,,,,,,,,,,,,,,,,,,,,,,,,,,,,,,"30.04","75","84",,"||RA",,,"74",,"SCT:04 20 BKN:07 40","30.01","10.00","78","200",,"8",,,,,,,,,,,,,,,,,,,,,,,,,,,,,,,,,,,,,"MET12606/18/20 08:31:02 SPECI KMIA 181331Z 20007KT 10SM VCTS SCT020CB BKN040 BKN1 29/24 A3004 RMK AO2 CB SE-SW MOV N T02890239 (RLW)","FM-16","7",,,,,,,,,,,,,,,,,,,,,,,,,,,,"2009-07-14"
"72202012839","2020-06-18T08:38:00","FM-16","7",,,,,,,,,,,,,,,,,,,,,,,,,,,,,,,,,,,,,,"30.05","75","84",,"VCTS:7 ||",,,"74",,"BKN:07 15 BKN:07 40 OVC:08 170","30.02","10.00","78","210","28","21",,,,,,,,,,,,,,,,,,,,,,,,,,,,,,,,,,,,,"MET13706/18/20 08:38:02 SPECI KMIA 181338Z 21018G24KT 10SM VCTS BKN015CB BKN040 OVC170 29/24 A3005 RMK AO2 CB OHD-SE-SW-W MOV N T02890239 (RLW)","FM-16","7",,,,,,,,,,,,,,,,,,,,,,,,,,,,"2009-07-14"
"72202012839","2020-06-18T08:41:00","FM-16","7",,,,,,,,,,,,,,,,,,,,,,,,,,,,,,,,,,,,,,"30.05","75","84",,"TS:7 |TS TS |",,,"74",,"BKN:07 14 BKN:07 40 OVC:08 110","30.02","10.00","78","200","28","17",,,,,,,,,,,,,,,,,,,,,,,,,,,,,,,,,,,,,"MET15406/18/20 08:41:02 SPECI KMIA 181341Z 20015G24KT 10SM TS BKN014CB BKN040 OVC110 29/24 A3005 RMK AO2 TSB39 OCNL LTGICCG SE-SW TS SE-SW MOV N T02890239 (RLW)","FM-16","7",,,,,,,,,,,,,,,,,,,,,,,,,,,,"2009-07-14"
"72202012839","2020-06-18T08:50:00","FM-16","7",,,,,,,,,,,,,,,,,,,,,,,,,,,,,,,,,,,,,,"30.05","70","75","T","-TS:7 RA:02 |TS |",,,"83",,"FEW:02 14 BKN:07 20 BKN:07 110","30.02","7.00","72","180","23","14",,,,,,,,,,,,,,,,,,,,,,,,,,,,,,,,,,,,,"MET16406/18/20 08:50:02 SPECI KMIA 181350Z 18012G20KT 7SM -TSRA FEW014 BKN020CB BKN1 24/21 A3005 RMK AO2 RAB50 TSB39 OCNL LTGICCG OHD-E-S-W TS OHD-E-S-W MOV N P0000 (RLW)","FM-16","7",,,,,,,,,,,,,,,,,,,,,,,,,,,,"2009-07-14"
"72202012839","2020-06-18T08:53:00","FM-15","7",,,,,,,,,,,,,,,,,,,,,,,,,,,,,,,,,,,,,,"30.05","70","76","0.05","-TS:7 RA:02 |TS |",,,"82","30.05","FEW:02 10 BKN:07 20 BKN:07 40","30.02","6.00","72","170",,"11",,,,,,,,,,,,,,,,,,,,,,,,,,,,,,,,,,,,,"MET20706/18/20 08:53:02 METAR KMIA 181353Z 17010KT 6SM R09/3000VP6000FT +TSRA FEW010 BKN020CB BKN1 24/21 A3005 RMK AO2 RAB50 TSB39 SLP176 VIS SE-SW 2 OCNL LTGICCG OHD-E-S-W TS OHD-E-S-W MOV N P0000 T02440211 (RLW)","FM-15","7",,,,,,,,,,,,,,,,,,,,,,,,,,,,"2009-07-14"
"72202012839","2020-06-18T09:09:00","FM-16","7",,,,,,,,,,,,,,,,,,,,,,,,,,,,,,,,,,,,,,"30.03","70","73","0.08","TS:7 RA:02 BR:1 |RA TS |RA",,,"90",,"SCT:04 20 BKN:07 40 OVC:08 110","30.00","5.00","71","180","22","6",,,,,,,,,,,,,,,,,,,,,,,,,,,,,,,,,,,,,"MET19006/18/20 09:09:02 SPECI KMIA 181409Z 18005G19KT 5SM R09/2400VP6000FT TSRA BR SCT020CB BKN040 OVC110 23/21 A3003 RMK AO2 PRESFR OCNL LTGICCG OHD-NE-SE TS OHD-NE-SE MOV N P0008 T02280211 (RLW)","FM-16","7",,,,,,,,,,,,,,,,,,,,,,,,,,,,"2009-07-14"
"72202012839","2020-06-18T09:28:00","FM-16","7",,,,,,,,,,,,,,,,,,,,,,,,,,,,,,,,,,,,,,"30.04","70","75","0.08",,,,"84",,"FEW:02 20 FEW:02 40 BKN:07 75","30.01","10.00","72","000",,"0",,,,,,,,,,,,,,,,,,,,,,,,,,,,,,,,,,,,,"MET13406/18/20 09:28:02 SPECI KMIA 181428Z 00000KT 10SM FEW020 FEW040 BKN075 24/21 A3004 RMK AO2 RAE21 TSE28 TS DSIPTD P0008 T02390211 (RLW)","FM-16","7",,,,,,,,,,,,,,,,,,,,,,,,,,,,"2009-07-14"
"72202012839","2020-06-18T09:53:00","FM-15","7",,,,,,,,,,,,,,,,,,,,,,,,,,,,,,,,,,,,,,"30.05","72","81","0.03",,"-0.01","0","74","30.04","FEW:02 20 FEW:02 75 BKN:07 180","30.02","10.00","75","110",,"5",,,,,,,,,,,,,,,,,,,,,,,,,,,,,,,,,,,,,"MET15306/18/20 09:53:02 METAR KMIA 181453Z 11004KT 10SM FEW020 FEW075 BKN180 27/22 A3005 RMK AO2 RAE21 TSE28 SLP174 TS DSIPTD P0008 60008 T02720222 50003 (RLW)","FM-15","7",,,,,,,,,,,,,,,,,,,,,,,,,,,,"2009-07-14"
"72202012839","2020-06-18T10:00:00","FM-12","4",,,,,,,,,,,,,,,,,,,,,,,,,,,,,,,,,,,,,,,"72","81",,,"0.01","9","74","30.04","26","30.02","9.94","75","110",,"5",,,,,,,,,,,,,,,,,,,,,,,,,,,,,,,,,,,,,"SYN07072202 12566 61104 10272 20222 30166 40174 50003 60027 91453 555 91815=","FM-12","4",,,,,,,,,,,,,,,,,,,,,,,,,,,,"2009-07-14"
"72202012839","2020-06-18T10:53:00","FM-15","7",,,,,,,,,,,,,,,,,,,,,,,,,,,,,,,,,,,,,,"30.04","76","86","0.00",,,,"72","30.03","SCT:04 20 SCT:04 180 BKN:07 250","30.01","10.00","79","140",,"6",,,,,,,,,,,,,,,,,,,,,,,,,,,,,,,,,,,,,"MET14506/18/20 10:53:02 METAR KMIA 181553Z 14005KT 10SM SCT020 SCT180 BKN250 30/24 A3004 RMK AO2 LTG DSNT SE SLP171 CB DSNT ALQDS MOV N T03000244 (RLW)","FM-15","7",,,,,,,,,,,,,,,,,,,,,,,,,,,,"2009-07-14"
"72202012839","2020-06-18T11:53:00","FM-15","7",,,,,,,,,,,,,,,,,,,,,,,,,,,,,,,,,,,,,,"30.02","74","89","0.00",,,,"61","30.02","SCT:04 25 BKN:07 55 BKN:07 70","29.99","10.00","78","160",,"6",,,,,,,,,,,,,,,,,,,,,,,,,,,,,,,,,,,,,"MET14406/18/20 11:53:02 METAR KMIA 181653Z 16005KT 10SM SCT025 BKN055 BKN070 32/23 A3002 RMK AO2 LTG DSNT E SLP167 CB DSNT ALQDS MOV N T03170233 (RLW)","FM-15","7",,,,,,,,,,,,,,,,,,,,,,,,,,,,"2009-07-14"
"72202012839","2020-06-18T12:53:00","FM-15","7",,,,,,,,,,,,,,,,,,,,,,,,,,,,,,,,,,,,,,"30.01","74","87","0.00",,"+0.04","8","65","30.01","SCT:04 25 SCT:04 40 BKN:07 80","29.98","10.00","78","140",,"8",,,,,,,,,,,,,,,,,,,,,,,,,,,,,,,,,,,,,"MET17606/18/20 12:53:02 METAR KMIA 181753Z 14007KT 10SM SCT025 SCT040 BKN080 31/23 A3001 RMK AO2 LTG DSNT SW AND W SLP162 CB DSNT ALQDS MOV NE 60008 T03060233 10322 20228 58012 (RLW)","FM-15","7",,,,,,,,,,,,,,,,,,,,,,,,,,,,"2009-07-14"
"72202012839","2020-06-18T13:00:00","FM-12","4",,,,,,,,,,,,,,,,,,,,,,,,,,,,,,,,,,,,,,,"74","87",,,"+0.04","8","65","30.01","26","29.98","9.94","78","140",,"8",,,,,,,,,,,,,,,,,,,,,,,,,,,,,,,,,,,,,"SYN08672202 12566 61407 10306 20233 30152 40162 58012 60021 91753 333 10322 20228 555 91818=","FM-12","4",,,,,,,,,,,,,,,,,,,,,,,,,,,,"2009-07-14"
"72202012839","2020-06-18T13:04:00","FM-16","7",,,,,,,,,,,,,,,,,,,,,,,,,,,,,,,,,,,,,,"30.01","75","87",,"||RA",,,"67",,"SCT:04 25 BKN:07 40","29.98","10.00","78","140",,"9",,,,,,,,,,,,,,,,,,,,,,,,,,,,,,,,,,,,,"MET17206/18/20 13:04:02 SPECI KMIA 181804Z 14008KT 10SM VCTS SCT025CB BKN040 BKN0 31/24 A3001 RMK AO2 LTG DSNT S AND SW TSE1758 CB SW-W MOV NE CB DSNT ALQDS MOV NE T03060239 (EM)","FM-16","7",,,,,,,,,,,,,,,,,,,,,,,,,,,,"2009-07-14"
"72202012839","2020-06-18T13:06:00","FM-16","7",,,,,,,,,,,,,,,,,,,,,,,,,,,,,,,,,,,,,,"30.01","75","87",,"|TS |RA",,,"67",,"SCT:04 25 BKN:07 40","29.98","10.00","78","130",,"9",,,,,,,,,,,,,,,,,,,,,,,,,,,,,,,,,,,,,"MET19106/18/20 13:06:02 SPECI KMIA 181806Z 13008KT 10SM TS SCT025CB BKN040 BKN0 31/24 A3001 RMK AO2 LTG DSNT S AND SW TSE1758B05 OCNL LTGICCG SW-W TS SW-W MOV NE CB DSNT ALQDS MOV NE T03060239 (EM)","FM-16","7",,,,,,,,,,,,,,,,,,,,,,,,,,,,"2009-07-14"
"72202012839","2020-06-18T13:53:00","FM-15","7",,,,,,,,,,,,,,,,,,,,,,,,,,,,,,,,,,,,,,"29.99","77","84","0.05","|TS |RA",,,"79","29.99","SCT:04 23 BKN:07 50","29.96","9.00","79","010",,"3",,,,,,,,,,,,,,,,,,,,,,,,,,,,,,,,,,,,,"MET21806/18/20 13:53:02 METAR KMIA 181853Z 01003KT 9SM -TSRA SCT023CB BKN050 BKN1 29/25 A2999 RMK AO2 LTG DSNT ALQDS RAB08 TSE1758B05 SLP156 OCNL LTGICCG S-SW AND NW-N TS S-SW AND NW-N MOV NE CB DSNT E AND SE P0005 T02890250","FM-15","7",,,,,,,,,,,,,,,,,,,,,,,,,,,,"2009-07-14"
"72202012839","2020-06-18T14:19:00","FM-16","7",,,,,,,,,,,,,,,,,,,,,,,,,,,,,,,,,,,,,,"30.02","72","76","0.25","TS:7 RA:02 BR:1 |TS |RA",,,"88",,"FEW:02 15 BKN:07 23 BKN:07 50","29.99","1.25","73","250",,"13",,,,,,,,,,,,,,,,,,,,,,,,,,,,,,,,,,,,,"MET21206/18/20 14:19:02 SPECI KMIA 181919Z 25011KT 1 1/4SM R09/2200VP6000FT +TSRA BR FEW015 BKN023CB BKN0 24/22 A3002 RMK AO2 LTG DSNT ALQDS OCNL LTGICCG OHD-SW-NW TS OHD-SW-NW MOV NE CB DSNT ALQDS P0025 T02440222 (EM)","FM-16","7",,,,,,,,,,,,,,,,,,,,,,,,,,,,"2009-07-14"
"72202012839","2020-06-18T14:24:00","FM-16","7",,,,,,,,,,,,,,,,,,,,,,,,,,,,,,,,,,,,,,"30.02","72","76","0.30","TS:7 RA:02 BR:1 |TS |RA",,,"88",,"SCT:04 17 BKN:07 23 BKN:07 50","29.99","2.00","73","260",,"9",,,,,,,,,,,,,,,,,,,,,,,,,,,,,,,,,,,,,"MET20706/18/20 14:24:02 SPECI KMIA 181924Z 26008KT 2SM R09/3000VP6000FT +TSRA BR SCT017 BKN023CB BKN0 24/22 A3002 RMK AO2 LTG DSNT SW-N OCNL LTGICCG OHD-SW-NW TS OHD-SW-NW MOV NE CB DSNT ALQDS P0030 T02440222 (EM)","FM-16","7",,,,,,,,,,,,,,,,,,,,,,,,,,,,"2009-07-14"
"72202012839","2020-06-18T14:30:00","FM-16","7",,,,,,,,,,,,,,,,,,,,,,,,,,,,,,,,,,,,,,"30.01","73","77","0.31","-TS:7 RA:02 BR:1 |TS |RA",,,"88",,"SCT:04 17 BKN:07 23 BKN:07 50","29.98","6.00","74","300",,"7",,,,,,,,,,,,,,,,,,,,,,,,,,,,,,,,,,,,,"MET19806/18/20 14:30:02 SPECI KMIA 181930Z 30006KT 6SM -TSRA BR SCT017 BKN023CB BKN0 25/23 A3001 RMK AO2 LTG DSNT N AND W OCNL LTGICCG OHD-SW-NW-NE TS OHD-SW-NW-NE MOV NE CB DSNT E-SE P0031 T02500228 (EM)","FM-16","7",,,,,,,,,,,,,,,,,,,,,,,,,,,,"2009-07-14"
"72202012839","2020-06-18T14:51:00","FM-16","6",,,,,,,,,,,,,,,,,,,,,,,,,,,,,,,,,,,,,,"30.03","72","75",,"TS:7 +RA:02 BR:1 |RA TS |RA",,,"89",,"BKN:07 20 BKN:07 35 OVC:08 110","30.00","1.75","73","290",,"7",,,,,,,,,,,,,,,,,,,,,,,,,,,,,,,,,,,,,"MET21306/18/20 14:51:02 SPECI KMIA 181951Z 29006KT 1 3/4SM R09/2800VP6000FT +TSRA BR BKN020CB BKN035 OVC110 24/22 A3003 RMK AO2 LTG DSNT SW-N OCNL LTGICCG OHD-SW-NW-NE TS OHD-SW-NW-NE MOV NE CB DSNT E-SE P0039 FIBI (EM)","FM-16","6",,,,,,,,,,,,,,,,,,,,,,,,,,,,"2009-07-14"
"72202012839","2020-06-18T14:53:00","FM-15","7",,,,,,,,,,,,,,,,,,,,,,,,,,,,,,,,,,,,,,"30.03","73","76","0.47","TS:7 +RA:02 BR:1 |RA TS |RA",,,"91","30.03","SCT:04 15 BKN:07 20 OVC:08 110","30.00","1.50","74","300",,"7",,,,,,,,,,,,,,,,,,,,,,,,,,,,,,,,,,,,,"MET19406/18/20 14:53:02 METAR KMIA 181953Z 30006KT 1 1/2SM R09/2600VP6000FT +TSRA BR SCT015 BKN020CB OVC110 24/23 A3003 RMK AO2 LTG DSNT SW-N SLP170 OCNL LTGICCG OHD TS OHD MOV NE P0044 T02440228 (EM)","FM-15","7",,,,,,,,,,,,,,,,,,,,,,,,,,,,"2009-07-14"
"72202012839","2020-06-18T15:12:00","FM-16","7",,,,,,,,,,,,,,,,,,,,,,,,,,,,,,,,,,,,,,"30.02","72","76","0.12","TS:7 RA:02 BR:1 |RA TS |RA",,,"88",,"BKN:07 25 BKN:07 70 OVC:08 120","29.99","2.50V","73","310",,"3",,,,,,,,,,,,,,,,,,,,,,,,,,,,,,,,,,,,,"MET18806/18/20 15:12:02 SPECI KMIA 182012Z 31003KT 2 1/2SM R09/4500VP6000FT TSRA BR BKN025CB BKN070 OVC120 24/22 A3002 RMK AO2 VIS 1V5 LTG DSNT SW-N OCNL LTGIC N TS N MOV NE P0012 T02440222 (EM)","FM-16","7",,,,,,,,,,,,,,,,,,,,,,,,,,,,"2009-07-14"
"72202012839","2020-06-18T15:45:00","FM-16","7",,,,,,,,,,,,,,,,,,,,,,,,,,,,,,,,,,,,,,"30.02","73","77","0.16","TS:7 -RA:02 |RA TS TS |RA",,,"88",,"SCT:04 25 BKN:07 70 OVC:08 120","29.99","9.00","74","350",,"3",,,,,,,,,,,,,,,,,,,,,,,,,,,,,,,,,,,,,"MET16606/18/20 15:45:02 SPECI KMIA 182045Z 35003KT 9SM -TSRA SCT025CB BKN070 OVC120 25/23 A3002 RMK AO2 LTG DSNT ALQDS OCNL LTGICCG S-SW TS S-SW MOV NE P0016 T02500228 (EM)","FM-16","7",,,,,,,,,,,,,,,,,,,,,,,,,,,,"2009-07-14"
"72202012839","2020-06-18T15:53:00","FM-15","7",,,,,,,,,,,,,,,,,,,,,,,,,,,,,,,,,,,,,,"30.03","73","77","0.13","|TS |RA","-0.02","3","88","30.03","SCT:04 25 BKN:07 70","30.00","10.00","74","300",,"7",,,,,,,,,,,,,,,,,,,,,,,,,,,,,,,,,,,,,"MET19806/18/20 15:53:02 METAR KMIA 182053Z 30006KT 10SM TS SCT025CB BKN070 BKN1 25/23 A3003 RMK AO2 LTG DSNT ALQDS RAE49 SLP170 OCNL LTGICCG S TS S MOV NE CB DSNT W MOV NE P0016 60065 T02500228 53008 (EM)","FM-15","7",,,,,,,,,,,,,,,,,,,,,,,,,,,,"2009-07-14"
"72202012839","2020-06-18T16:00:00","FM-12","4",,,,,,,,,,,,,,,,,,,,,,,,,,,,,,,,,,,,,,,"73","77",,"||TS","-0.02","3","88","30.03","26","30.00","9.94","74","300",,"7",,,,,,,,,,,,,,,,,,,,,,,,,,,,,,,,,,,,,"SYN07672202 11566 83006 10250 20228 30159 40170 53008 60177 795// 92053 555 91821=","FM-12","4",,,,,,,,,,,,,,,,,,,,,,,,,,,,"2009-07-14"
"72202012839","2020-06-18T16:20:00","FM-16","7",,,,,,,,,,,,,,,,,,,,,,,,,,,,,,,,,,,,,,"30.02","73","77","T","|TS |RA",,,"88",,"FEW:02 8 SCT:04 25","29.99","10.00","74","300",,"7",,,,,,,,,,,,,,,,,,,,,,,,,,,,,,,,,,,,,"MET18006/18/20 16:20:02 SPECI KMIA 182120Z 30006KT 10SM -TSRA FEW008 SCT025CB BKN0 25/23 A3002 RMK AO2 LTG DSNT NE RAB11 OCNL LTGIC SE TS SE MOV NE CB DSNT NE AND NW P0000 T02500228 (EM)","FM-16","7",,,,,,,,,,,,,,,,,,,,,,,,,,,,"2009-07-14"
"72202012839","2020-06-18T16:49:00","FM-16","7",,,,,,,,,,,,,,,,,,,,,,,,,,,,,,,,,,,,,,"30.02","73","79","T",,,,"84",,"FEW:02 8 FEW:02 30 SCT:04 90","29.99","10.00","75","330",,"7",,,,,,,,,,,,,,,,,,,,,,,,,,,,,,,,,,,,,"MET14606/18/20 16:49:02 SPECI KMIA 182149Z 33006KT 10SM FEW008 FEW030 SCT090 26/23 A3002 RMK AO2 LTG DSNT NE RAB11E22 TSE49 CB DSNT NE AND SE P0000 (EM)","FM-16","7",,,,,,,,,,,,,,,,,,,,,,,,,,,,"2009-07-14"
"72202012839","2020-06-18T16:53:00","FM-15","7",,,,,,,,,,,,,,,,,,,,,,,,,,,,,,,,,,,,,,"30.02","74","78","T",,,,"87","30.02","FEW:02 8 FEW:02 30 SCT:04 90","29.99","10.00","75","330",,"8",,,,,,,,,,,,,,,,,,,,,,,,,,,,,,,,,,,,,"MET15106/18/20 16:53:02 METAR KMIA 182153Z 33007KT 10SM FEW008 FEW030 SCT090 26/23 A3002 RMK AO2 RAB11E22 TSE49 SLP167 CB DSNT NE AND SE P0000 T02560233 (EM)","FM-15","7",,,,,,,,,,,,,,,,,,,,,,,,,,,,"2009-07-14"
"72202012839","2020-06-18T17:53:00","FM-15","7",,,,,,,,,,,,,,,,,,,,,,,,,,,,,,,,,,,,,,"30.01","73","78","0.00",,,,"85","30.01","FEW:02 30 SCT:04 85 BKN:07 150","29.98","10.00","75","020",,"8",,,,,,,,,,,,,,,,,,,,,,,,,,,,,,,,,,,,,"MET11206/18/20 17:53:02 METAR KMIA 182253Z 02007KT 10SM FEW030 SCT085 BKN150 26/23 A3001 RMK AO2 SLP162 T02560228 (EM)","FM-15","7",,,,,,,,,,,,,,,,,,,,,,,,,,,,"2009-07-14"
"72202012839","2020-06-18T18:53:00","FM-15","7",,,,,,,,,,,,,,,,,,,,,,,,,,,,,,,,,,,,,,"30.02","72","78","0.00",,"+0.01","5","82","30.02","FEW:02 30 BKN:07 90 BKN:07 150","29.99","10.00","74","020",,"3",,,,,,,,,,,,,,,,,,,,,,,,,,,,,,,,,,,,,"MET15306/18/20 18:53:02 METAR KMIA 182353Z 02003KT 10SM FEW030 BKN090 BKN150 26/22 A3002 RMK AO2 SLP165 CB DSNT E AND SE 60065 T02560222 10306 20244 55004 (EM)","FM-15","7",,,,,,,,,,,,,,,,,,,,,,,,,,,,"2009-07-14"
"72202012839","2020-06-18T19:00:00","FM-12","4",,,,,,,,,,,,,,,,,,,,,,,,,,,,,,,,,,,,,,,"72","78",,,"+0.01","5","82","30.02","26","29.99","9.94","74","020",,"3",,,,,,,,,,,,,,,,,,,,,,,,,,,,,,,,,,,,,"SYN08672202 12566 80203 10256 20222 30156 40165 55004 60171 92353 333 10322 20244 555 91900=","FM-12","4",,,,,,,,,,,,,,,,,,,,,,,,,,,,"2009-07-14"
"72202012839","2020-06-18T19:53:00","FM-15","7",,,,,,,,,,,,,,,,,,,,,,,,,,,,,,,,,,,,,,"30.02","73","78","0.00",,,,"85","30.01","FEW:02 30 SCT:04 90 BKN:07 160","29.99","10.00","75","100",,"8",,,,,,,,,,,,,,,,,,,,,,,,,,,,,,,,,,,,,"MET10706/18/20 19:53:01 METAR KMIA 190053Z 10007KT 10SM FEW030 SCT090 BKN160 26/23 A3002 RMK AO2 SLP164 T02560228","FM-15","7",,,,,,,,,,,,,,,,,,,,,,,,,,,,"2009-07-14"
"72202012839","2020-06-18T20:53:00","FM-15","7",,,,,,,,,,,,,,,,,,,,,,,,,,,,,,,,,,,,,,"30.03","73","79","0.00",,,,"82","30.03","FEW:02 30 SCT:04 90 OVC:08 230","30.00","10.00","75","360",,"6",,,,,,,,,,,,,,,,,,,,,,,,,,,,,,,,,,,,,"MET13606/18/20 20:53:01 METAR KMIA 190153Z 36005KT 10SM FEW030 SCT090 OVC230 26/23 A3003 RMK AO2 SLP169 LTGIC DSNT E CB DSNT E MOV N T02610228","FM-15","7",,,,,,,,,,,,,,,,,,,,,,,,,,,,"2009-07-14"
"72202012839","2020-06-18T21:53:00","FM-15","7",,,,,,,,,,,,,,,,,,,,,,,,,,,,,,,,,,,,,,"30.04","74","78","0.00",,"-0.02","3","87","30.04","FEW:02 20 FEW:02 80 BKN:07 120","30.01","10.00","75","020",,"5",,,,,,,,,,,,,,,,,,,,,,,,,,,,,,,,,,,,,"MET11306/18/20 21:53:01 METAR KMIA 190253Z 02004KT 10SM FEW020 FEW080 BKN120 26/23 A3004 RMK AO2 SLP173 T02560233 53008","FM-15","7",,,,,,,,,,,,,,,,,,,,,,,,,,,,"2009-07-14"
"72202012839","2020-06-18T22:00:00","FM-12","4",,,,,,,,,,,,,,,,,,,,,,,,,,,,,,,,,,,,,,,"74","78",,,"-0.02","3","87","30.04","26","30.01","9.94","75","020",,"5",,,,,,,,,,,,,,,,,,,,,,,,,,,,,,,,,,,,,"SYN06472202 32566 80204 10256 20233 30163 40173 53008 90253 555 91903=","FM-12","4",,,,,,,,,,,,,,,,,,,,,,,,,,,,"2009-07-14"
"72202012839","2020-06-18T22:53:00","FM-15","7",,,,,,,,,,,,,,,,,,,,,,,,,,,,,,,,,,,,,,"30.04","75","80","0.00",,,,"85","30.04","SCT:04 18 BKN:07 100 OVC:08 250","30.01","10.00","77","060",,"7",,,,,,,,,,,,,,,,,,,,,,,,,,,,,,,,,,,,,"MET10706/18/20 22:53:02 METAR KMIA 190353Z 06006KT 10SM SCT018 BKN100 OVC250 27/24 A3004 RMK AO2 SLP172 T02670239","FM-15","7",,,,,,,,,,,,,,,,,,,,,,,,,,,,"2009-07-14"
"72202012839","2020-06-18T23:53:00","FM-15","7",,,,,,,,,,,,,,,,,,,,,,,,,,,,,,,,,,,,,,"30.03","75","81","0.00",,,,"82","30.03","FEW:02 18 FEW:02 80 SCT:04 100","30.00","10.00","77","090",,"9",,,,,,,,,,,,,,,,,,,,,,,,,,,,,,,,,,,,,"MET11706/18/20 23:53:02 METAR KMIA 190453Z 09008KT 10SM FEW018 FEW080 SCT100 27/24 A3003 RMK AO2 SLP168 T02720239 403220228","FM-15","7",,,,,,,,,,,,,,,,,,,,,,,,,,,,"2009-07-14"
"72202012839","2020-06-18T23:59:00","SOD  ","6",,,,,,,,,,,,,,,"74","82","83","30.02","29.98","76","5.5","17","-0.9","0","90","73","200","28","0.73",,,"210","21","TS RA BR",,,,,,,,,,,,,,,,,,,,,,,,,,,,,,,,,,,,,,,,,,,,,,,,,,,,,,,,"SOD67724 HR PRECIPITATION (IN): 0.73 SNOW DEPTH (IN):0     24 HR SNOWFALL (IN):0.0  WEATHER(CODE):13  24 HR MAX TEMP (F): 9024 HR MIN TEMP (F): 73AVERAGE STATION PRESSURE:29.980 MINIMUM SEA LEVEL PRESSURE:29.98 TIME OF OCCURRENCE:0445 PEAK WIND SPEED (MPH): 27 PEAK WIND DIR (DEG):200 PEAK WIND TIME (LST):      FASTEST 2MIN SPEED (MPH): 21FASTEST 2MIN DIR (DEG):210 FASTEST 2MIN TIME (LST):     AVERAGE WIND SPEED (MPH): 5.5 24 HR AVG TEMP (F): 82DEPART FROM NORMAL: -1  HEATING DEGREE DAYS:  0 COOLING DEGREE DAYS: 17 HOURLY INCREMENTAL PRECIPITATION VALUES (IN):.00 0.00 0.00 0.00 0.00 0.00 0.00 0.00 0.05 0.03 0.00 0.00 0.00 0.05 0.47 0.13 T    0.00 0.00 0.00 0.00 0.00 0.00 0.00","SOD  ","6",,,,,,,,,,,,,,,,,,,,,,,,,"0530","1915",,"2009-07-14"
"72202012839","2020-06-19T00:53:00","FM-15","7",,,,,,,,,,,,,,,,,,,,,,,,,,,,,,,,,,,,,,"30.01","76","81","0.00",,"+0.04","8","85","30.01","FEW:02 19 SCT:04 100 BKN:07 210","29.98","10.00","77","100",,"7",,,,,,,,,,,,,,,,,,,,,,,,,,,,,,,,,,,,,"MET13006/19/20 00:53:02 METAR KMIA 190553Z 10006KT 10SM FEW019 SCT100 BKN210 27/24 A3001 RMK AO2 SLP161 T02720244 10278 20256 58012 (AM)","FM-15","7",,,,,,,,,,,,,,,,,,,,,,,,,,,,"2009-07-14"
"72202012839","2020-06-19T01:00:00","FM-12","4",,,,,,,,,,,,,,,,,,,,,,,,,,,,,,,,,,,,,,,"76","81",,,"+0.04","8","85","30.01","15","29.98","9.94","77","100",,"7",,,,,,,,,,,,,,,,,,,,,,,,,,,,,,,,,,,,,"SYN08072202 32466 61006 10272 20244 30152 40161 58012 90553 333 10278 20250 555 91906=","FM-12","4",,,,,,,,,,,,,,,,,,,,,,,,,,,,"2009-07-14"
"72202012839","2020-06-19T01:53:00","FM-15","7",,,,,,,,,,,,,,,,,,,,,,,,,,,,,,,,,,,,,,"30.00","76","81","0.00",,,,"85","30.00","FEW:02 19 SCT:04 90 BKN:07 250","29.97","10.00","77","000",,"0",,,,,,,,,,,,,,,,,,,,,,,,,,,,,,,,,,,,,"MET11206/19/20 01:53:02 METAR KMIA 190653Z 00000KT 10SM FEW019 SCT090 BKN250 27/24 A3000 RMK AO2 SLP159 T02720244 (AM)","FM-15","7",,,,,,,,,,,,,,,,,,,,,,,,,,,,"2009-07-14"
"72202012839","2020-06-19T02:45:00","FM-16","7",,,,,,,,,,,,,,,,,,,,,,,,,,,,,,,,,,,,,,"30.00","76","80",,,,,"87",,"BKN:07 18 BKN:07 60 OVC:08 250","29.97","10.00","77","000",,"0",,,,,,,,,,,,,,,,,,,,,,,,,,,,,,,,,,,,,"MET10506/19/20 02:45:02 SPECI KMIA 190745Z 00000KT 10SM BKN018 BKN060 OVC250 27/24 A3000 RMK AO2 T02670244 (AM)","FM-16","7",,,,,,,,,,,,,,,,,,,,,,,,,,,,"2009-07-14"
"72202012839","2020-06-19T02:53:00","FM-15","7",,,,,,,,,,,,,,,,,,,,,,,,,,,,,,,,,,,,,,"30.00","76","81","0.00",,,,"85","30.00","BKN:07 18 BKN:07 60 OVC:08 250","29.97","10.00","77","VRB",,"5",,,,,,,,,,,,,,,,,,,,,,,,,,,,,,,,,,,,,"MET11206/19/20 02:53:02 METAR KMIA 190753Z VRB04KT 10SM BKN018 BKN060 OVC250 27/24 A3000 RMK AO2 SLP160 T02720244 (AM)","FM-15","7",,,,,,,,,,,,,,,,,,,,,,,,,,,,"2009-07-14"
"72202012839","2020-06-19T03:32:00","FM-16","7",,,,,,,,,,,,,,,,,,,,,,,,,,,,,,,,,,,,,,"29.99","76","82",,,,,"82",,"FEW:02 17 BKN:07 60 OVC:08 250","29.96","10.00","78","090",,"6",,,,,,,,,,,,,,,,,,,,,,,,,,,,,,,,,,,,,"MET10506/19/20 03:32:02 SPECI KMIA 190832Z 09005KT 10SM FEW017 BKN060 OVC250 28/24 A2999 RMK AO2 T02780244 (AM)","FM-16","7",,,,,,,,,,,,,,,,,,,,,,,,,,,,"2009-07-14"
"72202012839","2020-06-19T03:53:00","FM-15","7",,,,,,,,,,,,,,,,,,,,,,,,,,,,,,,,,,,,,,"29.99","77","81","0.00",,"+0.02","8","88","29.99","FEW:02 17 BKN:07 60 OVC:08 250","29.96","10.00","78","090",,"7",,,,,,,,,,,,,,,,,,,,,,,,,,,,,,,,,,,,,"MET11806/19/20 03:53:02 METAR KMIA 190853Z 09006KT 10SM FEW017 BKN060 OVC250 27/25 A2999 RMK AO2 SLP156 T02720250 58006 (AM)","FM-15","7",,,,,,,,,,,,,,,,,,,,,,,,,,,,"2009-07-14"
"72202012839","2020-06-19T04:00:00","FM-12","4",,,,,,,,,,,,,,,,,,,,,,,,,,,,,,,,,,,,,,,"77","81",,,"+0.02","8","88","29.99","15","29.96","9.94","78","090",,"7",,,,,,,,,,,,,,,,,,,,,,,,,,,,,,,,,,,,,"SYN06472202 32466 80906 10272 20250 30146 40156 58006 90853 555 91909=","FM-12","4",,,,,,,,,,,,,,,,,,,,,,,,,,,,"2009-07-14"
"72202012839","2020-06-19T04:53:00","FM-15","7",,,,,,,,,,,,,,,,,,,,,,,,,,,,,,,,,,,,,,"30.00","77","81","0.00",,,,"88","30.00","FEW:02 18 BKN:07 80 BKN:07 100","29.97","10.00","78","130",,"3",,,,,,,,,,,,,,,,,,,,,,,,,,,,,,,,,,,,,"MET11206/19/20 04:53:02 METAR KMIA 190953Z 13003KT 10SM FEW018 BKN080 BKN100 27/25 A3000 RMK AO2 SLP160 T02720250 (AM)","FM-15","7",,,,,,,,,,,,,,,,,,,,,,,,,,,,"2009-07-14"
"72202012839","2020-06-19T05:53:00","FM-15","7",,,,,,,,,,,,,,,,,,,,,,,,,,,,,,,,,,,,,,"30.01","76","81","0.00",,,,"85","30.01","FEW:02 16 FEW:02 80 BKN:07 210","29.98","10.00","77","100",,"5",,,,,,,,,,,,,,,,,,,,,,,,,,,,,,,,,,,,,"MET11306/19/20 05:53:02 METAR KMIA 191053Z 10004KT 10SM FEW016 FEW080 BKN210 27/24 A3001 RMK AO2 SLP162 T02720244 (RLW)","FM-15","7",,,,,,,,,,,,,,,,,,,,,,,,,,,,"2009-07-14"
"72202012839","2020-06-19T06:53:00","FM-15","7",,,,,,,,,,,,,,,,,,,,,,,,,,,,,,,,,,,,,,"30.03","77","83","0.00",,"-0.04","3","82","30.03","FEW:02 15 SCT:04 34 SCT:04 50","30.00","10.00","79","110",,"7",,,,,,,,,,,,,,,,,,,,,,,,,,,,,,,,,,,,,"MET13706/19/20 06:53:02 METAR KMIA 191153Z 11006KT 10SM FEW015 SCT034 SCT050 28/25 A3003 RMK AO2 SLP170 70073 T02830250 10283 20267 53014 (RLW)","FM-15","7",,,,,,,,,,,,,,,,,,,,,,,,,,,,"2009-07-14"
"72202012839","2020-06-19T07:00:00","FM-12","4",,,,,,,,,,,,,,,,,,,,,,,,,,,,,,,,,,,,,,,"77","83",,,"-0.04","3","82","30.03","15","30.00","9.94","79","110",,"7",,,,,,,,,,,,,,,,,,,,,,,,,,,,,,,,,,,,,"SYN08672202 32466 61106 10283 20250 30159 40170 53014 91153 333 10322 20256 70185 555 91912=","FM-12","4",,,,,,,,,,,,,,,,,,,,,,,,,,,,"2009-07-14"
"72202012839","2020-06-19T07:53:00","FM-15","7",,,,,,,,,,,,,,,,,,,,,,,,,,,,,,,,,,,,,,"30.05","77","84","0.00",,,,"80","30.05","FEW:02 16 SCT:04 50 BKN:07 180","30.02","10.00","79","110",,"8",,,,,,,,,,,,,,,,,,,,,,,,,,,,,,,,,,,,,"MET11306/19/20 07:53:02 METAR KMIA 191253Z 11007KT 10SM FEW016 SCT050 BKN180 29/25 A3005 RMK AO2 SLP177 T02890250 (RLW)","FM-15","7",,,,,,,,,,,,,,,,,,,,,,,,,,,,"2009-07-14"
"72202012839","2020-06-19T08:53:00","FM-15","7",,,,,,,,,,,,,,,,,,,,,,,,,,,,,,,,,,,,,,"30.07","77","85","0.00",,,,"77","30.07","SCT:04 18 SCT:04 50 BKN:07 150","30.04","10.00","79","140",,"6",,,,,,,,,,,,,,,,,,,,,,,,,,,,,,,,,,,,,"MET10706/19/20 08:53:02 METAR KMIA 191353Z 14005KT 10SM SCT018 SCT050 BKN150 29/25 A3007 RMK AO2 SLP182 T02940250","FM-15","7",,,,,,,,,,,,,,,,,,,,,,,,,,,,"2009-07-14"
"72202012839","2020-06-19T09:53:00","FM-15","7",,,,,,,,,,,,,,,,,,,,,,,,,,,,,,,,,,,,,,"30.08","77","86","0.00",,"-0.04","1","75","30.07","FEW:02 20 FEW:02 50 SCT:04 120","30.05","10.00","80","170",,"6",,,,,,,,,,,,,,,,,,,,,,,,,,,,,,,,,,,,,"MET11306/19/20 09:53:02 METAR KMIA 191453Z 17005KT 10SM FEW020 FEW050 SCT120 30/25 A3008 RMK AO2 SLP184 T03000250 51015","FM-15","7",,,,,,,,,,,,,,,,,,,,,,,,,,,,"2009-07-14"
"72202012839","2020-06-19T10:00:00","FM-12","4",,,,,,,,,,,,,,,,,,,,,,,,,,,,,,,,,,,,,,,"77","86",,,"-0.04","1","75","30.07","26","30.05","9.94","80","170",,"6",,,,,,,,,,,,,,,,,,,,,,,,,,,,,,,,,,,,,"SYN06472202 32566 61705 10300 20250 30176 40184 51015 91453 555 91915=","FM-12","4",,,,,,,,,,,,,,,,,,,,,,,,,,,,"2009-07-14"
"72202012839","2020-06-19T10:53:00","FM-15","7",,,,,,,,,,,,,,,,,,,,,,,,,,,,,,,,,,,,,,"30.07","76","87","0.00",,,,"70","30.07","SCT:04 20 BKN:07 150 OVC:08 250","30.04","10.00","79","130",,"10",,,,,,,,,,,,,,,,,,,,,,,,,,,,,,,,,,,,,"MET10706/19/20 10:53:02 METAR KMIA 191553Z 13009KT 10SM SCT020 BKN150 OVC250 31/24 A3007 RMK AO2 SLP184 T03060244","FM-15","7",,,,,,,,,,,,,,,,,,,,,,,,,,,,"2009-07-14"
"72202012839","2020-06-19T11:53:00","FM-15","7",,,,,,,,,,,,,,,,,,,,,,,,,,,,,,,,,,,,,,"30.05","76","88","T",,,,"68","30.05","SCT:04 20 BKN:07 140 OVC:08 250","30.02","10.00","79","140",,"10",,,,,,,,,,,,,,,,,,,,,,,,,,,,,,,,,,,,,"MET12206/19/20 11:53:02 METAR KMIA 191653Z 14009KT 10SM SCT020 BKN140 OVC250 31/24 A3005 RMK AO2 RAB04E13 SLP176 P0000 T03110244","FM-15","7",,,,,,,,,,,,,,,,,,,,,,,,,,,,"2009-07-14"
"72202012839","2020-06-19T12:53:00","FM-15","7",,,,,,,,,,,,,,,,,,,,,,,,,,,,,,,,,,,,,,"30.05","78","89","0.00",,"+0.03","8","70","30.05","SCT:04 21 BKN:07 140 BKN:07 250","30.02","10.00","81","170",,"7",,,,,,,,,,,,,,,,,,,,,,,,,,,,,,,,,,,,,"MET13106/19/20 12:53:02 METAR KMIA 191753Z 17006KT 10SM SCT021 BKN140 BKN250 32/26 A3005 RMK AO2 SLP175 60000 T03170256 10317 20283 58009","FM-15","7",,,,,,,,,,,,,,,,,,,,,,,,,,,,"2009-07-14"
"72202012839","2020-06-19T13:00:00","FM-12","4",,,,,,,,,,,,,,,,,,,,,,,,,,,,,,,,,,,,,,,"78","89",,,"+0.03","8","70","30.05","26","30.02","9.94","81","170",,"7",,,,,,,,,,,,,,,,,,,,,,,,,,,,,,,,,,,,,"SYN08672202 12566 61706 10317 20256 30166 40175 58009 69901 91753 333 10317 20244 555 91918=","FM-12","4",,,,,,,,,,,,,,,,,,,,,,,,,,,,"2009-07-14"
"72202012839","2020-06-19T13:53:00","FM-15","7",,,,,,,,,,,,,,,,,,,,,,,,,,,,,,,,,,,,,,"30.02","76","89","0.00",,,,"65","30.02","SCT:04 21 BKN:07 140 BKN:07 250","29.99","10.00","80","140",,"13",,,,,,,,,,,,,,,,,,,,,,,,,,,,,,,,,,,,,"MET10706/19/20 13:53:02 METAR KMIA 191853Z 14011KT 10SM SCT021 BKN140 BKN250 32/24 A3002 RMK AO2 SLP166 T03170244","FM-15","7",,,,,,,,,,,,,,,,,,,,,,,,,,,,"2009-07-14"
"72202012839","2020-06-19T14:53:00","FM-15","7",,,,,,,,,,,,,,,,,,,,,,,,,,,,,,,,,,,,,,"30.00","76","89","0.00",,,,"65","30.00","SCT:04 26 SCT:04 130 BKN:07 190","29.97","10.00","80","140","18","11",,,,,,,,,,,,,,,,,,,,,,,,,,,,,,,,,,,,,"MET11006/19/20 14:53:02 METAR KMIA 191953Z 14010G16KT 10SM SCT026 SCT130 BKN190 32/24 A3000 RMK AO2 SLP159 T03170244","FM-15","7",,,,,,,,,,,,,,,,,,,,,,,,,,,,"2009-07-14"
"72202012839","2020-06-19T15:53:00","FM-15","7",,,,,,,,,,,,,,,,,,,,,,,,,,,,,,,,,,,,,,"30.00","76","87","0.00",,"+0.05","6","70","30.00","SCT:04 26 BKN:07 190 OVC:08 250","29.97","10.00","79","150",,"6",,,,,,,,,,,,,,,,,,,,,,,,,,,,,,,,,,,,,"MET11506/19/20 15:53:02 METAR KMIA 192053Z 15005KT 10SM SCT026 BKN190 OVC250 31/24 A3000 RMK AO2 SLP159 T03060244 56016 $","FM-15","7",,,,,,,,,,,,,,,,,,,,,,,,,,,,"2009-07-14"
"72202012839","2020-06-19T16:00:00","FM-12","4",,,,,,,,,,,,,,,,,,,,,,,,,,,,,,,,,,,,,,,"76","87",,,"+0.05","6","70","30.00","26","29.97","9.94","79","150",,"6",,,,,,,,,,,,,,,,,,,,,,,,,,,,,,,,,,,,,"SYN06472202 32566 81505 10306 20244 30149 40159 56016 92053 555 91921=","FM-12","4",,,,,,,,,,,,,,,,,,,,,,,,,,,,"2009-07-14"
"72202012839","2020-06-19T16:53:00","FM-15","7",,,,,,,,,,,,,,,,,,,,,,,,,,,,,,,,,,,,,,"29.99","77","88","0.00",,,,"70","29.99","SCT:04 25 BKN:07 180 BKN:07 250","29.96","10.00","80","130",,"6",,,,,,,,,,,,,,,,,,,,,,,,,,,,,,,,,,,,,"MET12006/19/20 16:53:02 METAR KMIA 192153Z 13005KT 10SM SCT025 BKN180 BKN250 31/25 A2999 RMK AO2 LTG DSNT N SLP156 T03110250 $","FM-15","7",,,,,,,,,,,,,,,,,,,,,,,,,,,,"2009-07-14"
"72202012839","2020-06-19T17:48:00","FM-16","7",,,,,,,,,,,,,,,,,,,,,,,,,,,,,,,,,,,,,,"30.02","77","88",,"|TS |RA",,,"70",,"BKN:07 25 BKN:07 40","29.99","10.00","80","130",,"8",,,,,,,,,,,,,,,,,,,,,,,,,,,,,,,,,,,,,"MET14906/19/20 17:48:02 SPECI KMIA 192248Z 13007KT 10SM TS BKN025CB BKN040 BKN1 31/25 A3002 RMK AO2 LTG DSNT NW-NE TSB48 OCNL LTGICCG NW-N TS NW-N MOV SE $","FM-16","7",,,,,,,,,,,,,,,,,,,,,,,,,,,,"2009-07-14"
"72202012839","2020-06-19T17:53:00","FM-15","7",,,,,,,,,,,,,,,,,,,,,,,,,,,,,,,,,,,,,,"30.02","77","86","0.00","|TS |RA",,,"75","30.02","BKN:07 25 BKN:07 40","29.99","10.00","80","110",,"7",,,,,,,,,,,,,,,,,,,,,,,,,,,,,,,,,,,,,"MET16806/19/20 17:53:02 METAR KMIA 192253Z 11006KT 10SM TS BKN025CB BKN040 BKN1 30/25 A3002 RMK AO2 LTG DSNT NW-NE TSB48 SLP165 OCNL LTGICCG NW-NE TS NW-NE MOV SE T03000250 $","FM-15","7",,,,,,,,,,,,,,,,,,,,,,,,,,,,"2009-07-14"
"72202012839","2020-06-19T18:07:00","FM-16","7",,,,,,,,,,,,,,,,,,,,,,,,,,,,,,,,,,,,,,"30.04","73","79","T","TS:7 -RA:02 |RA TS TS |RA",,,"82",,"SCT:04 9 BKN:07 21 OVC:08 180","30.01","2.00","75","350","23","16",,,,,,,,,,,,,,,,,,,,,,,,,,,,,,,,,,,,,"MET17306/19/20 18:07:02 SPECI KMIA 192307Z 35014G20KT 2SM -TSRA SCT009 BKN021CB OVC180 26/23 A3004 RMK AO2 LTG DSNT N AND NE RAB00 OCNL LTGICCG OHD TS OHD MOV SE P0000 T02610228 $","FM-16","7",,,,,,,,,,,,,,,,,,,,,,,,,,,,"2009-07-14"
"72202012839","2020-06-19T18:17:00","FM-16","7",,,,,,,,,,,,,,,,,,,,,,,,,,,,,,,,,,,,,,"30.05","73","76","0.11","TS:7 +RA:02 BR:1 |RA TS |RA",,,"91",,"FEW:02 9 BKN:07 19 OVC:08 36","30.02","2.00","74","350","30","13",,,,,,,,,,,,,,,,,,,,,,,,,,,,,,,,,,,,,"MET22106/19/20 18:17:02 SPECI KMIA 192317Z 35011G26KT 2SM R09/5000VP6000FT +TSRA BR FEW009 BKN019CB OVC036 24/23 A3005 RMK AO2 PK WND 34026/2308 WSHFT 2257 LTG DSNT W-NE RAB00 OCNL LTGICCG OHD TS OHD MOV STNRY P0011 T02440228 $","FM-16","7",,,,,,,,,,,,,,,,,,,,,,,,,,,,"2009-07-14"
"72202012839","2020-06-19T18:19:00","FM-16","7",,,,,,,,,,,,,,,,,,,,,,,,,,,,,,,,,,,,,,"30.05","73","76","0.15","TS:7 +RA:02 BR:1 |RA TS |RA",,,"91",,"SCT:04 14 BKN:07 21 OVC:08 35","30.02","1.50","74","VRB","24","10",,,,,,,,,,,,,,,,,,,,,,,,,,,,,,,,,,,,,"MET22406/19/20 18:19:02 SPECI KMIA 192319Z 35009G21KT 1 1/2SM R09/5000VP6000FT +TSRA BR SCT014 BKN021CB OVC035 24/23 A3005 RMK AO2 PK WND 34026/2308 WSHFT 2257 LTG DSNT W-NE RAB00 FRQ LTGICCG OHD TS OHD MOV STNRY P0015 T02440228 $","FM-16","7",,,,,,,,,,,,,,,,,,,,,,,,,,,,"2009-07-14"
"72202012839","2020-06-19T18:26:00","FM-16","7",,,,,,,,,,,,,,,,,,,,,,,,,,,,,,,,,,,,,,"30.06","73","76","0.29","TS:7 +RA:02 BR:1 |RA TS |RA",,,"91",,"BKN:07 14 BKN:07 21 OVC:08 35","30.03","1.50","74","360","24","9",,,,,,,,,,,,,,,,,,,,,,,,,,,,,,,,,,,,,"MET23606/19/20 18:26:02 SPECI KMIA 192326Z 36008G21KT 1 1/2SM R09/2600VP6000FT +TSRA BR BKN014 BKN021CB OVC035 24/23 A3006 RMK AO2 PK WND 34026/2308 WSHFT 2257 LTG DSNT W-NE RAB00 PRESRR FRQ LTGICCG OHD TS OHD MOV STNRY P0029 T02440228 $    )","FM-16","7",,,,,,,,,,,,,,,,,,,,,,,,,,,,"2009-07-14"
"72202012839","2020-06-19T18:42:00","FM-16","7",,,,,,,,,,,,,,,,,,,,,,,,,,,,,,,,,,,,,,"30.07","71","74","0.66","TS:7 +RA:02 BR:1 |RA TS |RA",,,"91",,"SCT:04 14 BKN:07 21 OVC:08 35","30.04","1.25","72","030",,"13",,,,,,,,,,,,,,,,,,,,,,,,,,,,,,,,,,,,,"MET22106/19/20 18:42:02 SPECI KMIA 192342Z 03011KT 1 1/4SM R09/3000V4500FT +TSRA BR SCT014 BKN021CB OVC035 23/22 A3007 RMK AO2 PK WND 34026/2308 WSHFT 2257 LTG DSNT NE AND W RAB00 FRQ LTGICCG OHD TS OHD MOV SE P0066 T02330217 $","FM-16","7",,,,,,,,,,,,,,,,,,,,,,,,,,,,"2009-07-14"
"72202012839","2020-06-19T18:53:00","FM-15","6",,,,,,,,,,,,,,,,,,,,,,,,,,,,,,,,,,,,,,"30.07","72","73","0.91s","||RA",,,"94","30.06","FEW:02 15 BKN:07 25","30.04","2.00","72","030",,"9",,,,,,,,,,,,,,,,,,,,,,,,,,,,,,,,,,,,,"MET25106/19/20 18:53:02 METAR KMIA 192353Z 03008KT 2SM R09/4000VP6000FT +TSRA BR FEW015 BKN025CB BKN0 23/22 A3007 RMK AO2 PK WND 34026/2308 WSHFT 2257 LTG DSNT NE AND SW RAB00 SLP181 OCNL LTGICCG OHD TS OHD MOV SE P0085 60085 T02330217 10322 20233 53 $ (EM)","FM-15","6",,,,,,,,,,,,,,,,,,,,,,,,,,,,"2009-07-14"
"72202012839","2020-06-19T19:11:00","FM-16","7",,,,,,,,,,,,,,,,,,,,,,,,,,,,,,,,,,,,,,"30.06","71","75","0.12","|TS |RA",,,"88",,"BKN:07 25 BKN:07 45","30.03","4.00","72","050",,"8",,,,,,,,,,,,,,,,,,,,,,,,,,,,,,,,,,,,,"MET19206/19/20 19:11:01 SPECI KMIA 200011Z 05007KT 4SM R09/6000VP6000FT TSRA BKN025CB BKN045 BKN1 24/22 A3006 RMK AO2 LTG DSNT NE AND S AND SW TSE00B01 OCNL LTGIC OHD TS OHD MOV SE P0012 T02390217 $","FM-16","7",,,,,,,,,,,,,,,,,,,,,,,,,,,,"2009-07-14"
"72202012839","2020-06-19T19:20:00","FM-16","7",,,,,,,,,,,,,,,,,,,,,,,,,,,,,,,,,,,,,,"30.06","71","75","0.15","|RA |RA",,,"88",,"FEW:02 25 BKN:07 45 BKN:07 70","30.03","7.00","72","080",,"7",,,,,,,,,,,,,,,,,,,,,,,,,,,,,,,,,,,,,"MET15106/19/20 19:20:01 SPECI KMIA 200020Z 08006KT 7SM -RA FEW025 BKN045 BKN070 24/22 A3006 RMK AO2 LTG DSNT S AND SW TSE00B01E16 TS DSIPTD P0015 T02390217 $","FM-16","7",,,,,,,,,,,,,,,,,,,,,,,,,,,,"2009-07-14"
"72202012839","2020-06-19T19:53:00","FM-15","7",,,,,,,,,,,,,,,,,,,,,,,,,,,,,,,,,,,,,,"30.04","72","76","0.09",,,,"88","30.04","FEW:02 25 SCT:04 55 BKN:07 80","30.01","10.00","73","100",,"3",,,,,,,,,,,,,,,,,,,,,,,,,,,,,,,,,,,,,"MET14506/19/20 19:53:01 METAR KMIA 200053Z 10003KT 10SM FEW025 SCT055 BKN080 24/22 A3004 RMK AO2 LTG DSNT SW RAE42 TSE00B01E16 SLP173 P0015 T02440222 $","FM-15","7",,,,,,,,,,,,,,,,,,,,,,,,,,,,"2009-07-14"
"72202012839","2020-06-19T20:53:00","FM-15","7",,,,,,,,,,,,,,,,,,,,,,,,,,,,,,,,,,,,,,"30.04","72","77","0.00",,,,"85","30.04","FEW:02 30 FEW:02 70 BKN:07 190","30.01","10.00","74","000",,"0",,,,,,,,,,,,,,,,,,,,,,,,,,,,,,,,,,,,,"MET14306/19/20 20:53:01 METAR KMIA 200153Z 00000KT 10SM FEW030 FEW070 BKN190 25/22 A3004 RMK AO2 SLP172 OCNL LTGIC DSNT E CB DSNT E MOV E T02500222 $","FM-15","7",,,,,,,,,,,,,,,,,,,,,,,,,,,,"2009-07-14"
"72202012839","2020-06-19T21:53:00","FM-15","7",,,,,,,,,,,,,,,,,,,,,,,,,,,,,,,,,,,,,,"30.05","74","77","0.00",,"+0.01","5","90","30.05","BKN:07 190 OVC:08 220","30.02","10.00","75","020",,"5",,,,,,,,,,,,,,,,,,,,,,,,,,,,,,,,,,,,,"MET11406/19/20 21:53:01 METAR KMIA 200253Z 02004KT 10SM BKN190 OVC220 25/23 A3005 RMK AO2 SLP177 60015 T02500233 55004 $","FM-15","7",,,,,,,,,,,,,,,,,,,,,,,,,,,,"2009-07-14"
"72202012839","2020-06-19T22:00:00","FM-12","4",,,,,,,,,,,,,,,,,,,,,,,,,,,,,,,,,,,,,,,"74","77",,,"+0.01","5","90","30.05",,"30.02","9.94","75","020",,"5",,,,,,,,,,,,,,,,,,,,,,,,,,,,,,,,,,,,,"SYN07072202 12966 80204 10250 20233 30166 40177 55004 60047 90253 555 92003=","FM-12","4",,,,,,,,,,,,,,,,,,,,,,,,,,,,"2009-07-14"
"72202012839","2020-06-19T22:53:00","FM-15","7",,,,,,,,,,,,,,,,,,,,,,,,,,,,,,,,,,,,,,"30.06","73","79","0.00",,,,"82","30.06","FEW:02 20 BKN:07 180 BKN:07 230","30.03","10.00","75","050",,"5",,,,,,,,,,,,,,,,,,,,,,,,,,,,,,,,,,,,,"MET10906/19/20 22:53:01 METAR KMIA 200353Z 05004KT 10SM FEW020 BKN180 BKN230 26/23 A3006 RMK AO2 SLP178 T02610228 $","FM-15","7",,,,,,,,,,,,,,,,,,,,,,,,,,,,"2009-07-14"
"72202012839","2020-06-19T23:53:00","FM-15","7",,,,,,,,,,,,,,,,,,,,,,,,,,,,,,,,,,,,,,"30.04","75","80","0.00",,,,"85","30.04","FEW:02 12 SCT:04 140 BKN:07 190","30.01","10.00","77","000",,"0",,,,,,,,,,,,,,,,,,,,,,,,,,,,,,,,,,,,,"MET11906/19/20 23:53:01 METAR KMIA 200453Z 00000KT 10SM FEW012 SCT140 BKN190 27/24 A3004 RMK AO2 SLP172 T02670239 403220233 $","FM-15","7",,,,,,,,,,,,,,,,,,,,,,,,,,,,"2009-07-14"
"72202012839","2020-06-19T23:59:00","SOD  ","6",,,,,,,,,,,,,,,"76","82","79","30.03","30.00","78","6.0","17","-1.0","0","90","74","340","30","1.00",,,"360","20","TS RA BR",,,,,,,,,,,,,,,,,,,,,,,,,,,,,,,,,,,,,,,,,,,,,,,,,,,,,,,,"SOD76124 HR PRECIPITATION (IN): 1.00 SNOW DEPTH (IN):0     24 HR SNOWFALL (IN):0.0  WEATHER(CODE):13  24 HR MAX TEMP (F): 9024 HR MIN TEMP (F): 74AVERAGE STATION PRESSURE(D):30.002 MINIMUM SEA LEVEL PRESSURE:29.98 TIME OF OCCURRENCE:1648 PEAK WIND SPEED (MPH): 29 PEAK WIND DIR (DEG):340 PEAK WIND TIME (LST):      FASTEST 2MIN SPEED (MPH): 20FASTEST 2MIN DIR (DEG):360 FASTEST 2MIN TIME (LST):     AVERAGE WIND SPEED (MPH): 6.0 24 HR AVG TEMP (F): 82DEPART FROM NORMAL: -1  HEATING DEGREE DAYS:  0 COOLING DEGREE DAYS: 17 LATEST DAY MAX TEMP (0700-1900 LST): 90 LATEST NIGHT MIN TEMP(1900-0800 LST):78 HOURLY INCREMENTAL PRECIPITATION VALUES (IN):0.00 0.00 0.00 0.00 0.00 0.00 0.00 0.00 0.00 0.00 0.00T     0.00 0.00 0.00 0.00 0.00 0.00 0.91 0.09 0.00 0.00 0.00 0.00","SOD  ","6",,,,,,,,,,,,,,,,,,,,,,,,,"0530","1915",,"2009-07-14"
"72202012839","2020-06-20T00:53:00","FM-15","7",,,,,,,,,,,,,,,,,,,,,,,,,,,,,,,,,,,,,,"30.04","77","81","0.00",,"+0.02","8","88","30.03","FEW:02 12 BKN:07 150 BKN:07 250","30.01","10.00","78","100",,"5",,,,,,,,,,,,,,,,,,,,,,,,,,,,,,,,,,,,,"MET13806/20/20 00:53:02 METAR KMIA 200553Z 10004KT 10SM FEW012 BKN150 BKN250 27/25 A3004 RMK AO2 SLP171 60015 T02720250 10272 20233 58006 $ (GR)","FM-15","7",,,,,,,,,,,,,,,,,,,,,,,,,,,,"2009-07-14"
"72202012839","2020-06-20T01:00:00","FM-12","4",,,,,,,,,,,,,,,,,,,,,,,,,,,,,,,,,,,,,,,"77","81",,,"+0.02","8","88","30.03","15","30.01","9.94","78","100",,"5",,,,,,,,,,,,,,,,,,,,,,,,,,,,,,,,,,,,,"SYN08672202 12466 61004 10272 20250 30163 40171 58006 60041 90553 333 10283 20233 555 92006=","FM-12","4",,,,,,,,,,,,,,,,,,,,,,,,,,,,"2009-07-14"
"72202012839","2020-06-20T01:53:00","FM-15","7",,,,,,,,,,,,,,,,,,,,,,,,,,,,,,,,,,,,,,"30.02","76","78","0.00",,,,"93","30.02","FEW:02 12 FEW:02 190 BKN:07 250","29.99","10.00","77","000",,"0",,,,,,,,,,,,,,,,,,,,,,,,,,,,,,,,,,,,,"MET11406/20/20 01:53:02 METAR KMIA 200653Z 00000KT 10SM FEW012 FEW190 BKN250 26/24 A3002 RMK AO2 SLP166 T02560244 $ (GR)","FM-15","7",,,,,,,,,,,,,,,,,,,,,,,,,,,,"2009-07-14"
"72202012839","2020-06-20T02:53:00","FM-15","7",,,,,,,,,,,,,,,,,,,,,,,,,,,,,,,,,,,,,,"30.02","76","78","0.00",,,,"93","30.02","FEW:02 15 FEW:02 250","29.99","10.00","77","000",,"0",,,,,,,,,,,,,,,,,,,,,,,,,,,,,,,,,,,,,"MET10706/20/20 02:53:02 METAR KMIA 200753Z 00000KT 10SM FEW015 FEW250 26/24 A3002 RMK AO2 SLP167 T02560244 $ (GR)","FM-15","7",,,,,,,,,,,,,,,,,,,,,,,,,,,,"2009-07-14"
"72202012839","2020-06-20T03:53:00","FM-15","7",,,,,,,,,,,,,,,,,,,,,,,,,,,,,,,,,,,,,,"30.03","76","79","0.00",,"+0.01","5","90","30.03","FEW:02 14 FEW:02 150 SCT:04 250","30.00","10.00","77","000",,"0",,,,,,,,,,,,,,,,,,,,,,,,,,,,,,,,,,,,,"MET12006/20/20 03:53:02 METAR KMIA 200853Z 00000KT 10SM FEW014 FEW150 SCT250 26/24 A3003 RMK AO2 SLP168 T02610244 55003 $ (GR)","FM-15","7",,,,,,,,,,,,,,,,,,,,,,,,,,,,"2009-07-14"
"72202012839","2020-06-20T04:00:00","FM-12","4",,,,,,,,,,,,,,,,,,,,,,,,,,,,,,,,,,,,,,,"76","79",,,"+0.01","5","90","30.03","15","30.00","9.94","77","000",,"0",,,,,,,,,,,,,,,,,,,,,,,,,,,,,,,,,,,,,"SYN06472202 32466 40000 10261 20244 30159 40168 55003 90853 555 92009=","FM-12","4",,,,,,,,,,,,,,,,,,,,,,,,,,,,"2009-07-14"
"72202012839","2020-06-20T04:53:00","FM-15","7",,,,,,,,,,,,,,,,,,,,,,,,,,,,,,,,,,,,,,"30.03","76","79","0.00",,,,"90","30.03","FEW:02 15 SCT:04 150 BKN:07 170","30.00","10.00","77","000",,"0",,,,,,,,,,,,,,,,,,,,,,,,,,,,,,,,,,,,,"MET11406/20/20 04:53:02 METAR KMIA 200953Z 00000KT 10SM FEW015 SCT150 BKN170 26/24 A3003 RMK AO2 SLP169 T02610244 $ (GR)","FM-15","7",,,,,,,,,,,,,,,,,,,,,,,,,,,,"2009-07-14"
"72202012839","2020-06-20T05:53:00","FM-15","7",,,,,,,,,,,,,,,,,,,,,,,,,,,,,,,,,,,,,,"30.03","75","79","0.00",,,,"88","30.03","FEW:02 70 SCT:04 150","30.00","10.00","76","000",,"0",,,,,,,,,,,,,,,,,,,,,,,,,,,,,,,,,,,,,"MET10706/20/20 05:53:02 METAR KMIA 201053Z 00000KT 10SM FEW070 SCT150 26/24 A3003 RMK AO2 SLP170 T02610239 $ (EM)","FM-15","7",,,,,,,,,,,,,,,,,,,,,,,,,,,,"2009-07-14"
"72202012839","2020-06-20T06:53:00","FM-15","7",,,,,,,,,,,,,,,,,,,,,,,,,,,,,,,,,,,,,,"30.04","77","84","0.00",,"-0.01","3","80","30.04","FEW:02 20 SCT:04 150 BKN:07 250","30.01","10.00","79","010",,"3",,,,,,,,,,,,,,,,,,,,,,,,,,,,,,,,,,,,,"MET14806/20/20 06:53:02 METAR KMIA 201153Z 01003KT 10SM FEW020 SCT150 BKN250 29/25 A3004 RMK AO2 SLP172 CB DSNT E 70100 T02890250 10289 20256 53004 $ (EM)","FM-15","7",,,,,,,,,,,,,,,,,,,,,,,,,,,,"2009-07-14"
"72202012839","2020-06-20T07:00:00","FM-12","4",,,,,,,,,,,,,,,,,,,,,,,,,,,,,,,,,,,,,,,"77","84",,,"-0.01","3","80","30.04","26","30.01","9.94","79","010",,"3",,,,,,,,,,,,,,,,,,,,,,,,,,,,,,,,,,,,,"SYN08672202 32566 60103 10289 20250 30163 40172 53004 91153 333 10322 20233 70254 555 92012=","FM-12","4",,,,,,,,,,,,,,,,,,,,,,,,,,,,"2009-07-14"
"72202012839","2020-06-20T07:53:00","FM-15","7",,,,,,,,,,,,,,,,,,,,,,,,,,,,,,,,,,,,,,"30.05","77","85","0.00",,,,"77","30.05","FEW:02 17 BKN:07 160 BKN:07 250","30.02","10.00","79","090",,"7",,,,,,,,,,,,,,,,,,,,,,,,,,,,,,,,,,,,,"MET12406/20/20 07:53:02 METAR KMIA 201253Z 09006KT 10SM FEW017 BKN160 BKN250 29/25 A3005 RMK AO2 SLP176 CB DSNT E T02940250 $ (EM)","FM-15","7",,,,,,,,,,,,,,,,,,,,,,,,,,,,"2009-07-14"
"72202012839","2020-06-20T08:53:00","FM-15","7",,,,,,,,,,,,,,,,,,,,,,,,,,,,,,,,,,,,,,"30.06","77","88","0.00",,,,"70","30.06","SCT:04 23 BKN:07 160 BKN:07 250","30.03","10.00","80","100",,"8",,,,,,,,,,,,,,,,,,,,,,,,,,,,,,,,,,,,,"MET11406/20/20 08:53:02 METAR KMIA 201353Z 10007KT 10SM SCT023 BKN160 BKN250 31/25 A3006 RMK AO2 SLP179 T03110250 $ (EM)","FM-15","7",,,,,,,,,,,,,,,,,,,,,,,,,,,,"2009-07-14"
"72202012839","2020-06-20T09:53:00","FM-15","7",,,,,,,,,,,,,,,,,,,,,,,,,,,,,,,,,,,,,,"30.07","76","89","0.00",,"-0.03","1","65","30.07","SCT:04 25 BKN:07 35","30.04","10.00","80","140",,"7",,,,,,,,,,,,,,,,,,,,,,,,,,,,,,,,,,,,,"MET11306/20/20 09:53:02 METAR KMIA 201453Z 14006KT 10SM SCT025 BKN035 32/24 A3007 RMK AO2 SLP183 T03170244 51010 $ (EM)","FM-15","7",,,,,,,,,,,,,,,,,,,,,,,,,,,,"2009-07-14"
"72202012839","2020-06-20T10:00:00","FM-12","4",,,,,,,,,,,,,,,,,,,,,,,,,,,,,,,,,,,,,,,"76","89",,,"-0.03","1","65","30.07","26","30.04","9.94","80","140",,"7",,,,,,,,,,,,,,,,,,,,,,,,,,,,,,,,,,,,,"SYN06472202 32566 61406 10317 20244 30173 40183 51010 91453 555 92015=","FM-12","4",,,,,,,,,,,,,,,,,,,,,,,,,,,,"2009-07-14"
"72202012839","2020-06-20T10:53:00","FM-15","7",,,,,,,,,,,,,,,,,,,,,,,,,,,,,,,,,,,,,,"30.08","75","90","0.00",,,,"62","30.07","BKN:07 30 BKN:07 150","30.05","10.00","79","100",,"11",,,,,,,,,,,,,,,,,,,,,,,,,,,,,,,,,,,,,"MET12106/20/20 10:53:02 METAR KMIA 201553Z 10010KT 10SM BKN030CB BKN150 32/24 A3008 RMK AO2 SLP184 CB NW MOV N T03220239 $ (EM)","FM-15","7",,,,,,,,,,,,,,,,,,,,,,,,,,,,"2009-07-14"
"72202012839","2020-06-20T11:12:00","FM-16","7",,,,,,,,,,,,,,,,,,,,,,,,,,,,,,,,,,,,,,"30.07","75","91",,"TS:7 |TS TS |",,,"59",,"FEW:02 20 BKN:07 30 BKN:07 130","30.04","10.00","80","110","20","14",,,,,,,,,,,,,,,,,,,,,,,,,,,,,,,,,,,,,"MET15706/20/20 11:12:02 SPECI KMIA 201612Z 11012G17KT 10SM TS FEW020CB BKN030 BKN130 33/24 A3007 RMK AO2 TSB06 OCNL LTGICCG NW-N TS NW-N MOV STNRY T03280239 $ (EM)","FM-16","7",,,,,,,,,,,,,,,,,,,,,,,,,,,,"2009-07-14"
"72202012839","2020-06-20T11:53:00","FM-15","7",,,,,,,,,,,,,,,,,,,,,,,,,,,,,,,,,,,,,,"30.07","75","88","0.00","|TS |",,,"66","30.07","SCT:04 20 BKN:07 33","30.04","10.00","79","110",,"10",,,,,,,,,,,,,,,,,,,,,,,,,,,,,,,,,,,,,"MET19206/20/20 11:53:02 METAR KMIA 201653Z 11009KT 10SM TS SCT020CB BKN033 BKN0 31/24 A3007 RMK AO2 LTG DSNT SW AND W TSB06E21B22 SLP182 OCNL LTGICCG W-N TS W-N MOV STNRY CB DSNT SW T03110239 $ (EM)","FM-15","7",,,,,,,,,,,,,,,,,,,,,,,,,,,,"2009-07-14"
"72202012839","2020-06-20T12:09:00","FM-16","7",,,,,,,,,,,,,,,,,,,,,,,,,,,,,,,,,,,,,,"30.06","74","88",,,,,"63",,"FEW:02 25 BKN:07 33 BKN:07 90","30.03","10.00","78","130",,"10",,,,,,,,,,,,,,,,,,,,,,,,,,,,,,,,,,,,,"MET15706/20/20 12:09:02 SPECI KMIA 201709Z 13009KT 10SM FEW025 BKN033 BKN090 31/23 A3006 RMK AO2 LTG DSNT SW-N TSE09 CB DSNT SW AND W-NW TS DSIPTD T03110233 $ (EM)","FM-16","7",,,,,,,,,,,,,,,,,,,,,,,,,,,,"2009-07-14"
"72202012839","2020-06-20T12:53:00","FM-15","7",,,,,,,,,,,,,,,,,,,,,,,,,,,,,,,,,,,,,,"30.06","75","88","0.00",,"+0.01","8","66","30.05","SCT:04 24 BKN:07 130 BKN:07 160","30.03","10.00","79","120",,"10",,,,,,,,,,,,,,,,,,,,,,,,,,,,,,,,,,,,,"MET16306/20/20 12:53:02 METAR KMIA 201753Z 12009KT 10SM SCT024 BKN130 BKN160 31/24 A3006 RMK AO2 LTG DSNT N TSE09 SLP177 CB DSNT SW NW T03110239 10328 20289 58005 $ (EM)","FM-15","7",,,,,,,,,,,,,,,,,,,,,,,,,,,,"2009-07-14"
"72202012839","2020-06-20T13:00:00","FM-12","4",,,,,,,,,,,,,,,,,,,,,,,,,,,,,,,,,,,,,,,"75","88",,,"+0.01","8","66","30.05","26","30.03","9.94","79","120",,"10",,,,,,,,,,,,,,,,,,,,,,,,,,,,,,,,,,,,,"SYN08072202 32566 61209 10311 20239 30169 40177 58005 91753 333 10328 20233 555 92018=","FM-12","4",,,,,,,,,,,,,,,,,,,,,,,,,,,,"2009-07-14"
"72202012839","2020-06-20T13:53:00","FM-15","7",,,,,,,,,,,,,,,,,,,,,,,,,,,,,,,,,,,,,,"30.05","75","89","0.00",,,,"63","30.04","SCT:04 24 BKN:07 150 BKN:07 250","30.02","10.00","79","160",,"8",,,,,,,,,,,,,,,,,,,,,,,,,,,,,,,,,,,,,"MET13206/20/20 13:53:02 METAR KMIA 201853Z 16007KT 10SM SCT024 BKN150 BKN250 32/24 A3005 RMK AO2 SLP174 CB DSNT N AND SW T03170239 $ (RDR)","FM-15","7",,,,,,,,,,,,,,,,,,,,,,,,,,,,"2009-07-14"
"72202012839","2020-06-20T14:53:00","FM-15","7",,,,,,,,,,,,,,,,,,,,,,,,,,,,,,,,,,,,,,"30.01","76","89","0.00",,,,"65","30.01","FEW:02 25 SCT:04 150 BKN:07 250","29.98","10.00","80","130",,"9",,,,,,,,,,,,,,,,,,,,,,,,,,,,,,,,,,,,,"MET12606/20/20 14:53:02 METAR KMIA 201953Z 13008KT 10SM FEW025 SCT150 BKN250 32/24 A3001 RMK AO2 SLP163 CB DSNT NW T03170244 $ (RDR)","FM-15","7",,,,,,,,,,,,,,,,,,,,,,,,,,,,"2009-07-14"
"72202012839","2020-06-20T15:53:00","FM-15","7",,,,,,,,,,,,,,,,,,,,,,,,,,,,,,,,,,,,,,"30.01","75","89","0.00",,"+0.04","6","63","30.01","FEW:02 25 FEW:02 150 BKN:07 250","29.98","10.00","79","120",,"9",,,,,,,,,,,,,,,,,,,,,,,,,,,,,,,,,,,,,"MET13206/20/20 15:53:02 METAR KMIA 202053Z 12008KT 10SM FEW025 FEW150 BKN250 32/24 A3001 RMK AO2 SLP162 CB DSNT NW T03170239 56015 $ (RDR)","FM-15","7",,,,,,,,,,,,,,,,,,,,,,,,,,,,"2009-07-14"
"72202012839","2020-06-20T16:00:00","FM-12","4",,,,,,,,,,,,,,,,,,,,,,,,,,,,,,,,,,,,,,,"75","89",,,"+0.04","6","63","30.01","26","29.98","9.94","79","120",,"9",,,,,,,,,,,,,,,,,,,,,,,,,,,,,,,,,,,,,"SYN06472202 32566 61208 10317 20239 30152 40162 56015 92053 555 92021=","FM-12","4",,,,,,,,,,,,,,,,,,,,,,,,,,,,"2009-07-14"
"72202012839","2020-06-20T16:53:00","FM-15","7",,,,,,,,,,,,,,,,,,,,,,,,,,,,,,,,,,,,,,"30.01","74","89","0.00",,,,"61","30.01","FEW:02 25 FEW:02 150 BKN:07 250","29.98","10.00","78","160",,"8",,,,,,,,,,,,,,,,,,,,,,,,,,,,,,,,,,,,,"MET14606/20/20 16:53:02 METAR KMIA 202153Z 16007KT 10SM FEW025 FEW150 BKN250 32/23 A3001 RMK AO2 LTG DSNT N AND NW SLP162 CB DSNT NW-N T03170233 $ (RDR)","FM-15","7",,,,,,,,,,,,,,,,,,,,,,,,,,,,"2009-07-14"
"72202012839","2020-06-20T17:53:00","FM-15","7",,,,,,,,,,,,,,,,,,,,,,,,,,,,,,,,,,,,,,"30.01","76","87","0.00",,,,"70","30.01","FEW:02 25 FEW:02 150 BKN:07 250","29.98","10.00","79","130",,"7",,,,,,,,,,,,,,,,,,,,,,,,,,,,,,,,,,,,,"MET11506/20/20 17:53:02 METAR KMIA 202253Z 13006KT 10SM FEW025 FEW150 BKN250 31/24 A3001 RMK AO2 SLP163 T03060244 $ (RDR)","FM-15","7",,,,,,,,,,,,,,,,,,,,,,,,,,,,"2009-07-14"
"72202012839","2020-06-20T18:53:00","FM-15","7",,,,,,,,,,,,,,,,,,,,,,,,,,,,,,,,,,,,,,"30.01","76","85","0.00",,"-0.00","3","75","30.01","FEW:02 25 FEW:02 110 BKN:07 250","29.98","10.00","79","120",,"6",,,,,,,,,,,,,,,,,,,,,,,,,,,,,,,,,,,,,"MET13306/20/20 18:53:02 METAR KMIA 202353Z 12005KT 10SM FEW025 FEW110 BKN250 29/24 A3001 RMK AO2 SLP164 T02940244 10322 20294 53001 $ (RDR)","FM-15","7",,,,,,,,,,,,,,,,,,,,,,,,,,,,"2009-07-14"
"72202012839","2020-06-20T19:00:00","FM-12","4",,,,,,,,,,,,,,,,,,,,,,,,,,,,,,,,,,,,,,,"76","85",,,"-0.00","3","75","30.01","26","29.98","9.94","79","120",,"6",,,,,,,,,,,,,,,,,,,,,,,,,,,,,,,,,,,,,"SYN08072202 32566 61205 10294 20244 30152 40164 53001 92353 333 10328 20256 555 92100=","FM-12","4",,,,,,,,,,,,,,,,,,,,,,,,,,,,"2009-07-14"
"72202012839","2020-06-20T19:53:00","FM-15","7",,,,,,,,,,,,,,,,,,,,,,,,,,,,,,,,,,,,,,"30.02","77","84","0.00",,,,"80","30.01","FEW:02 25 FEW:02 130 BKN:07 250","29.99","10.00","79","140",,"5",,,,,,,,,,,,,,,,,,,,,,,,,,,,,,,,,,,,,"MET10906/20/20 19:53:01 METAR KMIA 210053Z 14004KT 10SM FEW025 FEW130 BKN250 29/25 A3002 RMK AO2 SLP164 T02890250 $","FM-15","7",,,,,,,,,,,,,,,,,,,,,,,,,,,,"2009-07-14"
"72202012839","2020-06-20T20:53:00","FM-15","7",,,,,,,,,,,,,,,,,,,,,,,,,,,,,,,,,,,,,,"30.03","77","84","0.00",,,,"80","30.03","SCT:04 130 SCT:04 250","30.00","10.00","79","150",,"5",,,,,,,,,,,,,,,,,,,,,,,,,,,,,,,,,,,,,"MET10206/20/20 20:53:01 METAR KMIA 210153Z 15004KT 10SM SCT130 SCT250 29/25 A3003 RMK AO2 SLP170 T02890250 $","FM-15","7",,,,,,,,,,,,,,,,,,,,,,,,,,,,"2009-07-14"
"72202012839","2020-06-20T21:53:00","FM-15","7",,,,,,,,,,,,,,,,,,,,,,,,,,,,,,,,,,,,,,"30.05","76","84","0.00",,"-0.04","3","77","30.05","FEW:02 20 FEW:02 130 SCT:04 250","30.02","10.00","78","000",,"0",,,,,,,,,,,,,,,,,,,,,,,,,,,,,,,,,,,,,"MET11506/20/20 21:53:01 METAR KMIA 210253Z 00000KT 10SM FEW020 FEW130 SCT250 29/24 A3005 RMK AO2 SLP177 T02890244 53014 $","FM-15","7",,,,,,,,,,,,,,,,,,,,,,,,,,,,"2009-07-14"
"72202012839","2020-06-20T22:00:00","FM-12","4",,,,,,,,,,,,,,,,,,,,,,,,,,,,,,,,,,,,,,,"76","84",,,"-0.04","3","77","30.05","26","30.02","9.94","78","000",,"0",,,,,,,,,,,,,,,,,,,,,,,,,,,,,,,,,,,,,"SYN06472202 32566 40000 10289 20244 30166 40177 53014 90253 555 92103=","FM-12","4",,,,,,,,,,,,,,,,,,,,,,,,,,,,"2009-07-14"
"72202012839","2020-06-20T22:53:00","FM-15","7",,,,,,,,,,,,,,,,,,,,,,,,,,,,,,,,,,,,,,"30.05","77","83","0.00",,,,"82","30.05","FEW:02 20 FEW:02 130 SCT:04 250","30.02","10.00","79","120",,"5",,,,,,,,,,,,,,,,,,,,,,,,,,,,,,,,,,,,,"MET10906/20/20 22:53:01 METAR KMIA 210353Z 12004KT 10SM FEW020 FEW130 SCT250 28/25 A3005 RMK AO2 SLP175 T02830250 $","FM-15","7",,,,,,,,,,,,,,,,,,,,,,,,,,,,"2009-07-14"
"72202012839","2020-06-20T23:53:00","FM-15","7",,,,,,,,,,,,,,,,,,,,,,,,,,,,,,,,,,,,,,"30.04","77","82","0.00",,,,"85","30.04","FEW:02 25","30.01","10.00","78","000",,"0",,,,,,,,,,,,,,,,,,,,,,,,,,,,,,,,,,,,,"MET10506/20/20 23:53:01 METAR KMIA 210453Z 00000KT 10SM FEW025 28/25 A3004 RMK AO2 SLP172 T02780250 403280256 $","FM-15","7",,,,,,,,,,,,,,,,,,,,,,,,,,,,"2009-07-14"
"72202012839","2020-06-20T23:59:00","SOD  ","6",,,,,,,,,,,,,,,"76","85","76","30.03","30.00","79","5.1","20","2.0","0","91","78","120","20","0.00",,,"110","14","TS",,,,,,,,,,,,,,,,,,,,,,,,,,,,,,,,,,,,,,,,,,,,,,,,,,,,,,,,"SOD75624 HR PRECIPITATION (IN): 0.00 SNOW DEPTH (IN):0     24 HR SNOWFALL (IN):0.0  WEATHER(CODE):3  24 HR MAX TEMP (F): 9124 HR MIN TEMP (F): 78AVERAGE STATION PRESSURE:30.000 MINIMUM SEA LEVEL PRESSURE:30.00 TIME OF OCCURRENCE:1721 PEAK WIND SPEED (MPH): 20 PEAK WIND DIR (DEG):120 PEAK WIND TIME (LST):      FASTEST 2MIN SPEED (MPH): 14FASTEST 2MIN DIR (DEG):110 FASTEST 2MIN TIME (LST):     AVERAGE WIND SPEED (MPH): 5.1 24 HR AVG TEMP (F): 85DEPART FROM NORMAL:  2  HEATING DEGREE DAYS:  0 COOLING DEGREE DAYS: 20 LATEST DAY MAX TEMP (0700-1900 LST):91  LATEST NIGHT MIN TEMP(1900-0800 LST):75 HOURLY INCREMENTAL PRECIPITATION VALUES (IN):.00 0.00 0.00 0.00 0.00 0.00 0.00 0.00 0.00 0.00 0.00 0.00 0.00 0.00 0.00 0.00 0.00 0.00 0.00 0.00 0.00 0.00 0.00 0.00","SOD  ","6",,,,,,,,,,,,,,,,,,,,,,,,,"0530","1916",,"2009-07-14"
"72202012839","2020-06-21T00:53:00","FM-15","7",,,,,,,,,,,,,,,,,,,,,,,,,,,,,,,,,,,,,,"30.03","76","81","0.00",,"+0.02","8","85","30.03","FEW:02 25","30.00","10.00","77","120",,"5",,,,,,,,,,,,,,,,,,,,,,,,,,,,,,,,,,,,,"MET11806/21/20 00:53:02 METAR KMIA 210553Z 12004KT 10SM FEW025 27/24 A3003 RMK AO2 SLP169 T02720244 10294 20272 58008 $ (GR)","FM-15","7",,,,,,,,,,,,,,,,,,,,,,,,,,,,"2009-07-14"
"72202012839","2020-06-21T01:00:00","FM-12","4",,,,,,,,,,,,,,,,,,,,,,,,,,,,,,,,,,,,,,,"76","81",,,"+0.02","8","85","30.03","26","30.00","9.94","77","120",,"5",,,,,,,,,,,,,,,,,,,,,,,,,,,,,,,,,,,,,"SYN08072202 32566 21204 10272 20244 30159 40169 58008 90553 333 10294 20256 555 92106=","FM-12","4",,,,,,,,,,,,,,,,,,,,,,,,,,,,"2009-07-14"
"72202012839","2020-06-21T01:53:00","FM-15","7",,,,,,,,,,,,,,,,,,,,,,,,,,,,,,,,,,,,,,"30.02","76","82","0.00",,,,"82","30.02","FEW:02 25","29.99","10.00","78","000",,"0",,,,,,,,,,,,,,,,,,,,,,,,,,,,,,,,,,,,,"MET10006/21/20 01:53:02 METAR KMIA 210653Z 00000KT 10SM FEW025 28/24 A3002 RMK AO2 SLP167 T02780244 $ (GR)","FM-15","7",,,,,,,,,,,,,,,,,,,,,,,,,,,,"2009-07-14"
"72202012839","2020-06-21T02:53:00","FM-15","7",,,,,,,,,,,,,,,,,,,,,,,,,,,,,,,,,,,,,,"30.02","76","81","0.00",,,,"85","30.02","FEW:02 18 SCT:04 250","29.99","10.00","77","000",,"0",,,,,,,,,,,,,,,,,,,,,,,,,,,,,,,,,,,,,"MET10706/21/20 02:53:02 METAR KMIA 210753Z 00000KT 10SM FEW018 SCT250 27/24 A3002 RMK AO2 SLP166 T02720244 $ (GR)","FM-15","7",,,,,,,,,,,,,,,,,,,,,,,,,,,,"2009-07-14"
"72202012839","2020-06-21T03:53:00","FM-15","7",,,,,,,,,,,,,,,,,,,,,,,,,,,,,,,,,,,,,,"30.02","76","81","0.00",,"+0.01","8","85","30.01","FEW:02 18 SCT:04 250","29.99","10.00","77","000",,"0",,,,,,,,,,,,,,,,,,,,,,,,,,,,,,,,,,,,,"MET14506/21/20 03:53:02 METAR KMIA 210853Z 00000KT 10SM FEW018 SCT250 27/24 A3002 RMK AO2 SLP164 OCNL LTGIC SW CB DSNT SW MOV NW T02720244 58005 $ (GR)","FM-15","7",,,,,,,,,,,,,,,,,,,,,,,,,,,,"2009-07-14"
"72202012839","2020-06-21T04:00:00","FM-12","4",,,,,,,,,,,,,,,,,,,,,,,,,,,,,,,,,,,,,,,"76","81",,,"+0.01","8","85","30.01","15","29.99","9.94","77","000",,"0",,,,,,,,,,,,,,,,,,,,,,,,,,,,,,,,,,,,,"SYN06472202 32466 40000 10272 20244 30156 40164 58005 90853 555 92109=","FM-12","4",,,,,,,,,,,,,,,,,,,,,,,,,,,,"2009-07-14"
"72202012839","2020-06-21T04:53:00","FM-15","7",,,,,,,,,,,,,,,,,,,,,,,,,,,,,,,,,,,,,,"30.04","76","81","0.00",,,,"85","30.04","FEW:02 18 SCT:04 250","30.01","10.00","77","000",,"0",,,,,,,,,,,,,,,,,,,,,,,,,,,,,,,,,,,,,"MET10706/21/20 04:53:02 METAR KMIA 210953Z 00000KT 10SM FEW018 SCT250 27/24 A3004 RMK AO2 SLP172 T02720244 $ (GR)","FM-15","7",,,,,,,,,,,,,,,,,,,,,,,,,,,,"2009-07-14"
"72202012839","2020-06-21T05:53:00","FM-15","7",,,,,,,,,,,,,,,,,,,,,,,,,,,,,,,,,,,,,,"30.05","76","81","0.00",,,,"85","30.05","FEW:02 20 OVC:08 250","30.02","10.00","77","000",,"0",,,,,,,,,,,,,,,,,,,,,,,,,,,,,,,,,,,,,"MET10706/21/20 05:53:02 METAR KMIA 211053Z 00000KT 10SM FEW020 OVC250 27/24 A3005 RMK AO2 SLP175 T02720244 $ (EM)","FM-15","7",,,,,,,,,,,,,,,,,,,,,,,,,,,,"2009-07-14"
"72202012839","2020-06-21T06:53:00","FM-15","7",,,,,,,,,,,,,,,,,,,,,,,,,,,,,,,,,,,,,,"30.06","77","85","0.00",,"-0.04","1","77","30.06","FEW:02 20 FEW:02 140 OVC:08 250","30.03","10.00","79","000",,"0",,,,,,,,,,,,,,,,,,,,,,,,,,,,,,,,,,,,,"MET13206/21/20 06:53:02 METAR KMIA 211153Z 00000KT 10SM FEW020 FEW140 OVC250 29/25 A3006 RMK AO2 SLP178 T02940250 10294 20267 51014 $ (EM)","FM-15","7",,,,,,,,,,,,,,,,,,,,,,,,,,,,"2009-07-14"
"72202012839","2020-06-21T07:00:00","FM-12","4",,,,,,,,,,,,,,,,,,,,,,,,,,,,,,,,,,,,,,,"77","85",,,"-0.04","1","77","30.06","26","30.03","9.94","79","000",,"0",,,,,,,,,,,,,,,,,,,,,,,,,,,,,,,,,,,,,"SYN08072202 32566 80000 10294 20250 30169 40178 51014 91153 333 10328 20267 555 92112=","FM-12","4",,,,,,,,,,,,,,,,,,,,,,,,,,,,"2009-07-14"
"72202012839","2020-06-21T07:53:00","FM-15","7",,,,,,,,,,,,,,,,,,,,,,,,,,,,,,,,,,,,,,"30.08","76","85","0.00",,,,"75","30.07","FEW:02 17 SCT:04 140 OVC:08 250","30.05","10.00","79","000",,"0",,,,,,,,,,,,,,,,,,,,,,,,,,,,,,,,,,,,,"MET11206/21/20 07:53:02 METAR KMIA 211253Z 00000KT 10SM FEW017 SCT140 OVC250 29/24 A3008 RMK AO2 SLP184 T02940244 (EM)","FM-15","7",,,,,,,,,,,,,,,,,,,,,,,,,,,,"2009-07-14"
"72202012839","2020-06-21T08:53:00","FM-15","7",,,,,,,,,,,,,,,,,,,,,,,,,,,,,,,,,,,,,,"30.09","76","85","0.00",,,,"75","30.09","FEW:02 20 BKN:07 160 OVC:08 250","30.06","10.00","79","150",,"3",,,,,,,,,,,,,,,,,,,,,,,,,,,,,,,,,,,,,"MET11206/21/20 08:53:02 METAR KMIA 211353Z 15003KT 10SM FEW020 BKN160 OVC250 29/24 A3009 RMK AO2 SLP189 T02940244 (EM)","FM-15","7",,,,,,,,,,,,,,,,,,,,,,,,,,,,"2009-07-14"
"72202012839","2020-06-21T09:53:00","FM-15","7",,,,,,,,,,,,,,,,,,,,,,,,,,,,,,,,,,,,,,"30.09","74","88","0.00",,"-0.03","1","63","30.09","SCT:04 20 BKN:07 160 OVC:08 250","30.06","10.00","78","000",,"0",,,,,,,,,,,,,,,,,,,,,,,,,,,,,,,,,,,,,"MET11806/21/20 09:53:02 METAR KMIA 211453Z 00000KT 10SM SCT020 BKN160 OVC250 31/23 A3009 RMK AO2 SLP189 T03110233 51011 (EM)","FM-15","7",,,,,,,,,,,,,,,,,,,,,,,,,,,,"2009-07-14"
"72202012839","2020-06-21T10:00:00","FM-12","4",,,,,,,,,,,,,,,,,,,,,,,,,,,,,,,,,,,,,,,"74","88",,,"-0.03","1","63","30.09","26","30.06","9.94","78","000",,"0",,,,,,,,,,,,,,,,,,,,,,,,,,,,,,,,,,,,,"SYN06472202 32566 80000 10311 20233 30179 40189 51011 91453 555 92115=","FM-12","4",,,,,,,,,,,,,,,,,,,,,,,,,,,,"2009-07-14"
"72202012839","2020-06-21T10:53:00","FM-15","7",,,,,,,,,,,,,,,,,,,,,,,,,,,,,,,,,,,,,,"30.08","73","89","0.00",,,,"59","30.08","BKN:07 30 BKN:07 45 OVC:08 160","30.05","10.00","78","000",,"0",,,,,,,,,,,,,,,,,,,,,,,,,,,,,,,,,,,,,"MET13006/21/20 10:53:02 METAR KMIA 211553Z 00000KT 10SM BKN030 BKN045 OVC160 32/23 A3008 RMK AO2 LTG DSNT SW AND W SLP186 T03170228 (EM)","FM-15","7",,,,,,,,,,,,,,,,,,,,,,,,,,,,"2009-07-14"
"72202012839","2020-06-21T11:37:00","FM-16","7",,,,,,,,,,,,,,,,,,,,,,,,,,,,,,,,,,,,,,"30.09","74","87",,"TS:7 |TS TS |",,,"65",,"SCT:04 30 BKN:07 50 OVC:08 190","30.06","10.00","78","130",,"5",,,,,,,,,,,,,,,,,,,,,,,,,,,,,,,,,,,,,"MET17006/21/20 11:37:02 SPECI KMIA 211637Z 13004KT 10SM TS SCT030CB BKN050 OVC190 31/23 A3009 RMK AO2 LTG DSNT S AND SW TSE34B37 OCNL LTGICCG S-SW TS S-SW MOV NE T03060233 (EM)","FM-16","7",,,,,,,,,,,,,,,,,,,,,,,,,,,,"2009-07-14"
"72202012839","2020-06-21T11:53:00","FM-15","7",,,,,,,,,,,,,,,,,,,,,,,,,,,,,,,,,,,,,,"30.09","75","86","0.00","|TS |",,,"70","30.09","FEW:02 25 SCT:04 50","30.06","10.00","78","150",,"7",,,,,,,,,,,,,,,,,,,,,,,,,,,,,,,,,,,,,"MET16506/21/20 11:53:02 METAR KMIA 211653Z 15006KT 10SM TS FEW025CB SCT050 BKN1 30/24 A3009 RMK AO2 LTG DSNT SW TSE34B37 SLP189 OCNL LTGICCG SW TS SW MOV NE T03000239 (EM)","FM-15","7",,,,,,,,,,,,,,,,,,,,,,,,,,,,"2009-07-14"
"72202012839","2020-06-21T12:03:00","FM-16","7",,,,,,,,,,,,,,,,,,,,,,,,,,,,,,,,,,,,,,"30.09","75","86",,,,,"70",,"FEW:02 25 SCT:04 50 BKN:07 120","30.06","10.00","78","150",,"7",,,,,,,,,,,,,,,,,,,,,,,,,,,,,,,,,,,,,"MET12106/21/20 12:03:02 SPECI KMIA 211703Z 15006KT 10SM FEW025 SCT050 BKN120 30/24 A3009 RMK AO2 TSE01 TS DSIPTD T03000239 (EM)","FM-16","7",,,,,,,,,,,,,,,,,,,,,,,,,,,,"2009-07-14"
"72202012839","2020-06-21T12:53:00","FM-15","7",,,,,,,,,,,,,,,,,,,,,,,,,,,,,,,,,,,,,,"30.08","78","85","T","|RA |","+0.01","6","80","30.08","BKN:07 32 BKN:07 95 BKN:07 120","30.05","10.00","80","170",,"5",,,,,,,,,,,,,,,,,,,,,,,,,,,,,,,,,,,,,"MET15806/21/20 12:53:02 METAR KMIA 211753Z 17004KT 10SM -RA BKN032 BKN095 BKN120 29/26 A3008 RMK AO2 RAB49 TSE01 SLP187 P0000 60000 T02940256 10317 20289 56002 (EM)","FM-15","7",,,,,,,,,,,,,,,,,,,,,,,,,,,,"2009-07-14"
"72202012839","2020-06-21T13:00:00","FM-12","4",,,,,,,,,,,,,,,,,,,,,,,,,,,,,,,,,,,,,,,"78","85",,"||RA","+0.01","6","80","30.08","26","30.05","9.94","80","170",,"5",,,,,,,,,,,,,,,,,,,,,,,,,,,,,,,,,,,,,"SYN09272202 11566 81704 10294 20256 30176 40187 56002 69901 761// 91753 333 10317 20289 555 92118=","FM-12","4",,,,,,,,,,,,,,,,,,,,,,,,,,,,"2009-07-14"
"72202012839","2020-06-21T13:53:00","FM-15","7",,,,,,,,,,,,,,,,,,,,,,,,,,,,,,,,,,,,,,"30.07","75","86","0.01",,,,"70","30.07","FEW:02 32 SCT:04 95 BKN:07 150","30.04","10.00","78","130",,"9",,,,,,,,,,,,,,,,,,,,,,,,,,,,,,,,,,,,,"MET12506/21/20 13:53:02 METAR KMIA 211853Z 13008KT 10SM FEW032 SCT095 BKN150 30/24 A3007 RMK AO2 RAE16 SLP182 P0001 T03000239 (RDR)","FM-15","7",,,,,,,,,,,,,,,,,,,,,,,,,,,,"2009-07-14"
"72202012839","2020-06-21T14:53:00","FM-15","7",,,,,,,,,,,,,,,,,,,,,,,,,,,,,,,,,,,,,,"30.05","74","90","0.00",,,,"59","30.05","FEW:02 25 SCT:04 150 BKN:07 250","30.02","10.00","79","120",,"6",,,,,,,,,,,,,,,,,,,,,,,,,,,,,,,,,,,,,"MET13406/21/20 14:53:02 METAR KMIA 211953Z 12005KT 10SM FEW025 SCT150 BKN250 32/23 A3005 RMK AO2 LTG DSNT N SLP175 CB DSNT N T03220233 (RDR)","FM-15","7",,,,,,,,,,,,,,,,,,,,,,,,,,,,"2009-07-14"
"72202012839","2020-06-21T15:53:00","FM-15","7",,,,,,,,,,,,,,,,,,,,,,,,,,,,,,,,,,,,,,"30.05","73","90","0.00",,"+0.04","6","58","30.04","FEW:02 25 FEW:02 150 BKN:07 250","30.02","10.00","78","000",,"0",,,,,,,,,,,,,,,,,,,,,,,,,,,,,,,,,,,,,"MET13806/21/20 15:53:02 METAR KMIA 212053Z 00000KT 10SM FEW025 FEW150 BKN250 32/23 A3005 RMK AO2 SLP174 CB DSNT W-NW 60001 T03220228 56012 (RDR)","FM-15","7",,,,,,,,,,,,,,,,,,,,,,,,,,,,"2009-07-14"
"72202012839","2020-06-21T16:00:00","FM-12","4",,,,,,,,,,,,,,,,,,,,,,,,,,,,,,,,,,,,,,,"73","90",,,"+0.04","6","58","30.04","26","30.02","9.94","78","000",,"0",,,,,,,,,,,,,,,,,,,,,,,,,,,,,,,,,,,,,"SYN07072202 12566 60000 10322 20228 30166 40174 56012 69937 92053 555 92121=","FM-12","4",,,,,,,,,,,,,,,,,,,,,,,,,,,,"2009-07-14"
"72202012839","2020-06-21T16:53:00","FM-15","7",,,,,,,,,,,,,,,,,,,,,,,,,,,,,,,,,,,,,,"30.05","74","87","0.00",,,,"65","30.05","FEW:02 35 FEW:02 90 SCT:04 150","30.02","10.00","78","120",,"6",,,,,,,,,,,,,,,,,,,,,,,,,,,,,,,,,,,,,"MET12706/21/20 16:53:02 METAR KMIA 212153Z 12005KT 10SM FEW035 FEW090 SCT150 31/23 A3005 RMK AO2 SLP177 CB DSNT SW-NW T03060233 (RDR)","FM-15","7",,,,,,,,,,,,,,,,,,,,,,,,,,,,"2009-07-14"
"72202012839","2020-06-21T17:53:00","FM-15","7",,,,,,,,,,,,,,,,,,,,,,,,,,,,,,,,,,,,,,"30.05","76","86","0.00",,,,"72","30.05","FEW:02 32 SCT:04 90 SCT:04 180","30.02","10.00","79","140",,"5",,,,,,,,,,,,,,,,,,,,,,,,,,,,,,,,,,,,,"MET13606/21/20 17:53:02 METAR KMIA 212253Z 14004KT 10SM FEW032 SCT090 SCT180 30/24 A3005 RMK AO2 LTG DSNT SW SLP177 CB DSNT SW T03000244 (RDR)","FM-15","7",,,,,,,,,,,,,,,,,,,,,,,,,,,,"2009-07-14"
"72202012839","2020-06-21T18:53:00","FM-15","7",,,,,,,,,,,,,,,,,,,,,,,,,,,,,,,,,,,,,,"30.05","76","85","T","|RA |","-0.01","0","75","30.05","FEW:02 30 BKN:07 110 BKN:07 180","30.02","10.00","79","110",,"9",,,,,,,,,,,,,,,,,,,,,,,,,,,,,,,,,,,,,"MET16306/21/20 18:53:02 METAR KMIA 212353Z 11008KT 10SM -RA FEW030 BKN110 BKN180 29/24 A3005 RMK AO2 RAB43 SLP176 CB DSNT S P0000 60001 T02940244 10328 20294 50002 (RDR)","FM-15","7",,,,,,,,,,,,,,,,,,,,,,,,,,,,"2009-07-14"
"72202012839","2020-06-21T19:00:00","FM-12","4",,,,,,,,,,,,,,,,,,,,,,,,,,,,,,,,,,,,,,,"76","85",,"||RA","0.01","9","75","30.05","26","30.02","9.94","79","110",,"9",,,,,,,,,,,,,,,,,,,,,,,,,,,,,,,,,,,,,"SYN09272202 11566 61108 10294 20244 30166 40176 50002 69931 761// 92353 333 10328 20267 555 92200=","FM-12","4",,,,,,,,,,,,,,,,,,,,,,,,,,,,"2009-07-14"
"72202012839","2020-06-21T19:53:00","FM-15","7",,,,,,,,,,,,,,,,,,,,,,,,,,,,,,,,,,,,,,"30.04","76","84","T",,,,"77","30.04","FEW:02 30 FEW:02 110 BKN:07 180","30.01","10.00","78","130",,"3",,,,,,,,,,,,,,,,,,,,,,,,,,,,,,,,,,,,,"MET11906/21/20 19:53:01 METAR KMIA 220053Z 13003KT 10SM FEW030 FEW110 BKN180 29/24 A3004 RMK AO2 RAE51 SLP174 P0000 T02890244","FM-15","7",,,,,,,,,,,,,,,,,,,,,,,,,,,,"2009-07-14"
"72202012839","2020-06-21T20:53:00","FM-15","7",,,,,,,,,,,,,,,,,,,,,,,,,,,,,,,,,,,,,,"30.06","76","83","0.00",,,,"79","30.06","FEW:02 110 SCT:04 250","30.03","10.00","78","VRB",,"3",,,,,,,,,,,,,,,,,,,,,,,,,,,,,,,,,,,,,"MET10006/21/20 20:53:01 METAR KMIA 220153Z VRB03KT 10SM FEW110 SCT250 28/24 A3006 RMK AO2 SLP179 T02830244","FM-15","7",,,,,,,,,,,,,,,,,,,,,,,,,,,,"2009-07-14"
"72202012839","2020-06-21T21:53:00","FM-15","7",,,,,,,,,,,,,,,,,,,,,,,,,,,,,,,,,,,,,,"30.06","76","83","0.00",,"-0.01","3","79","30.06","FEW:02 150 SCT:04 250","30.03","10.00","78","100",,"3",,,,,,,,,,,,,,,,,,,,,,,,,,,,,,,,,,,,,"MET11206/21/20 21:53:01 METAR KMIA 220253Z 10003KT 10SM FEW150 SCT250 28/24 A3006 RMK AO2 SLP180 60000 T02830244 53004","FM-15","7",,,,,,,,,,,,,,,,,,,,,,,,,,,,"2009-07-14"
"72202012839","2020-06-21T22:00:00","FM-12","4",,,,,,,,,,,,,,,,,,,,,,,,,,,,,,,,,,,,,,,"76","83",,,"-0.01","3","79","30.06",,"30.03","9.94","78","100",,"3",,,,,,,,,,,,,,,,,,,,,,,,,,,,,,,,,,,,,"SYN07072202 12966 41003 10283 20244 30169 40180 53004 69907 90253 555 92203=","FM-12","4",,,,,,,,,,,,,,,,,,,,,,,,,,,,"2009-07-14"
"72202012839","2020-06-21T22:53:00","FM-15","7",,,,,,,,,,,,,,,,,,,,,,,,,,,,,,,,,,,,,,"30.07","76","82","0.00",,,,"82","30.06","FEW:02 25 FEW:02 250","30.04","10.00","78","130",,"3",,,,,,,,,,,,,,,,,,,,,,,,,,,,,,,,,,,,,"MET10006/21/20 22:53:01 METAR KMIA 220353Z 13003KT 10SM FEW025 FEW250 28/24 A3007 RMK AO2 SLP181 T02780244","FM-15","7",,,,,,,,,,,,,,,,,,,,,,,,,,,,"2009-07-14"
"72202012839","2020-06-21T23:53:00","FM-15","7",,,,,,,,,,,,,,,,,,,,,,,,,,,,,,,,,,,,,,"30.07","76","83","0.00",,,,"79","30.06","FEW:02 25 FEW:02 250","30.04","10.00","78","120",,"3",,,,,,,,,,,,,,,,,,,,,,,,,,,,,,,,,,,,,"MET11006/21/20 23:53:01 METAR KMIA 220453Z 12003KT 10SM FEW025 FEW250 28/24 A3007 RMK AO2 SLP181 T02830244 403280267","FM-15","7",,,,,,,,,,,,,,,,,,,,,,,,,,,,"2009-07-14"
"72202012839","2020-06-21T23:59:00","SOD  ","6",,,,,,,,,,,,,,,"76","86","75","30.05","30.02","78","3.0","21","3.0","0","91","80","150","17","0.01",,,"120","12","TS RA",,,,,,,,,,,,,,,,,,,,,,,,,,,,,,,,,,,,,,,,,,,,,,,,,,,,,,,,"SOD75624 HR PRECIPITATION (IN): 0.01 SNOW DEPTH (IN):0     24 HR SNOWFALL (IN):0.0  WEATHER(CODE):3  24 HR MAX TEMP (F): 9124 HR MIN TEMP (F): 80AVERAGE STATION PRESSURE:30.020 MINIMUM SEA LEVEL PRESSURE:30.01 TIME OF OCCURRENCE:0421 PEAK WIND SPEED (MPH): 17 PEAK WIND DIR (DEG):150 PEAK WIND TIME (LST):      FASTEST 2MIN SPEED (MPH): 12FASTEST 2MIN DIR (DEG):120 FASTEST 2MIN TIME (LST):     AVERAGE WIND SPEED (MPH): 3.0 24 HR AVG TEMP (F): 86DEPART FROM NORMAL:  3  HEATING DEGREE DAYS:  0 COOLING DEGREE DAYS: 21 LATEST DAY MAX TEMP (0700-1900 LST):91  LATEST NIGHT MIN TEMP(1900-0800 LST):80 HOURLY INCREMENTAL PRECIPITATION VALUES (IN):.00 0.00 0.00 0.00 0.00 0.00 0.00 0.00 0.00 0.00 0.00 0.00 T    0.01 0.00 0.00 0.00 0.00 T    T    0.00 0.00 0.00 0.00","SOD  ","6",,,,,,,,,,,,,,,,,,,,,,,,,"0531","1916",,"2009-07-14"
"72202012839","2020-06-22T00:53:00","FM-15","7",,,,,,,,,,,,,,,,,,,,,,,,,,,,,,,,,,,,,,"30.07","76","82","0.00",,"-0.01","3","82","30.07","FEW:02 22 SCT:04 250","30.04","10.00","78","000",,"0",,,,,,,,,,,,,,,,,,,,,,,,,,,,,,,,,,,,,"MET12906/22/20 00:53:02 METAR KMIA 220553Z 00000KT 10SM FEW022 SCT250 28/24 A3007 RMK AO2 SLP184 60000 T02780244 10294 20267 53004 (GR)","FM-15","7",,,,,,,,,,,,,,,,,,,,,,,,,,,,"2009-07-14"
"72202012839","2020-06-22T01:00:00","FM-12","4",,,,,,,,,,,,,,,,,,,,,,,,,,,,,,,,,,,,,,,"76","82",,,"-0.01","3","82","30.07","26","30.04","9.94","78","000",,"0",,,,,,,,,,,,,,,,,,,,,,,,,,,,,,,,,,,,,"SYN08672202 12566 40000 10278 20244 30173 40184 53004 69901 90553 333 10294 20267 555 92206=","FM-12","4",,,,,,,,,,,,,,,,,,,,,,,,,,,,"2009-07-14"
"72202012839","2020-06-22T01:53:00","FM-15","7",,,,,,,,,,,,,,,,,,,,,,,,,,,,,,,,,,,,,,"30.08","76","81","0.00",,,,"85","30.07","FEW:02 20 BKN:07 250","30.05","10.00","77","000",,"0",,,,,,,,,,,,,,,,,,,,,,,,,,,,,,,,,,,,,"MET10506/22/20 01:53:02 METAR KMIA 220653Z 00000KT 10SM FEW020 BKN250 27/24 A3008 RMK AO2 SLP184 T02720244 (GR)","FM-15","7",,,,,,,,,,,,,,,,,,,,,,,,,,,,"2009-07-14"
"72202012839","2020-06-22T02:53:00","FM-15","7",,,,,,,,,,,,,,,,,,,,,,,,,,,,,,,,,,,,,,"30.07","76","81","0.00",,,,"85","30.07","SCT:04 21 SCT:04 250","30.04","10.00","77","000",,"0",,,,,,,,,,,,,,,,,,,,,,,,,,,,,,,,,,,,,"MET10506/22/20 02:53:02 METAR KMIA 220753Z 00000KT 10SM SCT021 SCT250 27/24 A3007 RMK AO2 SLP183 T02720244 (GR)","FM-15","7",,,,,,,,,,,,,,,,,,,,,,,,,,,,"2009-07-14"
"72202012839","2020-06-22T03:53:00","FM-15","7",,,,,,,,,,,,,,,,,,,,,,,,,,,,,,,,,,,,,,"30.07","76","82","0.00",,"+0.01","8","82","30.06","FEW:02 21 SCT:04 250","30.04","10.00","78","350",,"3",,,,,,,,,,,,,,,,,,,,,,,,,,,,,,,,,,,,,"MET11106/22/20 03:53:02 METAR KMIA 220853Z 35003KT 10SM FEW021 SCT250 28/24 A3007 RMK AO2 SLP181 T02780244 58003 (GR)","FM-15","7",,,,,,,,,,,,,,,,,,,,,,,,,,,,"2009-07-14"
"72202012839","2020-06-22T04:00:00","FM-12","4",,,,,,,,,,,,,,,,,,,,,,,,,,,,,,,,,,,,,,,"76","82",,,"+0.01","8","82","30.06","26","30.04","9.94","78","350",,"3",,,,,,,,,,,,,,,,,,,,,,,,,,,,,,,,,,,,,"SYN06472202 32566 43503 10278 20244 30173 40181 58003 90853 555 92209=","FM-12","4",,,,,,,,,,,,,,,,,,,,,,,,,,,,"2009-07-14"
"72202012839","2020-06-22T04:53:00","FM-15","7",,,,,,,,,,,,,,,,,,,,,,,,,,,,,,,,,,,,,,"30.07","76","82","0.00",,,,"82","30.07","FEW:02 20 BKN:07 250","30.04","10.00","78","360",,"6",,,,,,,,,,,,,,,,,,,,,,,,,,,,,,,,,,,,,"MET12206/22/20 04:53:02 METAR KMIA 220953Z 36005KT 10SM FEW020 BKN250 28/24 A3007 RMK AO2 SLP183 CB DSNT E MOV NW T02780244 (GR)","FM-15","7",,,,,,,,,,,,,,,,,,,,,,,,,,,,"2009-07-14"
"72202012839","2020-06-22T05:53:00","FM-15","7",,,,,,,,,,,,,,,,,,,,,,,,,,,,,,,,,,,,,,"30.08","76","81","0.00",,,,"85","30.08","FEW:02 20 BKN:07 250","30.05","10.00","77","360",,"5",,,,,,,,,,,,,,,,,,,,,,,,,,,,,,,,,,,,,"MET12306/22/20 05:53:02 METAR KMIA 221053Z 36004KT 10SM FEW020 BKN250 27/24 A3008 RMK AO2 SLP187 CB DSNT SE MOV NW T02720244 (EM)","FM-15","7",,,,,,,,,,,,,,,,,,,,,,,,,,,,"2009-07-14"
"72202012839","2020-06-22T06:53:00","FM-15","7",,,,,,,,,,,,,,,,,,,,,,,,,,,,,,,,,,,,,,"30.10","76","83","0.00",,"-0.03","3","79","30.10","FEW:02 25 FEW:02 150 BKN:07 250","30.07","10.00","78","040",,"5",,,,,,,,,,,,,,,,,,,,,,,,,,,,,,,,,,,,,"MET14806/22/20 06:53:02 METAR KMIA 221153Z 04004KT 10SM FEW025 FEW150 BKN250 28/24 A3010 RMK AO2 SLP192 TCU DSNT NE 70001 T02830244 10283 20261 53011 (EM)","FM-15","7",,,,,,,,,,,,,,,,,,,,,,,,,,,,"2009-07-14"
"72202012839","2020-06-22T07:00:00","FM-12","4",,,,,,,,,,,,,,,,,,,,,,,,,,,,,,,,,,,,,,,"76","83",,,"-0.03","3","79","30.10","26","30.07","9.94","78","040",,"5",,,,,,,,,,,,,,,,,,,,,,,,,,,,,,,,,,,,,"SYN08672202 32566 60404 10283 20244 30183 40192 53011 91153 333 10328 20261 70003 555 92212=","FM-12","4",,,,,,,,,,,,,,,,,,,,,,,,,,,,"2009-07-14"
"72202012839","2020-06-22T07:53:00","FM-15","7",,,,,,,,,,,,,,,,,,,,,,,,,,,,,,,,,,,,,,"30.11","77","86","0.00",,,,"75","30.11","FEW:02 30 BKN:07 250","30.08","10.00","80","040",,"6",,,,,,,,,,,,,,,,,,,,,,,,,,,,,,,,,,,,,"MET14006/22/20 07:53:02 METAR KMIA 221253Z 04005KT 10SM FEW030 BKN250 30/25 A3011 RMK AO2 LTG DSNT NE SLP196 CB DSNT NE TCU DSNT SE T03000250 (EM)","FM-15","7",,,,,,,,,,,,,,,,,,,,,,,,,,,,"2009-07-14"
"72202012839","2020-06-22T08:53:00","FM-15","7",,,,,,,,,,,,,,,,,,,,,,,,,,,,,,,,,,,,,,"30.11","76","87","0.00",,,,"70","30.11","SCT:04 23 BKN:07 250","30.08","10.00","79","000",,"0",,,,,,,,,,,,,,,,,,,,,,,,,,,,,,,,,,,,,"MET10506/22/20 08:53:02 METAR KMIA 221353Z 00000KT 10SM SCT023 BKN250 31/24 A3011 RMK AO2 SLP197 T03060244 (EM)","FM-15","7",,,,,,,,,,,,,,,,,,,,,,,,,,,,"2009-07-14"
"72202012839","2020-06-22T09:30:00","FM-16","7",,,,,,,,,,,,,,,,,,,,,,,,,,,,,,,,,,,,,,"30.11","76","90",,,,,"63",,"BKN:07 28 BKN:07 250","30.08","10.00","80","340",,"3",,,,,,,,,,,,,,,,,,,,,,,,,,,,,,,,,,,,,"MET09806/22/20 09:30:02 SPECI KMIA 221430Z 34003KT 10SM BKN028 BKN250 32/24 A3011 RMK AO2 T03220244 (EM)","FM-16","7",,,,,,,,,,,,,,,,,,,,,,,,,,,,"2009-07-14"
"72202012839","2020-06-22T09:51:00","FM-16","7",,,,,,,,,,,,,,,,,,,,,,,,,,,,,,,,,,,,,,"30.11","75","90",,,,,"63",,"SCT:04 28 BKN:07 250","30.08","10.00","79","140",,"6",,,,,,,,,,,,,,,,,,,,,,,,,,,,,,,,,,,,,"MET08806/22/20 09:51:02 SPECI KMIA 221451Z 14005KT 10SM SCT028 BKN250 32/24 A3011 RMK AO2 (EM)","FM-16","7",,,,,,,,,,,,,,,,,,,,,,,,,,,,"2009-07-14"
"72202012839","2020-06-22T09:53:00","FM-15","7",,,,,,,,,,,,,,,,,,,,,,,,,,,,,,,,,,,,,,"30.11","76","89","0.00",,"-0.01","0","65","30.11","SCT:04 28 BKN:07 250","30.08","10.00","80","130",,"6",,,,,,,,,,,,,,,,,,,,,,,,,,,,,,,,,,,,,"MET11106/22/20 09:53:02 METAR KMIA 221453Z 13005KT 10SM SCT028 BKN250 32/24 A3011 RMK AO2 SLP195 T03170244 50003 (EM)","FM-15","7",,,,,,,,,,,,,,,,,,,,,,,,,,,,"2009-07-14"
"72202012839","2020-06-22T10:00:00","FM-12","4",,,,,,,,,,,,,,,,,,,,,,,,,,,,,,,,,,,,,,,"76","89",,,"0.01","9","65","30.11","26","30.08","9.94","80","130",,"6",,,,,,,,,,,,,,,,,,,,,,,,,,,,,,,,,,,,,"SYN06472202 32566 61305 10317 20244 30186 40195 50003 91453 555 92215=","FM-12","4",,,,,,,,,,,,,,,,,,,,,,,,,,,,"2009-07-14"
"72202012839","2020-06-22T10:53:00","FM-15","7",,,,,,,,,,,,,,,,,,,,,,,,,,,,,,,,,,,,,,"30.10","74","91","0.00",,,,"57","30.10","SCT:04 30 BKN:07 250","30.07","10.00","79","100",,"10",,,,,,,,,,,,,,,,,,,,,,,,,,,,,,,,,,,,,"MET11606/22/20 10:53:02 METAR KMIA 221553Z 10009KT 10SM SCT030 BKN250 33/23 A3010 RMK AO2 SLP193 CB DSNT SE T03280233 (EM)","FM-15","7",,,,,,,,,,,,,,,,,,,,,,,,,,,,"2009-07-14"
"72202012839","2020-06-22T11:53:00","FM-15","7",,,,,,,,,,,,,,,,,,,,,,,,,,,,,,,,,,,,,,"30.10","77","91","0.00",,,,"64","30.10","SCT:04 30 SCT:04 150 BKN:07 250","30.07","10.00","81","130","21","15",,,,,,,,,,,,,,,,,,,,,,,,,,,,,,,,,,,,,"MET11506/22/20 11:53:02 METAR KMIA 221653Z 13013G18KT 10SM SCT030 SCT150 BKN250 33/25 A3010 RMK AO2 SLP192 T03280250 (EM)","FM-15","7",,,,,,,,,,,,,,,,,,,,,,,,,,,,"2009-07-14"
"72202012839","2020-06-22T12:53:00","FM-15","7",,,,,,,,,,,,,,,,,,,,,,,,,,,,,,,,,,,,,,"30.08","76","92","0.00",,"+0.02","8","60","30.08","FEW:02 32 BKN:07 250","30.05","10.00","80","120",,"11",,,,,,,,,,,,,,,,,,,,,,,,,,,,,,,,,,,,,"MET14006/22/20 12:53:02 METAR KMIA 221753Z 12010KT 10SM FEW032 BKN250 33/24 A3008 RMK AO2 SLP186 CB DSNT E AND SW T03330244 10333 20283 58008 (EM)","FM-15","7",,,,,,,,,,,,,,,,,,,,,,,,,,,,"2009-07-14"
"72202012839","2020-06-22T13:00:00","FM-12","4",,,,,,,,,,,,,,,,,,,,,,,,,,,,,,,,,,,,,,,"76","92",,,"+0.02","8","60","30.08","26","30.05","9.94","80","120",,"11",,,,,,,,,,,,,,,,,,,,,,,,,,,,,,,,,,,,,"SYN08072202 32566 61210 10333 20244 30176 40186 58008 91753 333 10333 20283 555 92218=","FM-12","4",,,,,,,,,,,,,,,,,,,,,,,,,,,,"2009-07-14"
"72202012839","2020-06-22T13:53:00","FM-15","7",,,,,,,,,,,,,,,,,,,,,,,,,,,,,,,,,,,,,,"30.08","76","92","0.00",,,,"60","30.08","SCT:04 28 BKN:07 250","30.05","10.00","80","120",,"14",,,,,,,,,,,,,,,,,,,,,,,,,,,,,,,,,,,,,"MET11806/22/20 13:53:02 METAR KMIA 221853Z 12012KT 10SM SCT028 BKN250 33/24 A3008 RMK AO2 LTG DSNT SW SLP186 T03330244 (RDR)","FM-15","7",,,,,,,,,,,,,,,,,,,,,,,,,,,,"2009-07-14"
"72202012839","2020-06-22T14:53:00","FM-15","7",,,,,,,,,,,,,,,,,,,,,,,,,,,,,,,,,,,,,,"30.07","75","91","0.00",,,,"59","30.07","SCT:04 30 BKN:07 250","30.04","10.00","80","120",,"9",,,,,,,,,,,,,,,,,,,,,,,,,,,,,,,,,,,,,"MET10006/22/20 14:53:02 METAR KMIA 221953Z 12008KT 10SM SCT030 BKN250 33/24 A3007 RMK AO2 SLP182 T03280239","FM-15","7",,,,,,,,,,,,,,,,,,,,,,,,,,,,"2009-07-14"
"72202012839","2020-06-22T15:53:00","FM-15","7",,,,,,,,,,,,,,,,,,,,,,,,,,,,,,,,,,,,,,"30.06","75","89","0.00",,"+0.02","8","63","30.06","SCT:04 32 BKN:07 250","30.03","10.00","79","150",,"9",,,,,,,,,,,,,,,,,,,,,,,,,,,,,,,,,,,,,"MET13706/22/20 15:53:02 METAR KMIA 222053Z 15008KT 10SM SCT032 BKN250 32/24 A3006 RMK AO2 LTG DSNT W AND NW SLP179 CB DSNT W-NW T03170239 58008","FM-15","7",,,,,,,,,,,,,,,,,,,,,,,,,,,,"2009-07-14"
"72202012839","2020-06-22T16:00:00","FM-12","4",,,,,,,,,,,,,,,,,,,,,,,,,,,,,,,,,,,,,,,"75","89",,,"+0.02","8","63","30.06","26","30.03","9.94","79","150",,"9",,,,,,,,,,,,,,,,,,,,,,,,,,,,,,,,,,,,,"SYN06472202 32566 61508 10317 20239 30169 40179 58008 92053 555 92221=","FM-12","4",,,,,,,,,,,,,,,,,,,,,,,,,,,,"2009-07-14"
"72202012839","2020-06-22T16:53:00","FM-15","7",,,,,,,,,,,,,,,,,,,,,,,,,,,,,,,,,,,,,,"30.05","75","86","0.00",,,,"70","30.05","FEW:02 30 BKN:07 250","30.02","10.00","78","140",,"10",,,,,,,,,,,,,,,,,,,,,,,,,,,,,,,,,,,,,"MET12306/22/20 16:53:02 METAR KMIA 222153Z 14009KT 10SM FEW030 BKN250 30/24 A3005 RMK AO2 LTG DSNT NW SLP176 CB DSNT NW T03000239","FM-15","7",,,,,,,,,,,,,,,,,,,,,,,,,,,,"2009-07-14"
"72202012839","2020-06-22T17:53:00","FM-15","7",,,,,,,,,,,,,,,,,,,,,,,,,,,,,,,,,,,,,,"30.05","76","86","0.00",,,,"72","30.05","FEW:02 24 BKN:07 250","30.02","10.00","79","120",,"9",,,,,,,,,,,,,,,,,,,,,,,,,,,,,,,,,,,,,"MET11106/22/20 17:53:02 METAR KMIA 222253Z 12008KT 10SM FEW024 BKN250 30/24 A3005 RMK AO2 SLP175 CB DSNT NW T03000244","FM-15","7",,,,,,,,,,,,,,,,,,,,,,,,,,,,"2009-07-14"
"72202012839","2020-06-22T18:53:00","FM-15","7",,,,,,,,,,,,,,,,,,,,,,,,,,,,,,,,,,,,,,"30.06","77","86","0.00",,"-0.00","3","75","30.06","FEW:02 24 FEW:02 100 BKN:07 250","30.03","10.00","80","140",,"7",,,,,,,,,,,,,,,,,,,,,,,,,,,,,,,,,,,,,"MET14806/22/20 18:53:02 METAR KMIA 222353Z 14006KT 10SM FEW024 FEW100 BKN250 30/25 A3006 RMK AO2 LTG DSNT NW SLP180 CB DSNT NW T03000250 10339 20300 53001","FM-15","7",,,,,,,,,,,,,,,,,,,,,,,,,,,,"2009-07-14"
"72202012839","2020-06-22T19:00:00","FM-12","4",,,,,,,,,,,,,,,,,,,,,,,,,,,,,,,,,,,,,,,"77","86",,,"-0.00","3","75","30.06","26","30.03","9.94","80","140",,"7",,,,,,,,,,,,,,,,,,,,,,,,,,,,,,,,,,,,,"SYN08072202 32566 61406 10300 20250 30169 40180 53001 92353 333 10339 20261 555 92300=","FM-12","4",,,,,,,,,,,,,,,,,,,,,,,,,,,,"2009-07-14"
"72202012839","2020-06-22T19:53:00","FM-15","7",,,,,,,,,,,,,,,,,,,,,,,,,,,,,,,,,,,,,,"30.07","77","85","0.00",,,,"77","30.06","FEW:02 24 FEW:02 100 BKN:07 250","30.04","10.00","79","150",,"6",,,,,,,,,,,,,,,,,,,,,,,,,,,,,,,,,,,,,"MET15106/22/20 19:53:01 METAR KMIA 230053Z 15005KT 10SM FEW024 FEW100 BKN250 29/25 A3007 RMK AO2 SLP181 OCNL LTGIC DSNT SW AND NW CB DSNT SW AND NW T02940250","FM-15","7",,,,,,,,,,,,,,,,,,,,,,,,,,,,"2009-07-14"
"72202012839","2020-06-22T20:53:00","FM-15","7",,,,,,,,,,,,,,,,,,,,,,,,,,,,,,,,,,,,,,"30.10","77","85","0.00",,,,"77","30.09","FEW:02 24 OVC:08 200","30.07","10.00","79","140",,"3",,,,,,,,,,,,,,,,,,,,,,,,,,,,,,,,,,,,,"MET10006/22/20 20:53:01 METAR KMIA 230153Z 14003KT 10SM FEW024 OVC200 29/25 A3010 RMK AO2 SLP191 T02940250","FM-15","7",,,,,,,,,,,,,,,,,,,,,,,,,,,,"2009-07-14"
"72202012839","2020-06-22T21:53:00","FM-15","7",,,,,,,,,,,,,,,,,,,,,,,,,,,,,,,,,,,,,,"30.09","77","85","0.00",,"-0.03","0","77","30.09","FEW:02 24 OVC:08 200","30.06","10.00","79","110",,"3",,,,,,,,,,,,,,,,,,,,,,,,,,,,,,,,,,,,,"MET10606/22/20 21:53:01 METAR KMIA 230253Z 11003KT 10SM FEW024 OVC200 29/25 A3009 RMK AO2 SLP190 T02940250 50010","FM-15","7",,,,,,,,,,,,,,,,,,,,,,,,,,,,"2009-07-14"
"72202012839","2020-06-22T22:00:00","FM-12","4",,,,,,,,,,,,,,,,,,,,,,,,,,,,,,,,,,,,,,,"77","85",,,"0.03","9","77","30.09","26","30.06","9.94","79","110",,"3",,,,,,,,,,,,,,,,,,,,,,,,,,,,,,,,,,,,,"SYN06472202 32566 81103 10294 20250 30179 40190 50010 90253 555 92303=","FM-12","4",,,,,,,,,,,,,,,,,,,,,,,,,,,,"2009-07-14"
"72202012839","2020-06-22T22:53:00","FM-15","7",,,,,,,,,,,,,,,,,,,,,,,,,,,,,,,,,,,,,,"30.09","77","84","0.00",,,,"80","30.09","FEW:02 21 OVC:08 200","30.06","10.00","79","110",,"3",,,,,,,,,,,,,,,,,,,,,,,,,,,,,,,,,,,,,"MET10006/22/20 22:53:01 METAR KMIA 230353Z 11003KT 10SM FEW021 OVC200 29/25 A3009 RMK AO2 SLP191 T02890250","FM-15","7",,,,,,,,,,,,,,,,,,,,,,,,,,,,"2009-07-14"
"72202012839","2020-06-22T23:53:00","FM-15","7",,,,,,,,,,,,,,,,,,,,,,,,,,,,,,,,,,,,,,"30.09","76","83","0.00",,,,"79","30.09","FEW:02 20 SCT:04 200","30.06","10.00","78","110",,"5",,,,,,,,,,,,,,,,,,,,,,,,,,,,,,,,,,,,,"MET11006/22/20 23:53:01 METAR KMIA 230453Z 11004KT 10SM FEW020 SCT200 28/24 A3009 RMK AO2 SLP190 T02830244 403390261","FM-15","7",,,,,,,,,,,,,,,,,,,,,,,,,,,,"2009-07-14"
"72202012839","2020-06-22T23:59:00","SOD  ","6",,,,,,,,,,,,,,,"76","86","73","30.08","30.05","79","6.1","21","2.9","0","93","79","140","22","0.00",,,"130","16",,,,,,,,,,,,,,,,,,,,,,,,,,,,,,,,,,,,,,,,,,,,,,,,,,,,,,,,,"SOD74324 HR PRECIPITATION (IN): 0.00 SNOW DEPTH (IN):0     24 HR SNOWFALL (IN):0.0  24 HR MAX TEMP (F): 9324 HR MIN TEMP (F): 79AVERAGE STATION PRESSURE(D):30.052 MINIMUM SEA LEVEL PRESSURE:30.05 TIME OF OCCURRENCE:1946 PEAK WIND SPEED (MPH): 22 PEAK WIND DIR (DEG):140 PEAK WIND TIME (LST):      FASTEST 2MIN SPEED (MPH): 16FASTEST 2MIN DIR (DEG):130 FASTEST 2MIN TIME (LST):     AVERAGE WIND SPEED (MPH): 6.1 24 HR AVG TEMP (F): 86DEPART FROM NORMAL:  3  HEATING DEGREE DAYS:  0 COOLING DEGREE DAYS: 21 LATEST DAY MAX TEMP (0700-1900 LST): 93 LATEST NIGHT MIN TEMP(1900-0800 LST):79 HOURLY INCREMENTAL PRECIPITATION VALUES (IN):0.00 0.00 0.00 0.00 0.00 0.00 0.00 0.00 0.00 0.00 0.00 0.00 0.00 0.00 0.00 0.00 0.00 0.00 0.00 0.00 0.00 0.00 0.00 0.00","SOD  ","6",,,,,,,,,,,,,,,,,,,,,,,,,"0531","1916",,"2009-07-14"
"72202012839","2020-06-23T00:53:00","FM-15","7",,,,,,,,,,,,,,,,,,,,,,,,,,,,,,,,,,,,,,"30.07","76","83","0.00",,"+0.02","8","79","30.07","FEW:02 20 SCT:04 200","30.04","10.00","78","110",,"5",,,,,,,,,,,,,,,,,,,,,,,,,,,,,,,,,,,,,"MET12306/23/20 00:53:02 METAR KMIA 230553Z 11004KT 10SM FEW020 SCT200 28/24 A3007 RMK AO2 SLP182 T02830244 10300 20278 58008 (AM)","FM-15","7",,,,,,,,,,,,,,,,,,,,,,,,,,,,"2009-07-14"
"72202012839","2020-06-23T01:00:00","FM-12","4",,,,,,,,,,,,,,,,,,,,,,,,,,,,,,,,,,,,,,,"76","83",,,"+0.02","8","79","30.07","26","30.04","9.94","78","110",,"5",,,,,,,,,,,,,,,,,,,,,,,,,,,,,,,,,,,,,"SYN08072202 32566 41104 10283 20244 30173 40182 58008 90553 333 10300 20261 555 92306=","FM-12","4",,,,,,,,,,,,,,,,,,,,,,,,,,,,"2009-07-14"
"72202012839","2020-06-23T01:53:00","FM-15","7",,,,,,,,,,,,,,,,,,,,,,,,,,,,,,,,,,,,,,"30.06","77","83","0.00",,,,"82","30.06","FEW:02 20 BKN:07 200","30.03","10.00","79","140",,"3",,,,,,,,,,,,,,,,,,,,,,,,,,,,,,,,,,,,,"MET10506/23/20 01:53:02 METAR KMIA 230653Z 14003KT 10SM FEW020 BKN200 28/25 A3006 RMK AO2 SLP178 T02830250 (AM)","FM-15","7",,,,,,,,,,,,,,,,,,,,,,,,,,,,"2009-07-14"
"72202012839","2020-06-23T02:53:00","FM-15","7",,,,,,,,,,,,,,,,,,,,,,,,,,,,,,,,,,,,,,"30.05","77","82","0.00",,,,"85","30.04","FEW:02 20 SCT:04 200","30.02","10.00","78","150",,"3",,,,,,,,,,,,,,,,,,,,,,,,,,,,,,,,,,,,,"MET10506/23/20 02:53:02 METAR KMIA 230753Z 15003KT 10SM FEW020 SCT200 28/25 A3005 RMK AO2 SLP174 T02780250 (AM)","FM-15","7",,,,,,,,,,,,,,,,,,,,,,,,,,,,"2009-07-14"
"72202012839","2020-06-23T03:53:00","FM-15","7",,,,,,,,,,,,,,,,,,,,,,,,,,,,,,,,,,,,,,"30.04","77","81","0.00",,"+0.02","6","88","30.04","FEW:02 18 SCT:04 200","30.01","10.00","78","000",,"0",,,,,,,,,,,,,,,,,,,,,,,,,,,,,,,,,,,,,"MET11106/23/20 03:53:02 METAR KMIA 230853Z 00000KT 10SM FEW018 SCT200 27/25 A3004 RMK AO2 SLP174 T02720250 56008 (AM)","FM-15","7",,,,,,,,,,,,,,,,,,,,,,,,,,,,"2009-07-14"
"72202012839","2020-06-23T04:00:00","FM-12","4",,,,,,,,,,,,,,,,,,,,,,,,,,,,,,,,,,,,,,,"77","81",,,"+0.02","6","88","30.04","15","30.01","9.94","78","000",,"0",,,,,,,,,,,,,,,,,,,,,,,,,,,,,,,,,,,,,"SYN06472202 32466 40000 10272 20250 30163 40174 56008 90853 555 92309=","FM-12","4",,,,,,,,,,,,,,,,,,,,,,,,,,,,"2009-07-14"
"72202012839","2020-06-23T04:53:00","FM-15","7",,,,,,,,,,,,,,,,,,,,,,,,,,,,,,,,,,,,,,"30.06","77","82","0.00",,,,"85","30.06","FEW:02 18 BKN:07 200","30.03","10.00","78","000",,"0",,,,,,,,,,,,,,,,,,,,,,,,,,,,,,,,,,,,,"MET10506/23/20 04:53:02 METAR KMIA 230953Z 00000KT 10SM FEW018 BKN200 28/25 A3006 RMK AO2 SLP178 T02780250 (AM)","FM-15","7",,,,,,,,,,,,,,,,,,,,,,,,,,,,"2009-07-14"
"72202012839","2020-06-23T05:53:00","FM-15","7",,,,,,,,,,,,,,,,,,,,,,,,,,,,,,,,,,,,,,"30.05","77","83","0.00",,,,"82","30.05","FEW:02 17 SCT:04 200","30.02","10.00","79","000",,"0",,,,,,,,,,,,,,,,,,,,,,,,,,,,,,,,,,,,,"MET10606/23/20 05:53:02 METAR KMIA 231053Z 00000KT 10SM FEW017 SCT200 28/25 A3005 RMK AO2 SLP177 T02830250 (RLW)","FM-15","7",,,,,,,,,,,,,,,,,,,,,,,,,,,,"2009-07-14"
"72202012839","2020-06-23T06:53:00","FM-15","7",,,,,,,,,,,,,,,,,,,,,,,,,,,,,,,,,,,,,,"30.05","77","85","0.00",,"-0.01","1","77","30.05","FEW:02 17 SCT:04 200","30.02","10.00","79","000",,"0",,,,,,,,,,,,,,,,,,,,,,,,,,,,,,,,,,,,,"MET12406/23/20 06:53:02 METAR KMIA 231153Z 00000KT 10SM FEW017 SCT200 29/25 A3005 RMK AO2 SLP177 T02940250 10294 20272 51003 (RLW)","FM-15","7",,,,,,,,,,,,,,,,,,,,,,,,,,,,"2009-07-14"
"72202012839","2020-06-23T07:00:00","FM-12","4",,,,,,,,,,,,,,,,,,,,,,,,,,,,,,,,,,,,,,,"77","85",,,"-0.01","1","77","30.05","15","30.02","9.94","79","000",,"0",,,,,,,,,,,,,,,,,,,,,,,,,,,,,,,,,,,,,"SYN08072202 32466 40000 10294 20250 30166 40177 51003 91153 333 10339 20272 555 92312=","FM-12","4",,,,,,,,,,,,,,,,,,,,,,,,,,,,"2009-07-14"
"72202012839","2020-06-23T07:53:00","FM-15","7",,,,,,,,,,,,,,,,,,,,,,,,,,,,,,,,,,,,,,"30.06","77","87","0.00",,,,"72","30.06","FEW:02 18 SCT:04 250","30.03","10.00","80","150",,"5",,,,,,,,,,,,,,,,,,,,,,,,,,,,,,,,,,,,,"MET10606/23/20 07:53:02 METAR KMIA 231253Z 15004KT 10SM FEW018 SCT250 31/25 A3006 RMK AO2 SLP180 T03060250 (RLW)","FM-15","7",,,,,,,,,,,,,,,,,,,,,,,,,,,,"2009-07-14"
"72202012839","2020-06-23T08:53:00","FM-15","7",,,,,,,,,,,,,,,,,,,,,,,,,,,,,,,,,,,,,,"30.06","75","88","0.00",,,,"66","30.06","FEW:02 19 FEW:02 250","30.03","10.00","79","000",,"0",,,,,,,,,,,,,,,,,,,,,,,,,,,,,,,,,,,,,"MET10606/23/20 08:53:02 METAR KMIA 231353Z 00000KT 10SM FEW019 FEW250 31/24 A3006 RMK AO2 SLP178 T03110239 (RLW)","FM-15","7",,,,,,,,,,,,,,,,,,,,,,,,,,,,"2009-07-14"
"72202012839","2020-06-23T09:53:00","FM-15","7",,,,,,,,,,,,,,,,,,,,,,,,,,,,,,,,,,,,,,"30.06","76","91","0.00",,"-0.01","1","61","30.06","SCT:04 28 SCT:04 200","30.03","10.00","80","VRB",,"5",,,,,,,,,,,,,,,,,,,,,,,,,,,,,,,,,,,,,"MET11206/23/20 09:53:02 METAR KMIA 231453Z VRB04KT 10SM SCT028 SCT200 33/24 A3006 RMK AO2 SLP180 T03280244 51003 (RLW)","FM-15","7",,,,,,,,,,,,,,,,,,,,,,,,,,,,"2009-07-14"
"72202012839","2020-06-23T10:00:00","FM-12","4",,,,,,,,,,,,,,,,,,,,,,,,,,,,,,,,,,,,,,,"76","91",,,"-0.01","1","61","30.06","26","30.03","9.94","80",,,"5",,,,,,,,,,,,,,,,,,,,,,,,,,,,,,,,,,,,,"SYN06472202 32566 4//04 10328 20244 30169 40180 51003 91453 555 92315=","FM-12","4",,,,,,,,,,,,,,,,,,,,,,,,,,,,"2009-07-14"
"72202012839","2020-06-23T10:53:00","FM-15","7",,,,,,,,,,,,,,,,,,,,,,,,,,,,,,,,,,,,,,"30.05","75","92","0.00",,,,"58","30.05","SCT:04 30 SCT:04 250","30.02","10.00","80","130",,"9",,,,,,,,,,,,,,,,,,,,,,,,,,,,,,,,,,,,,"MET10606/23/20 10:53:02 METAR KMIA 231553Z 13008KT 10SM SCT030 SCT250 33/24 A3005 RMK AO2 SLP177 T03330239 (RLW)","FM-15","7",,,,,,,,,,,,,,,,,,,,,,,,,,,,"2009-07-14"
"72202012839","2020-06-23T11:53:00","FM-15","7",,,,,,,,,,,,,,,,,,,,,,,,,,,,,,,,,,,,,,"30.05","75","92","0.00",,,,"58","30.05","SCT:04 35","30.02","10.00","80","140",,"8",,,,,,,,,,,,,,,,,,,,,,,,,,,,,,,,,,,,,"MET09906/23/20 11:53:02 METAR KMIA 231653Z 14007KT 10SM SCT035 33/24 A3005 RMK AO2 SLP175 T03330239 (RLW)","FM-15","7",,,,,,,,,,,,,,,,,,,,,,,,,,,,"2009-07-14"
"72202012839","2020-06-23T12:53:00","FM-15","7",,,,,,,,,,,,,,,,,,,,,,,,,,,,,,,,,,,,,,"30.03","74","93","0.00",,"+0.04","8","54","30.03","SCT:04 40","30.00","10.00","79","140",,"10",,,,,,,,,,,,,,,,,,,,,,,,,,,,,,,,,,,,,"MET11706/23/20 12:53:02 METAR KMIA 231753Z 14009KT 10SM SCT040 34/23 A3003 RMK AO2 SLP168 T03390233 10339 20294 58012 (RLW)","FM-15","7",,,,,,,,,,,,,,,,,,,,,,,,,,,,"2009-07-14"
"72202012839","2020-06-23T13:00:00","FM-12","4",,,,,,,,,,,,,,,,,,,,,,,,,,,,,,,,,,,,,,,"74","93",,,"+0.04","8","54","30.03","41","30.00","9.94","79","140",,"10",,,,,,,,,,,,,,,,,,,,,,,,,,,,,,,,,,,,,"SYN08072202 32666 41409 10339 20233 30159 40168 58012 91753 333 10339 20294 555 92318=","FM-12","4",,,,,,,,,,,,,,,,,,,,,,,,,,,,"2009-07-14"
"72202012839","2020-06-23T13:53:00","FM-15","7",,,,,,,,,,,,,,,,,,,,,,,,,,,,,,,,,,,,,,"30.01","75","93","0.00",,,,"56","30.01","FEW:02 40 SCT:04 250","29.98","10.00","80","130",,"13",,,,,,,,,,,,,,,,,,,,,,,,,,,,,,,,,,,,,"MET10606/23/20 13:53:02 METAR KMIA 231853Z 13011KT 10SM FEW040 SCT250 34/24 A3001 RMK AO2 SLP162 T03390239 (RDR)","FM-15","7",,,,,,,,,,,,,,,,,,,,,,,,,,,,"2009-07-14"
"72202012839","2020-06-23T14:53:00","FM-15","7",,,,,,,,,,,,,,,,,,,,,,,,,,,,,,,,,,,,,,"30.00","76","92","0.00",,,,"60","29.99","SCT:04 32 SCT:04 250","29.97","10.00","80","120",,"15",,,,,,,,,,,,,,,,,,,,,,,,,,,,,,,,,,,,,"MET10606/23/20 14:53:02 METAR KMIA 231953Z 12013KT 10SM SCT032 SCT250 33/24 A3000 RMK AO2 SLP157 T03330244 (RDR)","FM-15","7",,,,,,,,,,,,,,,,,,,,,,,,,,,,"2009-07-14"
"72202012839","2020-06-23T15:53:00","FM-15","7",,,,,,,,,,,,,,,,,,,,,,,,,,,,,,,,,,,,,,"29.98","77","92","0.00",,"+0.04","6","62","29.98","SCT:04 30 SCT:04 250","29.95","10.00","81","140",,"11",,,,,,,,,,,,,,,,,,,,,,,,,,,,,,,,,,,,,"MET13606/23/20 15:53:02 METAR KMIA 232053Z 14010KT 10SM SCT030 SCT250 33/25 A2998 RMK AO2 LTG DSNT W SLP154 CB DSNT W-NW T03330250 56015 (RDR)","FM-15","7",,,,,,,,,,,,,,,,,,,,,,,,,,,,"2009-07-14"
"72202012839","2020-06-23T16:00:00","FM-12","4",,,,,,,,,,,,,,,,,,,,,,,,,,,,,,,,,,,,,,,"77","92",,,"+0.04","6","62","29.98","26","29.95","9.94","81","140",,"11",,,,,,,,,,,,,,,,,,,,,,,,,,,,,,,,,,,,,"SYN06472202 32566 41410 10333 20250 30142 40154 56015 92053 555 92321=","FM-12","4",,,,,,,,,,,,,,,,,,,,,,,,,,,,"2009-07-14"
"72202012839","2020-06-23T16:53:00","FM-15","7",,,,,,,,,,,,,,,,,,,,,,,,,,,,,,,,,,,,,,"29.98","76","90","0.00",,,,"63","29.98","FEW:02 30 SCT:04 250","29.95","10.00","80","140","17","9",,,,,,,,,,,,,,,,,,,,,,,,,,,,,,,,,,,,,"MET12206/23/20 16:53:02 METAR KMIA 232153Z 14008G15KT 10SM FEW030 SCT250 32/24 A2998 RMK AO2 SLP151 CB DSNT W-NW T03220244 (RDR)","FM-15","7",,,,,,,,,,,,,,,,,,,,,,,,,,,,"2009-07-14"
"72202012839","2020-06-23T17:53:00","FM-15","7",,,,,,,,,,,,,,,,,,,,,,,,,,,,,,,,,,,,,,"29.98","76","87","0.00",,,,"70","29.98","FEW:02 28 SCT:04 250","29.95","10.00","79","130",,"11",,,,,,,,,,,,,,,,,,,,,,,,,,,,,,,,,,,,,"MET11706/23/20 17:53:02 METAR KMIA 232253Z 13010KT 10SM FEW028 SCT250 31/24 A2998 RMK AO2 SLP152 CB DSNT NW T03060244 (RDR)","FM-15","7",,,,,,,,,,,,,,,,,,,,,,,,,,,,"2009-07-14"
"72202012839","2020-06-23T18:53:00","FM-15","7",,,,,,,,,,,,,,,,,,,,,,,,,,,,,,,,,,,,,,"30.00","76","86","0.00",,"-0.01","3","72","30.00","FEW:02 28 SCT:04 100 SCT:04 250","29.97","10.00","79","120",,"9",,,,,,,,,,,,,,,,,,,,,,,,,,,,,,,,,,,,,"MET15906/23/20 18:53:02 METAR KMIA 232353Z 12008KT 10SM FEW028 SCT100 SCT250 30/24 A3000 RMK AO2 LTG DSNT SW-NW SLP159 CB DSNT W-NW T03000244 10339 20300 53005 (RDR)","FM-15","7",,,,,,,,,,,,,,,,,,,,,,,,,,,,"2009-07-14"
"72202012839","2020-06-23T19:00:00","FM-12","4",,,,,,,,,,,,,,,,,,,,,,,,,,,,,,,,,,,,,,,"76","86",,,"-0.01","3","72","30.00","26","29.97","9.94","79","120",,"9",,,,,,,,,,,,,,,,,,,,,,,,,,,,,,,,,,,,,"SYN08072202 32566 41208 10300 20244 30149 40159 53005 92353 333 10339 20272 555 92400=","FM-12","4",,,,,,,,,,,,,,,,,,,,,,,,,,,,"2009-07-14"
"72202012839","2020-06-23T19:53:00","FM-15","7",,,,,,,,,,,,,,,,,,,,,,,,,,,,,,,,,,,,,,"30.02","76","85","0.00",,,,"75","30.02","FEW:02 25 FEW:02 100 BKN:07 250","29.99","10.00","79","130",,"6",,,,,,,,,,,,,,,,,,,,,,,,,,,,,,,,,,,,,"MET16906/23/20 19:53:01 METAR KMIA 240053Z 13005KT 10SM FEW025 FEW100 BKN250 29/24 A3002 RMK AO2 LTG DSNT W AND NW SLP165 CONS LTGICCCCG DSNT SW-NW-N CB DSNT SW-NW-N T02940244","FM-15","7",,,,,,,,,,,,,,,,,,,,,,,,,,,,"2009-07-14"
"72202012839","2020-06-23T20:53:00","FM-15","7",,,,,,,,,,,,,,,,,,,,,,,,,,,,,,,,,,,,,,"30.02","75","86","0.00",,,,"70","30.02","FEW:02 25 BKN:07 250","29.99","10.00","78","130",,"6",,,,,,,,,,,,,,,,,,,,,,,,,,,,,,,,,,,,,"MET10006/23/20 20:53:01 METAR KMIA 240153Z 13005KT 10SM FEW025 BKN250 30/24 A3002 RMK AO2 SLP166 T03000239","FM-15","7",,,,,,,,,,,,,,,,,,,,,,,,,,,,"2009-07-14"
"72202012839","2020-06-23T21:53:00","FM-15","7",,,,,,,,,,,,,,,,,,,,,,,,,,,,,,,,,,,,,,"30.03","75","85","0.00",,"-0.03","1","72","30.03","SCT:04 60 BKN:07 120 BKN:07 250","30.00","10.00","78","140",,"7",,,,,,,,,,,,,,,,,,,,,,,,,,,,,,,,,,,,,"MET11306/23/20 21:53:01 METAR KMIA 240253Z 14006KT 10SM SCT060 BKN120 BKN250 29/24 A3003 RMK AO2 SLP169 T02940239 51010","FM-15","7",,,,,,,,,,,,,,,,,,,,,,,,,,,,"2009-07-14"
"72202012839","2020-06-23T22:00:00","FM-12","4",,,,,,,,,,,,,,,,,,,,,,,,,,,,,,,,,,,,,,,"75","85",,,"-0.03","1","72","30.03","57","30.00","9.94","78","140",,"7",,,,,,,,,,,,,,,,,,,,,,,,,,,,,,,,,,,,,"SYN06472202 32766 61406 10294 20239 30159 40169 51010 90253 555 92403=","FM-12","4",,,,,,,,,,,,,,,,,,,,,,,,,,,,"2009-07-14"
"72202012839","2020-06-23T22:53:00","FM-15","7",,,,,,,,,,,,,,,,,,,,,,,,,,,,,,,,,,,,,,"30.04","75","85","0.00",,,,"72","30.04","FEW:02 20 SCT:04 60 SCT:04 120","30.01","10.00","78","000",,"0",,,,,,,,,,,,,,,,,,,,,,,,,,,,,,,,,,,,,"MET10706/23/20 22:53:01 METAR KMIA 240353Z 00000KT 10SM FEW020 SCT060 SCT120 29/24 A3004 RMK AO2 SLP174 T02940239","FM-15","7",,,,,,,,,,,,,,,,,,,,,,,,,,,,"2009-07-14"
"72202012839","2020-06-23T23:53:00","FM-15","7",,,,,,,,,,,,,,,,,,,,,,,,,,,,,,,,,,,,,,"30.03","76","84","0.00",,,,"77","30.03","FEW:02 20 FEW:02 60 BKN:07 250","30.00","10.00","78","150",,"6",,,,,,,,,,,,,,,,,,,,,,,,,,,,,,,,,,,,,"MET11706/23/20 23:53:01 METAR KMIA 240453Z 15005KT 10SM FEW020 FEW060 BKN250 29/24 A3003 RMK AO2 SLP170 T02890244 403390272","FM-15","7",,,,,,,,,,,,,,,,,,,,,,,,,,,,"2009-07-14"
"72202012839","2020-06-23T23:59:00","SOD  ","6",,,,,,,,,,,,,,,"76","87","70","30.03","30.00","79","5.9","22","3.9","0","93","81","120","20","0.00",,,"120","16",,,,,,,,,,,,,,,,,,,,,,,,,,,,,,,,,,,,,,,,,,,,,,,,,,,,,,,,,"SOD73924 HR PRECIPITATION (IN): 0.00 SNOW DEPTH (IN):0     24 HR SNOWFALL (IN):0.0  24 HR MAX TEMP (F): 9324 HR MIN TEMP (F): 81AVERAGE STATION PRESSURE:30.000 MINIMUM SEA LEVEL PRESSURE:29.97 TIME OF OCCURRENCE:1747 PEAK WIND SPEED (MPH): 20 PEAK WIND DIR (DEG):120 PEAK WIND TIME (LST):      FASTEST 2MIN SPEED (MPH): 16FASTEST 2MIN DIR (DEG):120 FASTEST 2MIN TIME (LST):     AVERAGE WIND SPEED (MPH): 5.9 24 HR AVG TEMP (F): 87DEPART FROM NORMAL:  4  HEATING DEGREE DAYS:  0 COOLING DEGREE DAYS: 22 LATEST DAY MAX TEMP (0700-1900 LST):93  LATEST NIGHT MIN TEMP(1900-0800 LST):81 HOURLY INCREMENTAL PRECIPITATION VALUES (IN):.00 0.00 0.00 0.00 0.00 0.00 0.00 0.00 0.00 0.00 0.00 0.00 0.00 0.00 0.00 0.00 0.00 0.00 0.00 0.00 0.00 0.00 0.00 0.00","SOD  ","6",,,,,,,,,,,,,,,,,,,,,,,,,"0531","1916",,"2009-07-14"
"72202012839","2020-06-24T00:53:00","FM-15","7",,,,,,,,,,,,,,,,,,,,,,,,,,,,,,,,,,,,,,"30.02","76","85","0.00",,"+0.01","8","75","30.02","FEW:02 20 FEW:02 60 SCT:04 120","29.99","10.00","79","000",,"0",,,,,,,,,,,,,,,,,,,,,,,,,,,,,,,,,,,,,"MET13006/24/20 00:53:02 METAR KMIA 240553Z 00000KT 10SM FEW020 FEW060 SCT120 29/24 A3002 RMK AO2 SLP167 T02940244 10300 20289 58002 (AM)","FM-15","7",,,,,,,,,,,,,,,,,,,,,,,,,,,,"2009-07-14"
"72202012839","2020-06-24T01:00:00","FM-12","4",,,,,,,,,,,,,,,,,,,,,,,,,,,,,,,,,,,,,,,"76","85",,,"+0.01","8","75","30.02","26","29.99","9.94","79","000",,"0",,,,,,,,,,,,,,,,,,,,,,,,,,,,,,,,,,,,,"SYN08072202 32566 60000 10294 20244 30156 40167 58002 90553 333 10300 20272 555 92406=","FM-12","4",,,,,,,,,,,,,,,,,,,,,,,,,,,,"2009-07-14"
"72202012839","2020-06-24T01:53:00","FM-15","7",,,,,,,,,,,,,,,,,,,,,,,,,,,,,,,,,,,,,,"30.01","76","83","0.00",,,,"79","30.01","FEW:02 20 SCT:04 120 BKN:07 250","29.98","10.00","78","160",,"3",,,,,,,,,,,,,,,,,,,,,,,,,,,,,,,,,,,,,"MET11206/24/20 01:53:02 METAR KMIA 240653Z 16003KT 10SM FEW020 SCT120 BKN250 28/24 A3001 RMK AO2 SLP161 T02830244 (AM)","FM-15","7",,,,,,,,,,,,,,,,,,,,,,,,,,,,"2009-07-14"
"72202012839","2020-06-24T02:53:00","FM-15","7",,,,,,,,,,,,,,,,,,,,,,,,,,,,,,,,,,,,,,"30.02","77","84","0.00",,,,"80","30.01","FEW:02 20 SCT:04 120 BKN:07 250","29.99","10.00","79","250",,"3",,,,,,,,,,,,,,,,,,,,,,,,,,,,,,,,,,,,,"MET11206/24/20 02:53:02 METAR KMIA 240753Z 25003KT 10SM FEW020 SCT120 BKN250 29/25 A3002 RMK AO2 SLP164 T02890250 (AM)","FM-15","7",,,,,,,,,,,,,,,,,,,,,,,,,,,,"2009-07-14"
"72202012839","2020-06-24T03:53:00","FM-15","7",,,,,,,,,,,,,,,,,,,,,,,,,,,,,,,,,,,,,,"30.02","76","84","0.00",,"-0.00","3","77","30.02","FEW:02 18 BKN:07 250","29.99","10.00","78","220",,"3",,,,,,,,,,,,,,,,,,,,,,,,,,,,,,,,,,,,,"MET11106/24/20 03:53:02 METAR KMIA 240853Z 22003KT 10SM FEW018 BKN250 29/24 A3002 RMK AO2 SLP167 T02890244 53000 (AM)","FM-15","7",,,,,,,,,,,,,,,,,,,,,,,,,,,,"2009-07-14"
"72202012839","2020-06-24T04:00:00","FM-12","4",,,,,,,,,,,,,,,,,,,,,,,,,,,,,,,,,,,,,,,"76","84",,,"0.00","4","77","30.02","15","29.99","9.94","78","220",,"3",,,,,,,,,,,,,,,,,,,,,,,,,,,,,,,,,,,,,"SYN06472202 32466 62203 10289 20244 30156 40167 53000 90853 555 92409=","FM-12","4",,,,,,,,,,,,,,,,,,,,,,,,,,,,"2009-07-14"
"72202012839","2020-06-24T04:53:00","FM-15","7",,,,,,,,,,,,,,,,,,,,,,,,,,,,,,,,,,,,,,"30.03","77","83","0.00",,,,"82","30.03","FEW:02 18 FEW:02 50 BKN:07 250","30.00","10.00","79","000",,"0",,,,,,,,,,,,,,,,,,,,,,,,,,,,,,,,,,,,,"MET11206/24/20 04:53:02 METAR KMIA 240953Z 00000KT 10SM FEW018 FEW050 BKN250 28/25 A3003 RMK AO2 SLP171 T02830250 (AM)","FM-15","7",,,,,,,,,,,,,,,,,,,,,,,,,,,,"2009-07-14"
"72202012839","2020-06-24T05:53:00","FM-15","7",,,,,,,,,,,,,,,,,,,,,,,,,,,,,,,,,,,,,,"30.04","77","84","0.00",,,,"80","30.04","SCT:04 19 BKN:07 250","30.01","10.00","79","000",,"0",,,,,,,,,,,,,,,,,,,,,,,,,,,,,,,,,,,,,"MET10606/24/20 05:53:02 METAR KMIA 241053Z 00000KT 10SM SCT019 BKN250 29/25 A3004 RMK AO2 SLP173 T02890250 (RLW)","FM-15","7",,,,,,,,,,,,,,,,,,,,,,,,,,,,"2009-07-14"
"72202012839","2020-06-24T06:53:00","FM-15","7",,,,,,,,,,,,,,,,,,,,,,,,,,,,,,,,,,,,,,"30.05","77","85","0.00",,"-0.02","1","77","30.05","FEW:02 19 SCT:04 250","30.02","10.00","79","240",,"3",,,,,,,,,,,,,,,,,,,,,,,,,,,,,,,,,,,,,"MET12406/24/20 06:53:02 METAR KMIA 241153Z 24003KT 10SM FEW019 SCT250 29/25 A3005 RMK AO2 SLP175 T02940250 10294 20283 51008 (RLW)","FM-15","7",,,,,,,,,,,,,,,,,,,,,,,,,,,,"2009-07-14"
"72202012839","2020-06-24T07:00:00","FM-12","4",,,,,,,,,,,,,,,,,,,,,,,,,,,,,,,,,,,,,,,"77","85",,,"-0.02","1","77","30.05","15","30.02","9.94","79","240",,"3",,,,,,,,,,,,,,,,,,,,,,,,,,,,,,,,,,,,,"SYN08072202 32466 42403 10294 20250 30166 40175 51008 91153 333 10339 20283 555 92412=","FM-12","4",,,,,,,,,,,,,,,,,,,,,,,,,,,,"2009-07-14"
"72202012839","2020-06-24T07:53:00","FM-15","7",,,,,,,,,,,,,,,,,,,,,,,,,,,,,,,,,,,,,,"30.06","76","87","0.00",,,,"70","30.06","SCT:04 21 SCT:04 250","30.03","10.00","79","230",,"5",,,,,,,,,,,,,,,,,,,,,,,,,,,,,,,,,,,,,"MET10606/24/20 07:53:02 METAR KMIA 241253Z 23004KT 10SM SCT021 SCT250 31/24 A3006 RMK AO2 SLP178 T03060244 (RLW)","FM-15","7",,,,,,,,,,,,,,,,,,,,,,,,,,,,"2009-07-14"
"72202012839","2020-06-24T08:53:00","FM-15","7",,,,,,,,,,,,,,,,,,,,,,,,,,,,,,,,,,,,,,"30.06","75","90","0.00",,,,"62","30.06","SCT:04 24 SCT:04 250","30.03","10.00","79","000",,"0",,,,,,,,,,,,,,,,,,,,,,,,,,,,,,,,,,,,,"MET10606/24/20 08:53:02 METAR KMIA 241353Z 00000KT 10SM SCT024 SCT250 32/24 A3006 RMK AO2 SLP179 T03220239 (RLW)","FM-15","7",,,,,,,,,,,,,,,,,,,,,,,,,,,,"2009-07-14"
"72202012839","2020-06-24T09:53:00","FM-15","7",,,,,,,,,,,,,,,,,,,,,,,,,,,,,,,,,,,,,,"30.05","72","90","0.00",,"-0.01","0","56","30.05","SCT:04 32 SCT:04 250","30.02","10.00","77","000",,"0",,,,,,,,,,,,,,,,,,,,,,,,,,,,,,,,,,,,,"MET11206/24/20 09:53:02 METAR KMIA 241453Z 00000KT 10SM SCT032 SCT250 32/22 A3005 RMK AO2 SLP177 T03220222 50002 (RLW)","FM-15","7",,,,,,,,,,,,,,,,,,,,,,,,,,,,"2009-07-14"
"72202012839","2020-06-24T10:00:00","FM-12","4",,,,,,,,,,,,,,,,,,,,,,,,,,,,,,,,,,,,,,,"72","90",,,"0.01","9","56","30.05","26","30.02","9.94","77","000",,"0",,,,,,,,,,,,,,,,,,,,,,,,,,,,,,,,,,,,,"SYN06472202 32566 40000 10322 20222 30166 40177 50002 91453 555 92415=","FM-12","4",,,,,,,,,,,,,,,,,,,,,,,,,,,,"2009-07-14"
"72202012839","2020-06-24T10:53:00","FM-15","7",,,,,,,,,,,,,,,,,,,,,,,,,,,,,,,,,,,,,,"30.05","74","92","0.00",,,,"56","30.05","SCT:04 40 BKN:07 50 BKN:07 250","30.02","10.00","79","120",,"7",,,,,,,,,,,,,,,,,,,,,,,,,,,,,,,,,,,,,"MET11306/24/20 10:53:02 METAR KMIA 241553Z 12006KT 10SM SCT040 BKN050 BKN250 33/23 A3005 RMK AO2 SLP177 T03330233 (RLW)","FM-15","7",,,,,,,,,,,,,,,,,,,,,,,,,,,,"2009-07-14"
"72202012839","2020-06-24T11:53:00","FM-15","7",,,,,,,,,,,,,,,,,,,,,,,,,,,,,,,,,,,,,,"30.04","75","94","0.00",,,,"54","30.03","FEW:02 35 SCT:04 45 SCT:04 75","30.01","10.00","80","150",,"6",,,,,,,,,,,,,,,,,,,,,,,,,,,,,,,,,,,,,"MET11306/24/20 11:53:02 METAR KMIA 241653Z 15005KT 10SM FEW035 SCT045 SCT075 34/24 A3004 RMK AO2 SLP171 T03440239 (RLW)","FM-15","7",,,,,,,,,,,,,,,,,,,,,,,,,,,,"2009-07-14"
"72202012839","2020-06-24T12:53:00","FM-15","7",,,,,,,,,,,,,,,,,,,,,,,,,,,,,,,,,,,,,,"30.03","75","94","0.00",,"+0.02","8","54","30.03","FEW:02 35 FEW:02 48 SCT:04 250","30.00","10.00","80","120",,"10",,,,,,,,,,,,,,,,,,,,,,,,,,,,,,,,,,,,,"MET13106/24/20 12:53:02 METAR KMIA 241753Z 12009KT 10SM FEW035 FEW048 SCT250 34/24 A3003 RMK AO2 SLP169 T03440239 10350 20294 58008 (RLW)","FM-15","7",,,,,,,,,,,,,,,,,,,,,,,,,,,,"2009-07-14"
"72202012839","2020-06-24T13:00:00","FM-12","4",,,,,,,,,,,,,,,,,,,,,,,,,,,,,,,,,,,,,,,"75","94",,,"+0.02","8","54","30.03","41","30.00","9.94","80","120",,"10",,,,,,,,,,,,,,,,,,,,,,,,,,,,,,,,,,,,,"SYN08072202 32666 41209 10344 20239 30159 40169 58008 91753 333 10350 20294 555 92418=","FM-12","4",,,,,,,,,,,,,,,,,,,,,,,,,,,,"2009-07-14"
"72202012839","2020-06-24T13:53:00","FM-15","7",,,,,,,,,,,,,,,,,,,,,,,,,,,,,,,,,,,,,,"30.03","74","93","0.00",,,,"54","30.03","FEW:02 40 SCT:04 250","30.00","10.00","79","120",,"11",,,,,,,,,,,,,,,,,,,,,,,,,,,,,,,,,,,,,"MET10606/24/20 13:53:02 METAR KMIA 241853Z 12010KT 10SM FEW040 SCT250 34/23 A3003 RMK AO2 SLP168 T03390233 (RDR)","FM-15","7",,,,,,,,,,,,,,,,,,,,,,,,,,,,"2009-07-14"
"72202012839","2020-06-24T14:53:00","FM-15","7",,,,,,,,,,,,,,,,,,,,,,,,,,,,,,,,,,,,,,"30.02","76","92","0.00",,,,"60","30.02","FEW:02 35 FEW:02 180 SCT:04 300","29.99","10.00","80","120",,"11",,,,,,,,,,,,,,,,,,,,,,,,,,,,,,,,,,,,,"MET11306/24/20 14:53:02 METAR KMIA 241953Z 12010KT 10SM FEW035 FEW180 SCT300 33/24 A3002 RMK AO2 SLP166 T03330244 (RDR)","FM-15","7",,,,,,,,,,,,,,,,,,,,,,,,,,,,"2009-07-14"
"72202012839","2020-06-24T15:53:00","FM-15","7",,,,,,,,,,,,,,,,,,,,,,,,,,,,,,,,,,,,,,"30.02","76","92","0.00",,"+0.01","8","60","30.02","FEW:02 35 FEW:02 180 SCT:04 300","29.99","10.00","80","130",,"11",,,,,,,,,,,,,,,,,,,,,,,,,,,,,,,,,,,,,"MET14306/24/20 15:53:02 METAR KMIA 242053Z 13010KT 10SM FEW035 FEW180 SCT300 33/24 A3002 RMK AO2 LTG DSNT NW SLP165 CB DSNT W-N T03330244 58004 (RDR)","FM-15","7",,,,,,,,,,,,,,,,,,,,,,,,,,,,"2009-07-14"
"72202012839","2020-06-24T16:00:00","FM-12","4",,,,,,,,,,,,,,,,,,,,,,,,,,,,,,,,,,,,,,,"76","92",,,"+0.01","8","60","30.02","41","29.99","9.94","80","130",,"11",,,,,,,,,,,,,,,,,,,,,,,,,,,,,,,,,,,,,"SYN06472202 32666 41310 10333 20244 30156 40165 58004 92053 555 92421=","FM-12","4",,,,,,,,,,,,,,,,,,,,,,,,,,,,"2009-07-14"
"72202012839","2020-06-24T16:53:00","FM-15","7",,,,,,,,,,,,,,,,,,,,,,,,,,,,,,,,,,,,,,"30.01","75","91","0.00",,,,"59","30.01","FEW:02 35 SCT:04 300","29.98","10.00","80","120",,"10",,,,,,,,,,,,,,,,,,,,,,,,,,,,,,,,,,,,,"MET11806/24/20 16:53:02 METAR KMIA 242153Z 12009KT 10SM FEW035 SCT300 33/24 A3001 RMK AO2 SLP162 CB DSNT W-N T03280239 (RDR)","FM-15","7",,,,,,,,,,,,,,,,,,,,,,,,,,,,"2009-07-14"
"72202012839","2020-06-24T17:53:00","FM-15","7",,,,,,,,,,,,,,,,,,,,,,,,,,,,,,,,,,,,,,"30.01","76","90","0.00",,,,"63","30.01","FEW:02 27 FEW:02 100 SCT:04 250","29.98","10.00","80","140",,"8",,,,,,,,,,,,,,,,,,,,,,,,,,,,,,,,,,,,,"MET12506/24/20 17:53:02 METAR KMIA 242253Z 14007KT 10SM FEW027 FEW100 SCT250 32/24 A3001 RMK AO2 SLP162 CB DSNT W-N T03220244 (RDR)","FM-15","7",,,,,,,,,,,,,,,,,,,,,,,,,,,,"2009-07-14"
"72202012839","2020-06-24T18:53:00","FM-15","7",,,,,,,,,,,,,,,,,,,,,,,,,,,,,,,,,,,,,,"30.02","76","87","0.00",,"+0.00","5","70","30.01","FEW:02 25 FEW:02 150 BKN:07 250","29.99","10.00","79","120",,"10",,,,,,,,,,,,,,,,,,,,,,,,,,,,,,,,,,,,,"MET13106/24/20 18:53:02 METAR KMIA 242353Z 12009KT 10SM FEW025 FEW150 BKN250 31/24 A3002 RMK AO2 SLP164 T03060244 10344 20306 55001 (RDR)","FM-15","7",,,,,,,,,,,,,,,,,,,,,,,,,,,,"2009-07-14"
"72202012839","2020-06-24T19:00:00","FM-12","4",,,,,,,,,,,,,,,,,,,,,,,,,,,,,,,,,,,,,,,"76","87",,,"+0.00","5","70","30.01","26","29.99","9.94","79","120",,"10",,,,,,,,,,,,,,,,,,,,,,,,,,,,,,,,,,,,,"SYN08072202 32566 61209 10306 20244 30156 40164 55001 92353 333 10350 20283 555 92500=","FM-12","4",,,,,,,,,,,,,,,,,,,,,,,,,,,,"2009-07-14"
"72202012839","2020-06-24T19:53:00","FM-15","7",,,,,,,,,,,,,,,,,,,,,,,,,,,,,,,,,,,,,,"30.01","76","87","0.00",,,,"70","30.01","FEW:02 150 SCT:04 250","29.98","10.00","79","110",,"11",,,,,,,,,,,,,,,,,,,,,,,,,,,,,,,,,,,,,"MET10006/24/20 19:53:01 METAR KMIA 250053Z 11010KT 10SM FEW150 SCT250 31/24 A3001 RMK AO2 SLP163 T03060244","FM-15","7",,,,,,,,,,,,,,,,,,,,,,,,,,,,"2009-07-14"
"72202012839","2020-06-24T20:53:00","FM-15","7",,,,,,,,,,,,,,,,,,,,,,,,,,,,,,,,,,,,,,"30.03","77","86","0.00",,,,"75","30.03","SCT:04 250","30.00","10.00","80","120",,"7",,,,,,,,,,,,,,,,,,,,,,,,,,,,,,,,,,,,,"MET09306/24/20 20:53:01 METAR KMIA 250153Z 12006KT 10SM SCT250 30/25 A3003 RMK AO2 SLP168 T03000250","FM-15","7",,,,,,,,,,,,,,,,,,,,,,,,,,,,"2009-07-14"
"72202012839","2020-06-24T21:53:00","FM-15","7",,,,,,,,,,,,,,,,,,,,,,,,,,,,,,,,,,,,,,"30.06","77","86","0.00",,"-0.04","3","75","30.06","FEW:02 25 SCT:04 250","30.03","10.00","80","120",,"7",,,,,,,,,,,,,,,,,,,,,,,,,,,,,,,,,,,,,"MET10606/24/20 21:53:01 METAR KMIA 250253Z 12006KT 10SM FEW025 SCT250 30/25 A3006 RMK AO2 SLP178 T03000250 53014","FM-15","7",,,,,,,,,,,,,,,,,,,,,,,,,,,,"2009-07-14"
"72202012839","2020-06-24T22:00:00","FM-12","4",,,,,,,,,,,,,,,,,,,,,,,,,,,,,,,,,,,,,,,"77","86",,,"-0.04","3","75","30.06","26","30.03","9.94","80","120",,"7",,,,,,,,,,,,,,,,,,,,,,,,,,,,,,,,,,,,,"SYN06472202 32566 41206 10300 20250 30169 40178 53014 90253 555 92503=","FM-12","4",,,,,,,,,,,,,,,,,,,,,,,,,,,,"2009-07-14"
"72202012839","2020-06-24T22:53:00","FM-15","7",,,,,,,,,,,,,,,,,,,,,,,,,,,,,,,,,,,,,,"30.07","78","85","0.00",,,,"80","30.07","FEW:02 25 FEW:02 250","30.04","10.00","80","130",,"7",,,,,,,,,,,,,,,,,,,,,,,,,,,,,,,,,,,,,"MET10006/24/20 22:53:01 METAR KMIA 250353Z 13006KT 10SM FEW025 FEW250 29/26 A3007 RMK AO2 SLP182 T02940256","FM-15","7",,,,,,,,,,,,,,,,,,,,,,,,,,,,"2009-07-14"
"72202012839","2020-06-24T23:53:00","FM-15","7",,,,,,,,,,,,,,,,,,,,,,,,,,,,,,,,,,,,,,"30.06","77","86","0.00",,,,"75","30.06","FEW:02 25 FEW:02 250","30.03","10.00","80","100",,"9",,,,,,,,,,,,,,,,,,,,,,,,,,,,,,,,,,,,,"MET11006/24/20 23:53:01 METAR KMIA 250453Z 10008KT 10SM FEW025 FEW250 30/25 A3006 RMK AO2 SLP181 T03000250 403500283","FM-15","7",,,,,,,,,,,,,,,,,,,,,,,,,,,,"2009-07-14"
"72202012839","2020-06-24T23:59:00","SOD  ","6",,,,,,,,,,,,,,,"76","89","68","30.03","29.99","79","6.1","24","5.8","0","95","83","140","21","0.00",,,"110","14",,,,,,,,,,,,,,,,,,,,,,,,,,,,,,,,,,,,,,,,,,,,,,,,,,,,,,,,,"SOD73924 HR PRECIPITATION (IN): 0.00 SNOW DEPTH (IN):0     24 HR SNOWFALL (IN):0.0  24 HR MAX TEMP (F): 9524 HR MIN TEMP (F): 83AVERAGE STATION PRESSURE:29.995 MINIMUM SEA LEVEL PRESSURE:30.00 TIME OF OCCURRENCE:1745 PEAK WIND SPEED (MPH): 21 PEAK WIND DIR (DEG):140 PEAK WIND TIME (LST):      FASTEST 2MIN SPEED (MPH): 14FASTEST 2MIN DIR (DEG):110 FASTEST 2MIN TIME (LST):     AVERAGE WIND SPEED (MPH): 6.1 24 HR AVG TEMP (F): 89DEPART FROM NORMAL:  6  HEATING DEGREE DAYS:  0 COOLING DEGREE DAYS: 24 LATEST DAY MAX TEMP (0700-1900 LST):95  LATEST NIGHT MIN TEMP(1900-0800 LST):83 HOURLY INCREMENTAL PRECIPITATION VALUES (IN):.00 0.00 0.00 0.00 0.00 0.00 0.00 0.00 0.00 0.00 0.00 0.00 0.00 0.00 0.00 0.00 0.00 0.00 0.00 0.00 0.00 0.00 0.00 0.00","SOD  ","6",,,,,,,,,,,,,,,,,,,,,,,,,"0531","1916",,"2009-07-14"
"72202012839","2020-06-25T00:53:00","FM-15","7",,,,,,,,,,,,,,,,,,,,,,,,,,,,,,,,,,,,,,"30.05","77","85","0.00",,"+0.01","8","77","30.05","FEW:02 24","30.02","10.00","79","100",,"8",,,,,,,,,,,,,,,,,,,,,,,,,,,,,,,,,,,,,"MET11606/25/20 00:53:02 METAR KMIA 250553Z 10007KT 10SM FEW024 29/25 A3005 RMK AO2 SLP175 T02940250 10306 20294 58003 (AM)","FM-15","7",,,,,,,,,,,,,,,,,,,,,,,,,,,,"2009-07-14"
"72202012839","2020-06-25T01:00:00","FM-12","4",,,,,,,,,,,,,,,,,,,,,,,,,,,,,,,,,,,,,,,"77","85",,,"+0.01","8","77","30.05","26","30.02","9.94","79","100",,"8",,,,,,,,,,,,,,,,,,,,,,,,,,,,,,,,,,,,,"SYN08072202 32566 21007 10294 20250 30166 40175 58003 90553 333 10306 20283 555 92506=","FM-12","4",,,,,,,,,,,,,,,,,,,,,,,,,,,,"2009-07-14"
"72202012839","2020-06-25T01:53:00","FM-15","7",,,,,,,,,,,,,,,,,,,,,,,,,,,,,,,,,,,,,,"30.05","76","85","0.00",,,,"75","30.05","FEW:02 24","30.02","10.00","79","090",,"8",,,,,,,,,,,,,,,,,,,,,,,,,,,,,,,,,,,,,"MET09806/25/20 01:53:02 METAR KMIA 250653Z 09007KT 10SM FEW024 29/24 A3005 RMK AO2 SLP176 T02940244 (AM)","FM-15","7",,,,,,,,,,,,,,,,,,,,,,,,,,,,"2009-07-14"
"72202012839","2020-06-25T02:53:00","FM-15","7",,,,,,,,,,,,,,,,,,,,,,,,,,,,,,,,,,,,,,"30.05","76","85","0.00",,,,"75","30.05","FEW:02 24","30.02","10.00","79","090",,"6",,,,,,,,,,,,,,,,,,,,,,,,,,,,,,,,,,,,,"MET09806/25/20 02:53:02 METAR KMIA 250753Z 09005KT 10SM FEW024 29/24 A3005 RMK AO2 SLP175 T02940244 (AM)","FM-15","7",,,,,,,,,,,,,,,,,,,,,,,,,,,,"2009-07-14"
"72202012839","2020-06-25T03:53:00","FM-15","7",,,,,,,,,,,,,,,,,,,,,,,,,,,,,,,,,,,,,,"30.04","77","85","0.00",,"+0.01","8","77","30.04","FEW:02 23","30.01","10.00","79","100",,"7",,,,,,,,,,,,,,,,,,,,,,,,,,,,,,,,,,,,,"MET10406/25/20 03:53:02 METAR KMIA 250853Z 10006KT 10SM FEW023 29/25 A3004 RMK AO2 SLP173 T02940250 58002 (AM)","FM-15","7",,,,,,,,,,,,,,,,,,,,,,,,,,,,"2009-07-14"
"72202012839","2020-06-25T04:00:00","FM-12","4",,,,,,,,,,,,,,,,,,,,,,,,,,,,,,,,,,,,,,,"77","85",,,"+0.01","8","77","30.04","26","30.01","9.94","79","100",,"7",,,,,,,,,,,,,,,,,,,,,,,,,,,,,,,,,,,,,"SYN06472202 32566 21006 10294 20250 30163 40173 58002 90853 555 92509=","FM-12","4",,,,,,,,,,,,,,,,,,,,,,,,,,,,"2009-07-14"
"72202012839","2020-06-25T04:53:00","FM-15","7",,,,,,,,,,,,,,,,,,,,,,,,,,,,,,,,,,,,,,"30.06","76","85","0.00",,,,"75","30.06","FEW:02 22","30.03","10.00","79","110",,"3",,,,,,,,,,,,,,,,,,,,,,,,,,,,,,,,,,,,,"MET09806/25/20 04:53:02 METAR KMIA 250953Z 11003KT 10SM FEW022 29/24 A3006 RMK AO2 SLP179 T02940244 (AM)","FM-15","7",,,,,,,,,,,,,,,,,,,,,,,,,,,,"2009-07-14"
"72202012839","2020-06-25T05:53:00","FM-15","7",,,,,,,,,,,,,,,,,,,,,,,,,,,,,,,,,,,,,,"30.08","77","84","0.00",,,,"80","30.08","FEW:02 15 FEW:02 20 SCT:04 250","30.05","10.00","79","120",,"5",,,,,,,,,,,,,,,,,,,,,,,,,,,,,,,,,,,,,"MET11306/25/20 05:53:02 METAR KMIA 251053Z 12004KT 10SM FEW015 FEW020 SCT250 29/25 A3008 RMK AO2 SLP187 T02890250 (RLW)","FM-15","7",,,,,,,,,,,,,,,,,,,,,,,,,,,,"2009-07-14"
"72202012839","2020-06-25T06:53:00","FM-15","7",,,,,,,,,,,,,,,,,,,,,,,,,,,,,,,,,,,,,,"30.09","77","87","0.00",,"-0.05","1","72","30.09","FEW:02 20 FEW:02 250","30.06","10.00","80","100",,"10",,,,,,,,,,,,,,,,,,,,,,,,,,,,,,,,,,,,,"MET15006/25/20 06:53:02 METAR KMIA 251153Z 10009KT 10SM FEW020 FEW250 31/25 A3009 RMK AO2 SLP190 CB DSNT NE AND S-SW MOV W T03060250 10306 20289 51017 (RLW)","FM-15","7",,,,,,,,,,,,,,,,,,,,,,,,,,,,"2009-07-14"
"72202012839","2020-06-25T07:00:00","FM-12","4",,,,,,,,,,,,,,,,,,,,,,,,,,,,,,,,,,,,,,,"77","87",,,"-0.05","1","72","30.09","26","30.06","9.94","80","100",,"10",,,,,,,,,,,,,,,,,,,,,,,,,,,,,,,,,,,,,"SYN08072202 32566 21009 10306 20250 30179 40190 51017 91153 333 10350 20289 555 92512=","FM-12","4",,,,,,,,,,,,,,,,,,,,,,,,,,,,"2009-07-14"
"72202012839","2020-06-25T07:53:00","FM-15","7",,,,,,,,,,,,,,,,,,,,,,,,,,,,,,,,,,,,,,"30.11","76","89","0.00",,,,"65","30.11","SCT:04 22 SCT:04 250","30.08","10.00","80","130",,"10",,,,,,,,,,,,,,,,,,,,,,,,,,,,,,,,,,,,,"MET10606/25/20 07:53:02 METAR KMIA 251253Z 13009KT 10SM SCT022 SCT250 32/24 A3011 RMK AO2 SLP195 T03170244 (RLW)","FM-15","7",,,,,,,,,,,,,,,,,,,,,,,,,,,,"2009-07-14"
"72202012839","2020-06-25T08:53:00","FM-15","7",,,,,,,,,,,,,,,,,,,,,,,,,,,,,,,,,,,,,,"30.11","76","90","0.00",,,,"63","30.11","FEW:02 23 SCT:04 250","30.08","10.00","80","140",,"9",,,,,,,,,,,,,,,,,,,,,,,,,,,,,,,,,,,,,"MET10606/25/20 08:53:02 METAR KMIA 251353Z 14008KT 10SM FEW023 SCT250 32/24 A3011 RMK AO2 SLP197 T03220244 (RLW)","FM-15","7",,,,,,,,,,,,,,,,,,,,,,,,,,,,"2009-07-14"
"72202012839","2020-06-25T09:53:00","FM-15","7",,,,,,,,,,,,,,,,,,,,,,,,,,,,,,,,,,,,,,"30.12","76","91","0.00",,"-0.03","1","61","30.12","SCT:04 30 SCT:04 250","30.09","10.00","80","110",,"10",,,,,,,,,,,,,,,,,,,,,,,,,,,,,,,,,,,,,"MET11206/25/20 09:53:02 METAR KMIA 251453Z 11009KT 10SM SCT030 SCT250 33/24 A3012 RMK AO2 SLP200 T03280244 51010 (RLW)","FM-15","7",,,,,,,,,,,,,,,,,,,,,,,,,,,,"2009-07-14"
"72202012839","2020-06-25T10:00:00","FM-12","4",,,,,,,,,,,,,,,,,,,,,,,,,,,,,,,,,,,,,,,"76","91",,,"-0.03","1","61","30.12","26","30.09","9.94","80","110",,"10",,,,,,,,,,,,,,,,,,,,,,,,,,,,,,,,,,,,,"SYN06472202 32566 41109 10328 20244 30190 40200 51010 91453 555 92515=","FM-12","4",,,,,,,,,,,,,,,,,,,,,,,,,,,,"2009-07-14"
"72202012839","2020-06-25T10:53:00","FM-15","7",,,,,,,,,,,,,,,,,,,,,,,,,,,,,,,,,,,,,,"30.13","75","92","0.00",,,,"58","30.12","BKN:07 30 BKN:07 250","30.10","10.00","80","110",,"14",,,,,,,,,,,,,,,,,,,,,,,,,,,,,,,,,,,,,"MET10606/25/20 10:53:02 METAR KMIA 251553Z 11012KT 10SM BKN030 BKN250 33/24 A3013 RMK AO2 SLP201 T03330239 (RLW)","FM-15","7",,,,,,,,,,,,,,,,,,,,,,,,,,,,"2009-07-14"
"72202012839","2020-06-25T11:53:00","FM-15","7",,,,,,,,,,,,,,,,,,,,,,,,,,,,,,,,,,,,,,"30.12","77","92","0.00",,,,"62","30.12","SCT:04 27 BKN:07 35 BKN:07 250","30.09","10.00","81","120",,"10",,,,,,,,,,,,,,,,,,,,,,,,,,,,,,,,,,,,,"MET11306/25/20 11:53:02 METAR KMIA 251653Z 12009KT 10SM SCT027 BKN035 BKN250 33/25 A3012 RMK AO2 SLP200 T03330250 (RLW)","FM-15","7",,,,,,,,,,,,,,,,,,,,,,,,,,,,"2009-07-14"
"72202012839","2020-06-25T12:53:00","FM-15","7",,,,,,,,,,,,,,,,,,,,,,,,,,,,,,,,,,,,,,"30.12","76","93","0.00",,"+0.00","8","58","30.12","BKN:07 30 BKN:07 250","30.09","10.00","81","110","17","10",,,,,,,,,,,,,,,,,,,,,,,,,,,,,,,,,,,,,"MET12706/25/20 12:53:02 METAR KMIA 251753Z 11009G15KT 10SM BKN030 BKN250 34/24 A3012 RMK AO2 SLP200 T03390244 10344 20306 58000 (RLW)","FM-15","7",,,,,,,,,,,,,,,,,,,,,,,,,,,,"2009-07-14"
"72202012839","2020-06-25T13:00:00","FM-12","4",,,,,,,,,,,,,,,,,,,,,,,,,,,,,,,,,,,,,,,"76","93",,,"0.00","4","58","30.12","26","30.09","9.94","81","110",,"10",,,,,,,,,,,,,,,,,,,,,,,,,,,,,,,,,,,,,"SYN08672202 32566 61109 10339 20244 30190 40200 58000 91753 333 10344 20306 91015 555 92518=","FM-12","4",,,,,,,,,,,,,,,,,,,,,,,,,,,,"2009-07-14"
"72202012839","2020-06-25T13:53:00","FM-15","7",,,,,,,,,,,,,,,,,,,,,,,,,,,,,,,,,,,,,,"30.11","75","92","0.00",,,,"58","30.11","BKN:07 30 BKN:07 250","30.08","10.00","80","090",,"13",,,,,,,,,,,,,,,,,,,,,,,,,,,,,,,,,,,,,"MET10506/25/20 13:53:02 METAR KMIA 251853Z 09011KT 10SM BKN030 BKN250 33/24 A3011 RMK AO2 SLP197 T03330239 (EM)","FM-15","7",,,,,,,,,,,,,,,,,,,,,,,,,,,,"2009-07-14"
"72202012839","2020-06-25T14:53:00","FM-15","7",,,,,,,,,,,,,,,,,,,,,,,,,,,,,,,,,,,,,,"30.10","73","93","0.00",,,,"52","30.10","SCT:04 35 BKN:07 250","30.07","10.00","79","080",,"14",,,,,,,,,,,,,,,,,,,,,,,,,,,,,,,,,,,,,"MET10506/25/20 14:53:02 METAR KMIA 251953Z 08012KT 10SM SCT035 BKN250 34/23 A3010 RMK AO2 SLP192 T03390228 (EM)","FM-15","7",,,,,,,,,,,,,,,,,,,,,,,,,,,,"2009-07-14"
"72202012839","2020-06-25T15:53:00","FM-15","7",,,,,,,,,,,,,,,,,,,,,,,,,,,,,,,,,,,,,,"30.09","72","92","0.00",,"+0.03","8","52","30.09","FEW:02 35 OVC:08 250","30.06","10.00","78","110",,"11",,,,,,,,,,,,,,,,,,,,,,,,,,,,,,,,,,,,,"MET12206/25/20 15:53:02 METAR KMIA 252053Z 11010KT 10SM FEW035 OVC250 33/22 A3009 RMK AO2 SLP189 CB DSNT SE T03330222 58010 (EM)","FM-15","7",,,,,,,,,,,,,,,,,,,,,,,,,,,,"2009-07-14"
"72202012839","2020-06-25T16:00:00","FM-12","4",,,,,,,,,,,,,,,,,,,,,,,,,,,,,,,,,,,,,,,"72","92",,,"+0.03","8","52","30.09","41","30.06","9.94","78","110",,"11",,,,,,,,,,,,,,,,,,,,,,,,,,,,,,,,,,,,,"SYN06472202 32666 81110 10333 20222 30179 40189 58010 92053 555 92521=","FM-12","4",,,,,,,,,,,,,,,,,,,,,,,,,,,,"2009-07-14"
"72202012839","2020-06-25T16:53:00","FM-15","7",,,,,,,,,,,,,,,,,,,,,,,,,,,,,,,,,,,,,,"30.08","73","91","0.00",,,,"56","30.08","FEW:02 30 OVC:08 250","30.05","10.00","78","110",,"10",,,,,,,,,,,,,,,,,,,,,,,,,,,,,,,,,,,,,"MET11606/25/20 16:53:02 METAR KMIA 252153Z 11009KT 10SM FEW030 OVC250 33/23 A3008 RMK AO2 SLP187 CB DSNT SE T03280228 (EM)","FM-15","7",,,,,,,,,,,,,,,,,,,,,,,,,,,,"2009-07-14"
"72202012839","2020-06-25T17:53:00","FM-15","7",,,,,,,,,,,,,,,,,,,,,,,,,,,,,,,,,,,,,,"30.10","74","90","0.00",,,,"59","30.09","FEW:02 30 OVC:08 250","30.07","10.00","79","080",,"11",,,,,,,,,,,,,,,,,,,,,,,,,,,,,,,,,,,,,"MET10506/25/20 17:53:02 METAR KMIA 252253Z 08010KT 10SM FEW030 OVC250 32/23 A3010 RMK AO2 SLP191 T03220233 (EM)","FM-15","7",,,,,,,,,,,,,,,,,,,,,,,,,,,,"2009-07-14"
"72202012839","2020-06-25T18:53:00","FM-15","7",,,,,,,,,,,,,,,,,,,,,,,,,,,,,,,,,,,,,,"30.10","75","88","0.00",,"-0.01","3","66","30.10","FEW:02 30 FEW:02 200 BKN:07 250","30.07","10.00","79","090",,"10",,,,,,,,,,,,,,,,,,,,,,,,,,,,,,,,,,,,,"MET13006/25/20 18:53:02 METAR KMIA 252353Z 09009KT 10SM FEW030 FEW200 BKN250 31/24 A3010 RMK AO2 SLP192 T03110239 10339 20311 53002 (EM)","FM-15","7",,,,,,,,,,,,,,,,,,,,,,,,,,,,"2009-07-14"
"72202012839","2020-06-25T19:00:00","FM-12","4",,,,,,,,,,,,,,,,,,,,,,,,,,,,,,,,,,,,,,,"75","88",,,"-0.01","3","66","30.10","26","30.07","9.94","79","090",,"10",,,,,,,,,,,,,,,,,,,,,,,,,,,,,,,,,,,,,"SYN08072202 32566 60909 10311 20239 30183 40192 53002 92353 333 10344 20289 555 92600=","FM-12","4",,,,,,,,,,,,,,,,,,,,,,,,,,,,"2009-07-14"
"72202012839","2020-06-25T19:53:00","FM-15","7",,,,,,,,,,,,,,,,,,,,,,,,,,,,,,,,,,,,,,"30.12","76","87","0.00",,,,"70","30.12","FEW:02 30 FEW:02 200 BKN:07 250","30.09","10.00","79","070",,"10",,,,,,,,,,,,,,,,,,,,,,,,,,,,,,,,,,,,,"MET10706/25/20 19:53:01 METAR KMIA 260053Z 07009KT 10SM FEW030 FEW200 BKN250 31/24 A3012 RMK AO2 SLP199 T03060244","FM-15","7",,,,,,,,,,,,,,,,,,,,,,,,,,,,"2009-07-14"
"72202012839","2020-06-25T20:53:00","FM-15","7",,,,,,,,,,,,,,,,,,,,,,,,,,,,,,,,,,,,,,"30.13","77","87","0.00",,,,"72","30.13","SCT:04 24 SCT:04 200 BKN:07 250","30.10","10.00","80","070",,"8",,,,,,,,,,,,,,,,,,,,,,,,,,,,,,,,,,,,,"MET10706/25/20 20:53:01 METAR KMIA 260153Z 07007KT 10SM SCT024 SCT200 BKN250 31/25 A3013 RMK AO2 SLP204 T03060250","FM-15","7",,,,,,,,,,,,,,,,,,,,,,,,,,,,"2009-07-14"
"72202012839","2020-06-25T21:53:00","FM-15","7",,,,,,,,,,,,,,,,,,,,,,,,,,,,,,,,,,,,,,"30.15","77","86","0.00",,"-0.05","1","75","30.15","FEW:02 21 SCT:04 35 BKN:07 250","30.12","10.00","80","100",,"10",,,,,,,,,,,,,,,,,,,,,,,,,,,,,,,,,,,,,"MET11306/25/20 21:53:02 METAR KMIA 260253Z 10009KT 10SM FEW021 SCT035 BKN250 30/25 A3015 RMK AO2 SLP210 T03000250 51018","FM-15","7",,,,,,,,,,,,,,,,,,,,,,,,,,,,"2009-07-14"
"72202012839","2020-06-25T22:00:00","FM-12","4",,,,,,,,,,,,,,,,,,,,,,,,,,,,,,,,,,,,,,,"77","86",,,"-0.05","1","75","30.15","26","30.12","9.94","80","100",,"10",,,,,,,,,,,,,,,,,,,,,,,,,,,,,,,,,,,,,"SYN06472202 32566 61009 10300 20250 30200 40210 51018 90253 555 92603=","FM-12","4",,,,,,,,,,,,,,,,,,,,,,,,,,,,"2009-07-14"
"72202012839","2020-06-25T22:53:00","FM-15","7",,,,,,,,,,,,,,,,,,,,,,,,,,,,,,,,,,,,,,"30.16","77","86","0.00",,,,"75","30.16","SCT:04 22 BKN:07 250","30.13","10.00","80","080",,"9",,,,,,,,,,,,,,,,,,,,,,,,,,,,,,,,,,,,,"MET10006/25/20 22:53:02 METAR KMIA 260353Z 08008KT 10SM SCT022 BKN250 30/25 A3016 RMK AO2 SLP213 T03000250","FM-15","7",,,,,,,,,,,,,,,,,,,,,,,,,,,,"2009-07-14"
"72202012839","2020-06-25T23:53:00","FM-15","7",,,,,,,,,,,,,,,,,,,,,,,,,,,,,,,,,,,,,,"30.16","77","86","0.00",,,,"75","30.16","SCT:04 21 SCT:04 250","30.13","10.00","80","080",,"11",,,,,,,,,,,,,,,,,,,,,,,,,,,,,,,,,,,,,"MET11006/25/20 23:53:02 METAR KMIA 260453Z 08010KT 10SM SCT021 SCT250 30/25 A3016 RMK AO2 SLP213 T03000250 403440289","FM-15","7",,,,,,,,,,,,,,,,,,,,,,,,,,,,"2009-07-14"
"72202012839","2020-06-25T23:59:00","SOD  ","6",,,,,,,,,,,,,,,"76","89","67","30.10","30.06","80","9.6","24","5.8","0","94","84","130","21","0.00",,,"110","16",,,,,,,,,,,,,,,,,,,,,,,,,,,,,,,,,,,,,,,,,,,,,,,,,,,,,,,,,"SOD73924 HR PRECIPITATION (IN): 0.00 SNOW DEPTH (IN):0     24 HR SNOWFALL (IN):0.0  24 HR MAX TEMP (F): 9424 HR MIN TEMP (F): 84AVERAGE STATION PRESSURE:30.055 MINIMUM SEA LEVEL PRESSURE:30.04 TIME OF OCCURRENCE:0413 PEAK WIND SPEED (MPH): 21 PEAK WIND DIR (DEG):130 PEAK WIND TIME (LST):      FASTEST 2MIN SPEED (MPH): 16FASTEST 2MIN DIR (DEG):110 FASTEST 2MIN TIME (LST):     AVERAGE WIND SPEED (MPH): 9.6 24 HR AVG TEMP (F): 89DEPART FROM NORMAL:  6  HEATING DEGREE DAYS:  0 COOLING DEGREE DAYS: 24 LATEST DAY MAX TEMP (0700-1900 LST):94  LATEST NIGHT MIN TEMP(1900-0800 LST):84 HOURLY INCREMENTAL PRECIPITATION VALUES (IN):.00 0.00 0.00 0.00 0.00 0.00 0.00 0.00 0.00 0.00 0.00 0.00 0.00 0.00 0.00 0.00 0.00 0.00 0.00 0.00 0.00 0.00 0.00 0.00","SOD  ","6",,,,,,,,,,,,,,,,,,,,,,,,,"0532","1916",,"2009-07-14"
"72202012839","2020-06-26T00:53:00","FM-15","7",,,,,,,,,,,,,,,,,,,,,,,,,,,,,,,,,,,,,,"30.15","77","86","0.00",,"-0.00","0","75","30.15","FEW:02 21 SCT:04 29 SCT:04 250","30.12","10.00","80","090",,"13",,,,,,,,,,,,,,,,,,,,,,,,,,,,,,,,,,,,,"MET13006/26/20 00:53:02 METAR KMIA 260553Z 09011KT 10SM FEW021 SCT029 SCT250 30/25 A3015 RMK AO2 SLP211 T03000250 10311 20300 50001 (RM)","FM-15","7",,,,,,,,,,,,,,,,,,,,,,,,,,,,"2009-07-14"
"72202012839","2020-06-26T01:00:00","FM-12","4",,,,,,,,,,,,,,,,,,,,,,,,,,,,,,,,,,,,,,,"77","86",,,"0.00","9","75","30.15","26","30.12","9.94","80","090",,"13",,,,,,,,,,,,,,,,,,,,,,,,,,,,,,,,,,,,,"SYN08072202 32566 40911 10300 20250 30200 40211 50001 90553 333 10311 20289 555 92606=","FM-12","4",,,,,,,,,,,,,,,,,,,,,,,,,,,,"2009-07-14"
"72202012839","2020-06-26T01:53:00","FM-15","7",,,,,,,,,,,,,,,,,,,,,,,,,,,,,,,,,,,,,,"30.14","76","85","0.00",,,,"75","30.14","FEW:02 21 SCT:04 29 SCT:04 250","30.11","10.00","79","090",,"8",,,,,,,,,,,,,,,,,,,,,,,,,,,,,,,,,,,,,"MET11206/26/20 01:53:02 METAR KMIA 260653Z 09007KT 10SM FEW021 SCT029 SCT250 29/24 A3014 RMK AO2 SLP206 T02940244 (RM)","FM-15","7",,,,,,,,,,,,,,,,,,,,,,,,,,,,"2009-07-14"
"72202012839","2020-06-26T02:53:00","FM-15","7",,,,,,,,,,,,,,,,,,,,,,,,,,,,,,,,,,,,,,"30.13","76","85","0.00",,,,"75","30.13","FEW:02 21 SCT:04 250","30.10","10.00","79","100",,"9",,,,,,,,,,,,,,,,,,,,,,,,,,,,,,,,,,,,,"MET10506/26/20 02:53:02 METAR KMIA 260753Z 10008KT 10SM FEW021 SCT250 29/24 A3013 RMK AO2 SLP202 T02940244 (RM)","FM-15","7",,,,,,,,,,,,,,,,,,,,,,,,,,,,"2009-07-14"
"72202012839","2020-06-26T03:53:00","FM-15","7",,,,,,,,,,,,,,,,,,,,,,,,,,,,,,,,,,,,,,"30.12","76","85","0.00",,"+0.03","6","75","30.12","FEW:02 22 SCT:04 250","30.09","10.00","79","100",,"6",,,,,,,,,,,,,,,,,,,,,,,,,,,,,,,,,,,,,"MET11106/26/20 03:53:02 METAR KMIA 260853Z 10005KT 10SM FEW022 SCT250 29/24 A3012 RMK AO2 SLP201 T02940244 56010 (RM)","FM-15","7",,,,,,,,,,,,,,,,,,,,,,,,,,,,"2009-07-14"
"72202012839","2020-06-26T04:00:00","FM-12","4",,,,,,,,,,,,,,,,,,,,,,,,,,,,,,,,,,,,,,,"76","85",,,"+0.03","6","75","30.12","26","30.09","9.94","79","100",,"6",,,,,,,,,,,,,,,,,,,,,,,,,,,,,,,,,,,,,"SYN06472202 32566 41005 10294 20244 30190 40201 56010 90853 555 92609=","FM-12","4",,,,,,,,,,,,,,,,,,,,,,,,,,,,"2009-07-14"
"72202012839","2020-06-26T04:53:00","FM-15","7",,,,,,,,,,,,,,,,,,,,,,,,,,,,,,,,,,,,,,"30.13","76","85","0.00",,,,"75","30.13","FEW:02 22 SCT:04 250","30.10","10.00","79","080",,"8",,,,,,,,,,,,,,,,,,,,,,,,,,,,,,,,,,,,,"MET10506/26/20 04:53:02 METAR KMIA 260953Z 08007KT 10SM FEW022 SCT250 29/24 A3013 RMK AO2 SLP202 T02940244 (RM)","FM-15","7",,,,,,,,,,,,,,,,,,,,,,,,,,,,"2009-07-14"
"72202012839","2020-06-26T05:53:00","FM-15","7",,,,,,,,,,,,,,,,,,,,,,,,,,,,,,,,,,,,,,"30.13","75","85","0.00",,,,"72","30.13","FEW:02 20 BKN:07 250","30.10","10.00","78","090",,"11",,,,,,,,,,,,,,,,,,,,,,,,,,,,,,,,,,,,,"MET10606/26/20 05:53:02 METAR KMIA 261053Z 09010KT 10SM FEW020 BKN250 29/24 A3013 RMK AO2 SLP204 T02940239 (RLW)","FM-15","7",,,,,,,,,,,,,,,,,,,,,,,,,,,,"2009-07-14"
"72202012839","2020-06-26T06:53:00","FM-15","7",,,,,,,,,,,,,,,,,,,,,,,,,,,,,,,,,,,,,,"30.15","75","86","0.00",,"-0.02","3","70","30.14","FEW:02 23 FEW:02 150 BKN:07 250","30.12","10.00","78","090",,"15",,,,,,,,,,,,,,,,,,,,,,,,,,,,,,,,,,,,,"MET13106/26/20 06:53:02 METAR KMIA 261153Z 09013KT 10SM FEW023 FEW150 BKN250 30/24 A3015 RMK AO2 SLP208 T03000239 10300 20294 53007 (RLW)","FM-15","7",,,,,,,,,,,,,,,,,,,,,,,,,,,,"2009-07-14"
"72202012839","2020-06-26T07:00:00","FM-12","4",,,,,,,,,,,,,,,,,,,,,,,,,,,,,,,,,,,,,,,"75","86",,,"-0.02","3","70","30.14","26","30.12","9.94","78","090",,"15",,,,,,,,,,,,,,,,,,,,,,,,,,,,,,,,,,,,,"SYN08072202 32566 60913 10300 20239 30200 40208 53007 91153 333 10344 20294 555 92612=","FM-12","4",,,,,,,,,,,,,,,,,,,,,,,,,,,,"2009-07-14"
"72202012839","2020-06-26T07:53:00","FM-15","7",,,,,,,,,,,,,,,,,,,,,,,,,,,,,,,,,,,,,,"30.17","75","88","0.00",,,,"66","30.16","SCT:04 24 BKN:07 250","30.14","10.00","79","100",,"15",,,,,,,,,,,,,,,,,,,,,,,,,,,,,,,,,,,,,"MET10606/26/20 07:53:02 METAR KMIA 261253Z 10013KT 10SM SCT024 BKN250 31/24 A3017 RMK AO2 SLP215 T03110239 (RLW)","FM-15","7",,,,,,,,,,,,,,,,,,,,,,,,,,,,"2009-07-14"
"72202012839","2020-06-26T08:53:00","FM-15","7",,,,,,,,,,,,,,,,,,,,,,,,,,,,,,,,,,,,,,"30.17","75","89","0.00",,,,"63","30.17","SCT:04 26 BKN:07 250","30.14","10.00","79","110",,"16",,,,,,,,,,,,,,,,,,,,,,,,,,,,,,,,,,,,,"MET10606/26/20 08:53:02 METAR KMIA 261353Z 11014KT 10SM SCT026 BKN250 32/24 A3017 RMK AO2 SLP217 T03170239 (RLW)","FM-15","7",,,,,,,,,,,,,,,,,,,,,,,,,,,,"2009-07-14"
"72202012839","2020-06-26T09:53:00","FM-15","7",,,,,,,,,,,,,,,,,,,,,,,,,,,,,,,,,,,,,,"30.17","75","90","0.00",,"-0.03","0","62","30.17","SCT:04 27 BKN:07 32 BKN:07 250","30.14","10.00","79","120",,"14",,,,,,,,,,,,,,,,,,,,,,,,,,,,,,,,,,,,,"MET11906/26/20 09:53:02 METAR KMIA 261453Z 12012KT 10SM SCT027 BKN032 BKN250 32/24 A3017 RMK AO2 SLP217 T03220239 50009 (RLW)","FM-15","7",,,,,,,,,,,,,,,,,,,,,,,,,,,,"2009-07-14"
"72202012839","2020-06-26T10:00:00","FM-12","4",,,,,,,,,,,,,,,,,,,,,,,,,,,,,,,,,,,,,,,"75","90",,,"0.03","9","62","30.17","26","30.14","9.94","79","120",,"14",,,,,,,,,,,,,,,,,,,,,,,,,,,,,,,,,,,,,"SYN06472202 32566 61212 10322 20239 30207 40217 50009 91453 555 92615=","FM-12","4",,,,,,,,,,,,,,,,,,,,,,,,,,,,"2009-07-14"
"72202012839","2020-06-26T10:53:00","FM-15","7",,,,,,,,,,,,,,,,,,,,,,,,,,,,,,,,,,,,,,"30.18","72","92","0.00",,,,"52","30.18","FEW:02 35 SCT:04 46","30.15","10.00","78","130","20","14",,,,,,,,,,,,,,,,,,,,,,,,,,,,,,,,,,,,,"MET10906/26/20 10:53:02 METAR KMIA 261553Z 13012G17KT 10SM FEW035 SCT046 33/22 A3018 RMK AO2 SLP219 T03330222 (RLW)","FM-15","7",,,,,,,,,,,,,,,,,,,,,,,,,,,,"2009-07-14"
"72202012839","2020-06-26T11:53:00","FM-15","7",,,,,,,,,,,,,,,,,,,,,,,,,,,,,,,,,,,,,,"30.17","72","93","0.00",,,,"50","30.17","SCT:04 33 SCT:04 50 SCT:04 250","30.14","10.00","78","VRB",,"10",,,,,,,,,,,,,,,,,,,,,,,,,,,,,,,,,,,,,"MET11306/26/20 11:53:02 METAR KMIA 261653Z 10009KT 10SM SCT033 SCT050 SCT250 34/22 A3017 RMK AO2 SLP216 T03390222 (RLW)","FM-15","7",,,,,,,,,,,,,,,,,,,,,,,,,,,,"2009-07-14"
"72202012839","2020-06-26T12:53:00","FM-15","7",,,,,,,,,,,,,,,,,,,,,,,,,,,,,,,,,,,,,,"30.16","72","93","0.00",,"+0.01","8","50","30.16","SCT:04 35 SCT:04 50 SCT:04 250","30.13","10.00","78","110","20","10",,,,,,,,,,,,,,,,,,,,,,,,,,,,,,,,,,,,,"MET13406/26/20 12:53:02 METAR KMIA 261753Z 11009G17KT 10SM SCT035 SCT050 SCT250 34/22 A3016 RMK AO2 SLP213 T03390222 10339 20306 58003 (RLW)","FM-15","7",,,,,,,,,,,,,,,,,,,,,,,,,,,,"2009-07-14"
"72202012839","2020-06-26T13:00:00","FM-12","4",,,,,,,,,,,,,,,,,,,,,,,,,,,,,,,,,,,,,,,"72","93",,,"+0.01","8","50","30.16","41","30.13","9.94","78","110",,"10",,,,,,,,,,,,,,,,,,,,,,,,,,,,,,,,,,,,,"SYN08672202 32666 41109 10339 20222 30203 40213 58003 91753 333 10339 20306 91017 555 92618=","FM-12","4",,,,,,,,,,,,,,,,,,,,,,,,,,,,"2009-07-14"
"72202012839","2020-06-26T13:53:00","FM-15","7",,,,,,,,,,,,,,,,,,,,,,,,,,,,,,,,,,,,,,"30.14","74","93","0.00",,,,"54","30.14","SCT:04 35 SCT:04 50 SCT:04 250","30.11","10.00","79","110","18","9",,,,,,,,,,,,,,,,,,,,,,,,,,,,,,,,,,,,,"MET11506/26/20 13:53:02 METAR KMIA 261853Z 11008G16KT 10SM SCT035 SCT050 SCT250 34/23 A3014 RMK AO2 SLP207 T03390233 (EM)","FM-15","7",,,,,,,,,,,,,,,,,,,,,,,,,,,,"2009-07-14"
"72202012839","2020-06-26T14:53:00","FM-15","7",,,,,,,,,,,,,,,,,,,,,,,,,,,,,,,,,,,,,,"30.13","73","93","0.00",,,,"52","30.13","FEW:02 39","30.10","10.00","79","100","23","9",,,,,,,,,,,,,,,,,,,,,,,,,,,,,,,,,,,,,"MET10106/26/20 14:53:02 METAR KMIA 261953Z 10008G20KT 10SM FEW039 34/23 A3013 RMK AO2 SLP204 T03390228 (EM)","FM-15","7",,,,,,,,,,,,,,,,,,,,,,,,,,,,"2009-07-14"
"72202012839","2020-06-26T15:53:00","FM-15","7",,,,,,,,,,,,,,,,,,,,,,,,,,,,,,,,,,,,,,"30.13","75","91","0.00",,"+0.04","6","59","30.13","SCT:04 35 BKN:07 250","30.10","10.00","80","060","21","14",,,,,,,,,,,,,,,,,,,,,,,,,,,,,,,,,,,,,"MET12406/26/20 15:53:02 METAR KMIA 262053Z 06012G18KT 10SM SCT035TCU BKN250 33/24 A3013 RMK AO2 SLP202 TCU NW T03280239 56012 (EM)","FM-15","7",,,,,,,,,,,,,,,,,,,,,,,,,,,,"2009-07-14"
"72202012839","2020-06-26T16:00:00","FM-12","4",,,,,,,,,,,,,,,,,,,,,,,,,,,,,,,,,,,,,,,"75","91",,,"+0.04","6","59","30.13","41","30.10","9.94","80","060",,"14",,,,,,,,,,,,,,,,,,,,,,,,,,,,,,,,,,,,,"SYN07472202 32666 60612 10328 20239 30193 40202 56012 92053 333 91018 555 92621=","FM-12","4",,,,,,,,,,,,,,,,,,,,,,,,,,,,"2009-07-14"
"72202012839","2020-06-26T16:53:00","FM-15","7",,,,,,,,,,,,,,,,,,,,,,,,,,,,,,,,,,,,,,"30.11","76","90","0.00",,,,"63","30.11","SCT:04 27 BKN:07 250","30.08","10.00","80","060",,"10",,,,,,,,,,,,,,,,,,,,,,,,,,,,,,,,,,,,,"MET10506/26/20 16:53:02 METAR KMIA 262153Z 06009KT 10SM SCT027 BKN250 32/24 A3011 RMK AO2 SLP197 T03220244 (EM)","FM-15","7",,,,,,,,,,,,,,,,,,,,,,,,,,,,"2009-07-14"
"72202012839","2020-06-26T17:53:00","FM-15","7",,,,,,,,,,,,,,,,,,,,,,,,,,,,,,,,,,,,,,"30.11","76","89","0.00",,,,"65","30.11","SCT:04 25 SCT:04 250","30.08","10.00","80","080",,"14",,,,,,,,,,,,,,,,,,,,,,,,,,,,,,,,,,,,,"MET10506/26/20 17:53:02 METAR KMIA 262253Z 08012KT 10SM SCT025 SCT250 32/24 A3011 RMK AO2 SLP197 T03170244 (EM)","FM-15","7",,,,,,,,,,,,,,,,,,,,,,,,,,,,"2009-07-14"
"72202012839","2020-06-26T18:53:00","FM-15","7",,,,,,,,,,,,,,,,,,,,,,,,,,,,,,,,,,,,,,"30.13","76","87","0.00",,"+0.00","5","70","30.13","FEW:02 25 SCT:04 250","30.10","10.00","79","080",,"13",,,,,,,,,,,,,,,,,,,,,,,,,,,,,,,,,,,,,"MET12306/26/20 18:53:02 METAR KMIA 262353Z 08011KT 10SM FEW025 SCT250 31/24 A3013 RMK AO2 SLP202 T03060244 10344 20306 55000 (EM)","FM-15","7",,,,,,,,,,,,,,,,,,,,,,,,,,,,"2009-07-14"
"72202012839","2020-06-26T19:00:00","FM-12","4",,,,,,,,,,,,,,,,,,,,,,,,,,,,,,,,,,,,,,,"76","87",,,"+0.00","5","70","30.13","26","30.10","9.94","79","080",,"13",,,,,,,,,,,,,,,,,,,,,,,,,,,,,,,,,,,,,"SYN08072202 32566 40811 10306 20244 30193 40202 55000 92353 333 10344 20294 555 92700=","FM-12","4",,,,,,,,,,,,,,,,,,,,,,,,,,,,"2009-07-14"
"72202012839","2020-06-26T19:53:00","FM-15","7",,,,,,,,,,,,,,,,,,,,,,,,,,,,,,,,,,,,,,"30.12","75","86","0.00",,,,"70","30.12","FEW:02 25 BKN:07 250","30.09","10.00","78","070",,"9",,,,,,,,,,,,,,,,,,,,,,,,,,,,,,,,,,,,,"MET10006/26/20 19:53:01 METAR KMIA 270053Z 07008KT 10SM FEW025 BKN250 30/24 A3012 RMK AO2 SLP200 T03000239","FM-15","7",,,,,,,,,,,,,,,,,,,,,,,,,,,,"2009-07-14"
"72202012839","2020-06-26T20:53:00","FM-15","7",,,,,,,,,,,,,,,,,,,,,,,,,,,,,,,,,,,,,,"30.13","75","86","0.00",,,,"70","30.13","FEW:02 25 SCT:04 250","30.10","10.00","78","060",,"10",,,,,,,,,,,,,,,,,,,,,,,,,,,,,,,,,,,,,"MET10006/26/20 20:53:01 METAR KMIA 270153Z 06009KT 10SM FEW025 SCT250 30/24 A3013 RMK AO2 SLP204 T03000239","FM-15","7",,,,,,,,,,,,,,,,,,,,,,,,,,,,"2009-07-14"
"72202012839","2020-06-26T21:53:00","FM-15","7",,,,,,,,,,,,,,,,,,,,,,,,,,,,,,,,,,,,,,"30.15","75","85","0.00",,"-0.02","3","72","30.15","FEW:02 25 FEW:02 250","30.12","10.00","78","060",,"8",,,,,,,,,,,,,,,,,,,,,,,,,,,,,,,,,,,,,"MET10606/26/20 21:53:01 METAR KMIA 270253Z 06007KT 10SM FEW025 FEW250 29/24 A3015 RMK AO2 SLP209 T02940239 53007","FM-15","7",,,,,,,,,,,,,,,,,,,,,,,,,,,,"2009-07-14"
"72202012839","2020-06-26T22:00:00","FM-12","4",,,,,,,,,,,,,,,,,,,,,,,,,,,,,,,,,,,,,,,"75","85",,,"-0.02","3","72","30.15","26","30.12","9.94","78","060",,"8",,,,,,,,,,,,,,,,,,,,,,,,,,,,,,,,,,,,,"SYN06472202 32566 20607 10294 20239 30200 40209 53007 90253 555 92703=","FM-12","4",,,,,,,,,,,,,,,,,,,,,,,,,,,,"2009-07-14"
"72202012839","2020-06-26T22:53:00","FM-15","7",,,,,,,,,,,,,,,,,,,,,,,,,,,,,,,,,,,,,,"30.16","75","85","0.00",,,,"72","30.16","FEW:02 25","30.13","10.00","78","090",,"11",,,,,,,,,,,,,,,,,,,,,,,,,,,,,,,,,,,,,"MET09306/26/20 22:53:02 METAR KMIA 270353Z 09010KT 10SM FEW025 29/24 A3016 RMK AO2 SLP212 T02940239","FM-15","7",,,,,,,,,,,,,,,,,,,,,,,,,,,,"2009-07-14"
"72202012839","2020-06-26T23:53:00","FM-15","7",,,,,,,,,,,,,,,,,,,,,,,,,,,,,,,,,,,,,,"30.14","75","83","0.00",,,,"77","30.14","FEW:02 25","30.11","10.00","77","060",,"7",,,,,,,,,,,,,,,,,,,,,,,,,,,,,,,,,,,,,"MET10306/26/20 23:53:02 METAR KMIA 270453Z 06006KT 10SM FEW025 28/24 A3014 RMK AO2 SLP205 T02830239 403440283","FM-15","7",,,,,,,,,,,,,,,,,,,,,,,,,,,,"2009-07-14"
"72202012839","2020-06-26T23:59:00","SOD  ","6",,,,,,,,,,,,,,,"75","89","66","30.14","30.11","79","11.0","24","5.7","0","94","83","110","23","0.00",,,"110","18",,,,,,,,,,,,,,,,,,,,,,,,,,,,,,,,,,,,,,,,,,,,,,,,,,,,,,,,,"SOD71824 HR PRECIPITATION (IN): 0.00  24 HR SNOWFALL (IN):0.0  24 HR MAX TEMP (F): 9424 HR MIN TEMP (F): 83AVERAGE STATION PRESSURE:30.110 MINIMUM SEA LEVEL PRESSURE:30.11 TIME OF OCCURRENCE:1807 PEAK WIND SPEED (MPH): 23 PEAK WIND DIR (DEG):110 PEAK WIND TIME (LST):      FASTEST 2MIN SPEED (MPH): 18FASTEST 2MIN DIR (DEG):110 FASTEST 2MIN TIME (LST):     AVERAGE WIND SPEED (MPH):11.0 24 HR AVG TEMP (F): 89DEPART FROM NORMAL:  6  HEATING DEGREE DAYS:  0 COOLING DEGREE DAYS: 24 LATEST DAY MAX TEMP (0700-1900 LST):94  LATEST NIGHT MIN TEMP(1900-0800 LST):85 HOURLY INCREMENTAL PRECIPITATION VALUES (IN):.00 0.00 0.00 0.00 0.00 0.00 0.00 0.00 0.00 0.00 0.00 0.00 0.00 0.00 0.00 0.00 0.00 0.00 0.00 0.00 0.00 0.00 0.00 0.00","SOD  ","6",,,,,,,,,,,,,,,,,,,,,,,,,"0532","1916",,"2009-07-14"
"72202012839","2020-06-27T00:53:00","FM-15","7",,,,,,,,,,,,,,,,,,,,,,,,,,,,,,,,,,,,,,"30.12","76","85","0.00",,"+0.03","8","75","30.12","FEW:02 25 FEW:02 250","30.09","10.00","79","050",,"7",,,,,,,,,,,,,,,,,,,,,,,,,,,,,,,,,,,,,"MET12306/27/20 00:53:02 METAR KMIA 270553Z 05006KT 10SM FEW025 FEW250 29/24 A3012 RMK AO2 SLP200 T02940244 10306 20283 58009 (GR)","FM-15","7",,,,,,,,,,,,,,,,,,,,,,,,,,,,"2009-07-14"
"72202012839","2020-06-27T01:00:00","FM-12","4",,,,,,,,,,,,,,,,,,,,,,,,,,,,,,,,,,,,,,,"76","85",,,"+0.03","8","75","30.12","26","30.09","9.94","79","050",,"7",,,,,,,,,,,,,,,,,,,,,,,,,,,,,,,,,,,,,"SYN08072202 32566 20506 10294 20244 30190 40200 58009 90553 333 10306 20283 555 92706=","FM-12","4",,,,,,,,,,,,,,,,,,,,,,,,,,,,"2009-07-14"
"72202012839","2020-06-27T01:53:00","FM-15","7",,,,,,,,,,,,,,,,,,,,,,,,,,,,,,,,,,,,,,"30.10","76","84","0.00",,,,"77","30.10","FEW:02 22 SCT:04 250","30.07","10.00","78","040",,"3",,,,,,,,,,,,,,,,,,,,,,,,,,,,,,,,,,,,,"MET10506/27/20 01:53:02 METAR KMIA 270653Z 04003KT 10SM FEW022 SCT250 29/24 A3010 RMK AO2 SLP194 T02890244 (GR)","FM-15","7",,,,,,,,,,,,,,,,,,,,,,,,,,,,"2009-07-14"
"72202012839","2020-06-27T02:53:00","FM-15","7",,,,,,,,,,,,,,,,,,,,,,,,,,,,,,,,,,,,,,"30.09","75","85","0.00",,,,"72","30.09","FEW:02 22 SCT:04 250","30.06","10.00","78","090",,"8",,,,,,,,,,,,,,,,,,,,,,,,,,,,,,,,,,,,,"MET10506/27/20 02:53:02 METAR KMIA 270753Z 09007KT 10SM FEW022 SCT250 29/24 A3009 RMK AO2 SLP190 T02940239 (GR)","FM-15","7",,,,,,,,,,,,,,,,,,,,,,,,,,,,"2009-07-14"
"72202012839","2020-06-27T03:53:00","FM-15","7",,,,,,,,,,,,,,,,,,,,,,,,,,,,,,,,,,,,,,"30.09","76","84","0.00",,"+0.03","6","77","30.09","FEW:02 23 BKN:07 250","30.06","10.00","78","090",,"10",,,,,,,,,,,,,,,,,,,,,,,,,,,,,,,,,,,,,"MET11106/27/20 03:53:02 METAR KMIA 270853Z 09009KT 10SM FEW023 BKN250 29/24 A3009 RMK AO2 SLP189 T02890244 56010 (GR)","FM-15","7",,,,,,,,,,,,,,,,,,,,,,,,,,,,"2009-07-14"
"72202012839","2020-06-27T04:00:00","FM-12","4",,,,,,,,,,,,,,,,,,,,,,,,,,,,,,,,,,,,,,,"76","84",,,"+0.03","6","77","30.09","26","30.06","9.94","78","090",,"10",,,,,,,,,,,,,,,,,,,,,,,,,,,,,,,,,,,,,"SYN06472202 32566 60909 10289 20244 30179 40189 56010 90853 555 92709=","FM-12","4",,,,,,,,,,,,,,,,,,,,,,,,,,,,"2009-07-14"
"72202012839","2020-06-27T04:53:00","FM-15","7",,,,,,,,,,,,,,,,,,,,,,,,,,,,,,,,,,,,,,"30.08","75","84","0.00",,,,"74","30.08","FEW:02 23 SCT:04 250","30.05","10.00","78","090",,"10",,,,,,,,,,,,,,,,,,,,,,,,,,,,,,,,,,,,,"MET10506/27/20 04:53:02 METAR KMIA 270953Z 09009KT 10SM FEW023 SCT250 29/24 A3008 RMK AO2 SLP187 T02890239 (GR)","FM-15","7",,,,,,,,,,,,,,,,,,,,,,,,,,,,"2009-07-14"
"72202012839","2020-06-27T05:53:00","FM-15","7",,,,,,,,,,,,,,,,,,,,,,,,,,,,,,,,,,,,,,"30.09","75","84","0.00",,,,"74","30.09","FEW:02 25 SCT:04 250","30.06","10.00","78","090",,"8",,,,,,,,,,,,,,,,,,,,,,,,,,,,,,,,,,,,,"MET10506/27/20 05:53:02 METAR KMIA 271053Z 09007KT 10SM FEW025 SCT250 29/24 A3009 RMK AO2 SLP190 T02890239 (EM)","FM-15","7",,,,,,,,,,,,,,,,,,,,,,,,,,,,"2009-07-14"
"72202012839","2020-06-27T06:53:00","FM-15","7",,,,,,,,,,,,,,,,,,,,,,,,,,,,,,,,,,,,,,"30.10","75","86","0.00",,"-0.01","3","70","30.09","FEW:02 25 SCT:04 250","30.07","10.00","78","070",,"7",,,,,,,,,,,,,,,,,,,,,,,,,,,,,,,,,,,,,"MET12306/27/20 06:53:02 METAR KMIA 271153Z 07006KT 10SM FEW025 SCT250 30/24 A3010 RMK AO2 SLP191 T03000239 10300 20289 53002 (EM)","FM-15","7",,,,,,,,,,,,,,,,,,,,,,,,,,,,"2009-07-14"
"72202012839","2020-06-27T07:00:00","FM-12","4",,,,,,,,,,,,,,,,,,,,,,,,,,,,,,,,,,,,,,,"75","86",,,"-0.01","3","70","30.09","26","30.07","9.94","78","070",,"7",,,,,,,,,,,,,,,,,,,,,,,,,,,,,,,,,,,,,"SYN08072202 32566 40706 10300 20239 30183 40191 53002 91153 333 10344 20283 555 92712=","FM-12","4",,,,,,,,,,,,,,,,,,,,,,,,,,,,"2009-07-14"
"72202012839","2020-06-27T07:53:00","FM-15","7",,,,,,,,,,,,,,,,,,,,,,,,,,,,,,,,,,,,,,"30.11","76","88","0.00",,,,"68","30.11","SCT:04 23 BKN:07 250","30.08","10.00","79","060",,"11",,,,,,,,,,,,,,,,,,,,,,,,,,,,,,,,,,,,,"MET10506/27/20 07:53:02 METAR KMIA 271253Z 06010KT 10SM SCT023 BKN250 31/24 A3011 RMK AO2 SLP196 T03110244 (EM)","FM-15","7",,,,,,,,,,,,,,,,,,,,,,,,,,,,"2009-07-14"
"72202012839","2020-06-27T08:53:00","FM-15","7",,,,,,,,,,,,,,,,,,,,,,,,,,,,,,,,,,,,,,"30.11","76","89","0.00",,,,"65","30.11","SCT:04 23","30.08","10.00","80","070",,"9",,,,,,,,,,,,,,,,,,,,,,,,,,,,,,,,,,,,,"MET09806/27/20 08:53:02 METAR KMIA 271353Z 07008KT 10SM SCT023 32/24 A3011 RMK AO2 SLP196 T03170244 (EM)","FM-15","7",,,,,,,,,,,,,,,,,,,,,,,,,,,,"2009-07-14"
"72202012839","2020-06-27T09:53:00","FM-15","7",,,,,,,,,,,,,,,,,,,,,,,,,,,,,,,,,,,,,,"30.12","75","91","0.00",,"-0.02","1","59","30.11","SCT:04 27","30.09","10.00","80","080",,"10",,,,,,,,,,,,,,,,,,,,,,,,,,,,,,,,,,,,,"MET10406/27/20 09:53:02 METAR KMIA 271453Z 08009KT 10SM SCT027 33/24 A3012 RMK AO2 SLP198 T03280239 51007 (EM)","FM-15","7",,,,,,,,,,,,,,,,,,,,,,,,,,,,"2009-07-14"
"72202012839","2020-06-27T10:00:00","FM-12","4",,,,,,,,,,,,,,,,,,,,,,,,,,,,,,,,,,,,,,,"75","91",,,"-0.02","1","59","30.11","26","30.09","9.94","80","080",,"10",,,,,,,,,,,,,,,,,,,,,,,,,,,,,,,,,,,,,"SYN06472202 32566 40809 10328 20239 30190 40198 51007 91453 555 92715=","FM-12","4",,,,,,,,,,,,,,,,,,,,,,,,,,,,"2009-07-14"
"72202012839","2020-06-27T10:53:00","FM-15","7",,,,,,,,,,,,,,,,,,,,,,,,,,,,,,,,,,,,,,"30.12","75","91","0.00",,,,"59","30.12","SCT:04 29","30.09","10.00","80","090",,"11",,,,,,,,,,,,,,,,,,,,,,,,,,,,,,,,,,,,,"MET09806/27/20 10:53:02 METAR KMIA 271553Z 09010KT 10SM SCT029 33/24 A3012 RMK AO2 SLP201 T03280239 (EM)","FM-15","7",,,,,,,,,,,,,,,,,,,,,,,,,,,,"2009-07-14"
"72202012839","2020-06-27T11:53:00","FM-15","7",,,,,,,,,,,,,,,,,,,,,,,,,,,,,,,,,,,,,,"30.12","75","92","0.00",,,,"58","30.12","BKN:07 33","30.09","10.00","80","110",,"11",,,,,,,,,,,,,,,,,,,,,,,,,,,,,,,,,,,,,"MET09806/27/20 11:53:02 METAR KMIA 271653Z 11010KT 10SM BKN033 33/24 A3012 RMK AO2 SLP199 T03330239 (EM)","FM-15","7",,,,,,,,,,,,,,,,,,,,,,,,,,,,"2009-07-14"
"72202012839","2020-06-27T12:53:00","FM-15","7",,,,,,,,,,,,,,,,,,,,,,,,,,,,,,,,,,,,,,"30.11","75","92","0.00",,"+0.01","8","58","30.11","BKN:07 33","30.08","10.00","80","100","17","13",,,,,,,,,,,,,,,,,,,,,,,,,,,,,,,,,,,,,"MET11906/27/20 12:53:02 METAR KMIA 271753Z 10011G15KT 10SM BKN033 33/24 A3011 RMK AO2 SLP195 T03330239 10339 20300 58003 (EM)","FM-15","7",,,,,,,,,,,,,,,,,,,,,,,,,,,,"2009-07-14"
"72202012839","2020-06-27T13:00:00","FM-12","4",,,,,,,,,,,,,,,,,,,,,,,,,,,,,,,,,,,,,,,"75","92",,,"+0.01","8","58","30.11","26","30.08","9.94","80","100",,"13",,,,,,,,,,,,,,,,,,,,,,,,,,,,,,,,,,,,,"SYN08672202 32566 61011 10333 20239 30186 40195 58003 91753 333 10339 20300 91015 555 92718=","FM-12","4",,,,,,,,,,,,,,,,,,,,,,,,,,,,"2009-07-14"
"72202012839","2020-06-27T13:53:00","FM-15","7",,,,,,,,,,,,,,,,,,,,,,,,,,,,,,,,,,,,,,"30.08","74","93","0.00",,,,"54","30.08","BKN:07 34","30.05","10.00","79","100","18","11",,,,,,,,,,,,,,,,,,,,,,,,,,,,,,,,,,,,,"MET10206/27/20 13:53:02 METAR KMIA 271853Z 10010G16KT 10SM BKN034 34/23 A3008 RMK AO2 SLP187 T03390233 (RDR)","FM-15","7",,,,,,,,,,,,,,,,,,,,,,,,,,,,"2009-07-14"
"72202012839","2020-06-27T14:53:00","FM-15","7",,,,,,,,,,,,,,,,,,,,,,,,,,,,,,,,,,,,,,"30.07","73","92","0.00",,,,"54","30.07","SCT:04 38","30.04","10.00","79","110",,"9",,,,,,,,,,,,,,,,,,,,,,,,,,,,,,,,,,,,,"MET09906/27/20 14:53:02 METAR KMIA 271953Z 11008KT 10SM SCT038 33/23 A3007 RMK AO2 SLP182 T03330228 (RDR)","FM-15","7",,,,,,,,,,,,,,,,,,,,,,,,,,,,"2009-07-14"
"72202012839","2020-06-27T15:53:00","FM-15","7",,,,,,,,,,,,,,,,,,,,,,,,,,,,,,,,,,,,,,"30.05","73","92","0.00",,"+0.05","6","54","30.05","SCT:04 38","30.02","10.00","79","100",,"10",,,,,,,,,,,,,,,,,,,,,,,,,,,,,,,,,,,,,"MET10506/27/20 15:53:02 METAR KMIA 272053Z 10009KT 10SM SCT038 33/23 A3005 RMK AO2 SLP177 T03330228 56018 (RDR)","FM-15","7",,,,,,,,,,,,,,,,,,,,,,,,,,,,"2009-07-14"
"72202012839","2020-06-27T16:00:00","FM-12","4",,,,,,,,,,,,,,,,,,,,,,,,,,,,,,,,,,,,,,,"73","92",,,"+0.05","6","54","30.05","41","30.02","9.94","79","100",,"10",,,,,,,,,,,,,,,,,,,,,,,,,,,,,,,,,,,,,"SYN06472202 32666 41009 10333 20228 30166 40177 56018 92053 555 92721=","FM-12","4",,,,,,,,,,,,,,,,,,,,,,,,,,,,"2009-07-14"
"72202012839","2020-06-27T16:53:00","FM-15","7",,,,,,,,,,,,,,,,,,,,,,,,,,,,,,,,,,,,,,"30.05","73","90","0.00",,,,"58","30.05","SCT:04 36","30.02","10.00","78","090",,"10",,,,,,,,,,,,,,,,,,,,,,,,,,,,,,,,,,,,,"MET09906/27/20 16:53:02 METAR KMIA 272153Z 09009KT 10SM SCT036 32/23 A3005 RMK AO2 SLP177 T03220228 (RDR)","FM-15","7",,,,,,,,,,,,,,,,,,,,,,,,,,,,"2009-07-14"
"72202012839","2020-06-27T17:53:00","FM-15","7",,,,,,,,,,,,,,,,,,,,,,,,,,,,,,,,,,,,,,"30.04","73","89","0.00",,,,"59","30.04","FEW:02 36","30.01","10.00","78","080",,"9",,,,,,,,,,,,,,,,,,,,,,,,,,,,,,,,,,,,,"MET09906/27/20 17:53:02 METAR KMIA 272253Z 08008KT 10SM FEW036 32/23 A3004 RMK AO2 SLP174 T03170228 (RDR)","FM-15","7",,,,,,,,,,,,,,,,,,,,,,,,,,,,"2009-07-14"
"72202012839","2020-06-27T18:53:00","FM-15","7",,,,,,,,,,,,,,,,,,,,,,,,,,,,,,,,,,,,,,"30.06","75","87","0.00",,"-0.00","3","67","30.06","SCT:04 34","30.03","10.00","78","080",,"8",,,,,,,,,,,,,,,,,,,,,,,,,,,,,,,,,,,,,"MET11706/27/20 18:53:02 METAR KMIA 272353Z 08007KT 10SM SCT034 31/24 A3006 RMK AO2 SLP178 T03060239 10339 20306 53001 (RDR)","FM-15","7",,,,,,,,,,,,,,,,,,,,,,,,,,,,"2009-07-14"
"72202012839","2020-06-27T19:00:00","FM-12","4",,,,,,,,,,,,,,,,,,,,,,,,,,,,,,,,,,,,,,,"75","87",,,"-0.00","3","67","30.06","41","30.03","9.94","78","080",,"8",,,,,,,,,,,,,,,,,,,,,,,,,,,,,,,,,,,,,"SYN08072202 32666 40807 10306 20239 30169 40178 53001 92353 333 10339 20289 555 92800=","FM-12","4",,,,,,,,,,,,,,,,,,,,,,,,,,,,"2009-07-14"
"72202012839","2020-06-27T19:53:00","FM-15","7",,,,,,,,,,,,,,,,,,,,,,,,,,,,,,,,,,,,,,"30.06","75","86","0.00",,,,"70","30.06","SCT:04 25","30.03","10.00","78","080",,"10",,,,,,,,,,,,,,,,,,,,,,,,,,,,,,,,,,,,,"MET09306/27/20 19:53:01 METAR KMIA 280053Z 08009KT 10SM SCT025 30/24 A3006 RMK AO2 SLP180 T03000239","FM-15","7",,,,,,,,,,,,,,,,,,,,,,,,,,,,"2009-07-14"
"72202012839","2020-06-27T20:53:00","FM-15","7",,,,,,,,,,,,,,,,,,,,,,,,,,,,,,,,,,,,,,"30.08","76","86","0.00",,,,"72","30.08","FEW:02 25","30.05","10.00","79","080",,"11",,,,,,,,,,,,,,,,,,,,,,,,,,,,,,,,,,,,,"MET09306/27/20 20:53:01 METAR KMIA 280153Z 08010KT 10SM FEW025 30/24 A3008 RMK AO2 SLP185 T03000244","FM-15","7",,,,,,,,,,,,,,,,,,,,,,,,,,,,"2009-07-14"
"72202012839","2020-06-27T21:53:00","FM-15","7",,,,,,,,,,,,,,,,,,,,,,,,,,,,,,,,,,,,,,"30.09","75","85","0.00",,"-0.03","3","72","30.09","FEW:02 22","30.06","10.00","78","070",,"8",,,,,,,,,,,,,,,,,,,,,,,,,,,,,,,,,,,,,"MET09906/27/20 21:53:01 METAR KMIA 280253Z 07007KT 10SM FEW022 29/24 A3009 RMK AO2 SLP189 T02940239 53011","FM-15","7",,,,,,,,,,,,,,,,,,,,,,,,,,,,"2009-07-14"
"72202012839","2020-06-27T22:00:00","FM-12","4",,,,,,,,,,,,,,,,,,,,,,,,,,,,,,,,,,,,,,,"75","85",,,"-0.03","3","72","30.09","26","30.06","9.94","78","070",,"8",,,,,,,,,,,,,,,,,,,,,,,,,,,,,,,,,,,,,"SYN06472202 32566 20707 10294 20239 30179 40189 53011 90253 555 92803=","FM-12","4",,,,,,,,,,,,,,,,,,,,,,,,,,,,"2009-07-14"
"72202012839","2020-06-27T22:53:00","FM-15","7",,,,,,,,,,,,,,,,,,,,,,,,,,,,,,,,,,,,,,"30.09","75","85","0.00",,,,"72","30.09","FEW:02 22","30.06","10.00","78","090",,"10",,,,,,,,,,,,,,,,,,,,,,,,,,,,,,,,,,,,,"MET09306/27/20 22:53:02 METAR KMIA 280353Z 09009KT 10SM FEW022 29/24 A3009 RMK AO2 SLP188 T02940239","FM-15","7",,,,,,,,,,,,,,,,,,,,,,,,,,,,"2009-07-14"
"72202012839","2020-06-27T23:53:00","FM-15","7",,,,,,,,,,,,,,,,,,,,,,,,,,,,,,,,,,,,,,"30.08","75","85","0.00",,,,"72","30.08","FEW:02 22 FEW:02 28 FEW:02 250","30.05","10.00","78","100",,"11",,,,,,,,,,,,,,,,,,,,,,,,,,,,,,,,,,,,,"MET11706/27/20 23:53:02 METAR KMIA 280453Z 10010KT 10SM FEW022 FEW028 FEW250 29/24 A3008 RMK AO2 SLP185 T02940239 403390289","FM-15","7",,,,,,,,,,,,,,,,,,,,,,,,,,,,"2009-07-14"
"72202012839","2020-06-27T23:59:00","SOD  ","6",,,,,,,,,,,,,,,"75","89","66","30.09","30.06","79","9.6","24","5.7","0","93","84","090","21","0.00",,,"090","17",,,,,,,,,,,,,,,,,,,,,,,,,,,,,,,,,,,,,,,,,,,,,,,,,,,,,,,,,"SOD73924 HR PRECIPITATION (IN): 0.00 SNOW DEPTH (IN):0     24 HR SNOWFALL (IN):0.0  24 HR MAX TEMP (F): 9324 HR MIN TEMP (F): 84AVERAGE STATION PRESSURE:30.060 MINIMUM SEA LEVEL PRESSURE:30.04 TIME OF OCCURRENCE:1802 PEAK WIND SPEED (MPH): 21 PEAK WIND DIR (DEG): 90 PEAK WIND TIME (LST):      FASTEST 2MIN SPEED (MPH): 17FASTEST 2MIN DIR (DEG): 90 FASTEST 2MIN TIME (LST):     AVERAGE WIND SPEED (MPH): 9.6 24 HR AVG TEMP (F): 89DEPART FROM NORMAL:  6  HEATING DEGREE DAYS:  0 COOLING DEGREE DAYS: 24 LATEST DAY MAX TEMP (0700-1900 LST):93  LATEST NIGHT MIN TEMP(1900-0800 LST):83 HOURLY INCREMENTAL PRECIPITATION VALUES (IN):.00 0.00 0.00 0.00 0.00 0.00 0.00 0.00 0.00 0.00 0.00 0.00 0.00 0.00 0.00 0.00 0.00 0.00 0.00 0.00 0.00 0.00 0.00 0.00","SOD  ","6",,,,,,,,,,,,,,,,,,,,,,,,,"0532","1917",,"2009-07-14"
"72202012839","2020-06-28T00:53:00","FM-15","7",,,,,,,,,,,,,,,,,,,,,,,,,,,,,,,,,,,,,,"30.06","75","85","0.00",,"+0.03","8","72","30.06","FEW:02 22 FEW:02 25","30.03","10.00","78","090",,"9",,,,,,,,,,,,,,,,,,,,,,,,,,,,,,,,,,,,,"MET12306/28/20 00:53:02 METAR KMIA 280553Z 09008KT 10SM FEW022 FEW025 29/24 A3006 RMK AO2 SLP180 T02940239 10306 20289 58009 (GR)","FM-15","7",,,,,,,,,,,,,,,,,,,,,,,,,,,,"2009-07-14"
"72202012839","2020-06-28T01:00:00","FM-12","4",,,,,,,,,,,,,,,,,,,,,,,,,,,,,,,,,,,,,,,"75","85",,,"+0.03","8","72","30.06","26","30.03","9.94","78","090",,"9",,,,,,,,,,,,,,,,,,,,,,,,,,,,,,,,,,,,,"SYN08072202 32566 20908 10294 20239 30169 40180 58009 90553 333 10306 20289 555 92806=","FM-12","4",,,,,,,,,,,,,,,,,,,,,,,,,,,,"2009-07-14"
"72202012839","2020-06-28T01:53:00","FM-15","7",,,,,,,,,,,,,,,,,,,,,,,,,,,,,,,,,,,,,,"30.04","74","84","0.00",,,,"72","30.04","FEW:02 22 FEW:02 26 SCT:04 250","30.01","10.00","77","110",,"9",,,,,,,,,,,,,,,,,,,,,,,,,,,,,,,,,,,,,"MET11206/28/20 01:53:02 METAR KMIA 280653Z 11008KT 10SM FEW022 FEW026 SCT250 29/23 A3004 RMK AO2 SLP172 T02890233 (GR)","FM-15","7",,,,,,,,,,,,,,,,,,,,,,,,,,,,"2009-07-14"
"72202012839","2020-06-28T02:53:00","FM-15","7",,,,,,,,,,,,,,,,,,,,,,,,,,,,,,,,,,,,,,"30.03","75","84","0.00",,,,"74","30.03","FEW:02 22 FEW:02 30 SCT:04 240","30.00","10.00","78","090",,"8",,,,,,,,,,,,,,,,,,,,,,,,,,,,,,,,,,,,,"MET11206/28/20 02:53:02 METAR KMIA 280753Z 09007KT 10SM FEW022 FEW030 SCT240 29/24 A3003 RMK AO2 SLP168 T02890239 (GR)","FM-15","7",,,,,,,,,,,,,,,,,,,,,,,,,,,,"2009-07-14"
"72202012839","2020-06-28T03:53:00","FM-15","7",,,,,,,,,,,,,,,,,,,,,,,,,,,,,,,,,,,,,,"30.03","74","84","0.00",,"+0.03","5","72","30.03","FEW:02 23 FEW:02 27","30.00","10.00","77","090",,"7",,,,,,,,,,,,,,,,,,,,,,,,,,,,,,,,,,,,,"MET11106/28/20 03:53:02 METAR KMIA 280853Z 09006KT 10SM FEW023 FEW027 29/23 A3003 RMK AO2 SLP169 T02890233 55011 (GR)","FM-15","7",,,,,,,,,,,,,,,,,,,,,,,,,,,,"2009-07-14"
"72202012839","2020-06-28T04:00:00","FM-12","4",,,,,,,,,,,,,,,,,,,,,,,,,,,,,,,,,,,,,,,"74","84",,,"+0.03","5","72","30.03","26","30.00","9.94","77","090",,"7",,,,,,,,,,,,,,,,,,,,,,,,,,,,,,,,,,,,,"SYN06472202 32566 20906 10289 20233 30159 40169 55011 90853 555 92809=","FM-12","4",,,,,,,,,,,,,,,,,,,,,,,,,,,,"2009-07-14"
"72202012839","2020-06-28T04:53:00","FM-15","7",,,,,,,,,,,,,,,,,,,,,,,,,,,,,,,,,,,,,,"30.03","75","84","0.00",,,,"74","30.03","FEW:02 23 SCT:04 250","30.00","10.00","78","110",,"6",,,,,,,,,,,,,,,,,,,,,,,,,,,,,,,,,,,,,"MET10506/28/20 04:53:02 METAR KMIA 280953Z 11005KT 10SM FEW023 SCT250 29/24 A3003 RMK AO2 SLP170 T02890239 (GR)","FM-15","7",,,,,,,,,,,,,,,,,,,,,,,,,,,,"2009-07-14"
"72202012839","2020-06-28T05:53:00","FM-15","7",,,,,,,,,,,,,,,,,,,,,,,,,,,,,,,,,,,,,,"30.04","75","84","0.00",,,,"74","30.04","FEW:02 25 SCT:04 250","30.01","10.00","78","100",,"7",,,,,,,,,,,,,,,,,,,,,,,,,,,,,,,,,,,,,"MET10506/28/20 05:53:02 METAR KMIA 281053Z 10006KT 10SM FEW025 SCT250 29/24 A3004 RMK AO2 SLP173 T02890239 (EM)","FM-15","7",,,,,,,,,,,,,,,,,,,,,,,,,,,,"2009-07-14"
"72202012839","2020-06-28T06:53:00","FM-15","7",,,,,,,,,,,,,,,,,,,,,,,,,,,,,,,,,,,,,,"30.05","76","86","0.00",,"-0.02","3","72","30.05","FEW:02 25","30.02","10.00","79","110",,"5",,,,,,,,,,,,,,,,,,,,,,,,,,,,,,,,,,,,,"MET11606/28/20 06:53:02 METAR KMIA 281153Z 11004KT 10SM FEW025 30/24 A3005 RMK AO2 SLP177 T03000244 10300 20283 53008 (EM)","FM-15","7",,,,,,,,,,,,,,,,,,,,,,,,,,,,"2009-07-14"
"72202012839","2020-06-28T07:00:00","FM-12","4",,,,,,,,,,,,,,,,,,,,,,,,,,,,,,,,,,,,,,,"76","86",,,"-0.02","3","72","30.05","26","30.02","9.94","79","110",,"5",,,,,,,,,,,,,,,,,,,,,,,,,,,,,,,,,,,,,"SYN08072202 32566 21104 10300 20244 30166 40177 53008 91153 333 10339 20283 555 92812=","FM-12","4",,,,,,,,,,,,,,,,,,,,,,,,,,,,"2009-07-14"
"72202012839","2020-06-28T07:53:00","FM-15","7",,,,,,,,,,,,,,,,,,,,,,,,,,,,,,,,,,,,,,"30.07","75","87","0.00",,,,"67","30.07","FEW:02 24 SCT:04 250","30.04","10.00","78","130",,"8",,,,,,,,,,,,,,,,,,,,,,,,,,,,,,,,,,,,,"MET10506/28/20 07:53:02 METAR KMIA 281253Z 13007KT 10SM FEW024 SCT250 31/24 A3007 RMK AO2 SLP183 T03060239 (EM)","FM-15","7",,,,,,,,,,,,,,,,,,,,,,,,,,,,"2009-07-14"
"72202012839","2020-06-28T08:53:00","FM-15","7",,,,,,,,,,,,,,,,,,,,,,,,,,,,,,,,,,,,,,"30.08","75","89","0.00",,,,"63","30.08","SCT:04 28 SCT:04 250","30.05","10.00","79","130",,"7",,,,,,,,,,,,,,,,,,,,,,,,,,,,,,,,,,,,,"MET10506/28/20 08:53:02 METAR KMIA 281353Z 13006KT 10SM SCT028 SCT250 32/24 A3008 RMK AO2 SLP185 T03170239 (EM)","FM-15","7",,,,,,,,,,,,,,,,,,,,,,,,,,,,"2009-07-14"
"72202012839","2020-06-28T09:53:00","FM-15","7",,,,,,,,,,,,,,,,,,,,,,,,,,,,,,,,,,,,,,"30.07","75","90","0.00",,"-0.02","0","62","30.07","SCT:04 30 SCT:04 250","30.04","10.00","79","090",,"6",,,,,,,,,,,,,,,,,,,,,,,,,,,,,,,,,,,,,"MET11106/28/20 09:53:02 METAR KMIA 281453Z 09005KT 10SM SCT030 SCT250 32/24 A3007 RMK AO2 SLP184 T03220239 50007 (EM)","FM-15","7",,,,,,,,,,,,,,,,,,,,,,,,,,,,"2009-07-14"
"72202012839","2020-06-28T10:00:00","FM-12","4",,,,,,,,,,,,,,,,,,,,,,,,,,,,,,,,,,,,,,,"75","90",,,"0.02","9","62","30.07","26","30.04","9.94","79","090",,"6",,,,,,,,,,,,,,,,,,,,,,,,,,,,,,,,,,,,,"SYN06472202 32566 40905 10322 20239 30173 40184 50007 91453 555 92815=","FM-12","4",,,,,,,,,,,,,,,,,,,,,,,,,,,,"2009-07-14"
"72202012839","2020-06-28T10:53:00","FM-15","7",,,,,,,,,,,,,,,,,,,,,,,,,,,,,,,,,,,,,,"30.07","75","91","0.00",,,,"59","30.07","SCT:04 34 SCT:04 180 BKN:07 250","30.04","10.00","80","110",,"10",,,,,,,,,,,,,,,,,,,,,,,,,,,,,,,,,,,,,"MET11206/28/20 10:53:02 METAR KMIA 281553Z 11009KT 10SM SCT034 SCT180 BKN250 33/24 A3007 RMK AO2 SLP184 T03280239 (EM)","FM-15","7",,,,,,,,,,,,,,,,,,,,,,,,,,,,"2009-07-14"
"72202012839","2020-06-28T11:53:00","FM-15","7",,,,,,,,,,,,,,,,,,,,,,,,,,,,,,,,,,,,,,"30.06","74","92","0.00",,,,"56","30.06","SCT:04 35 SCT:04 180 BKN:07 250","30.03","10.00","79","130",,"6",,,,,,,,,,,,,,,,,,,,,,,,,,,,,,,,,,,,,"MET11206/28/20 11:53:02 METAR KMIA 281653Z 13005KT 10SM SCT035 SCT180 BKN250 33/23 A3006 RMK AO2 SLP179 T03330233 (EM)","FM-15","7",,,,,,,,,,,,,,,,,,,,,,,,,,,,"2009-07-14"
"72202012839","2020-06-28T12:53:00","FM-15","7",,,,,,,,,,,,,,,,,,,,,,,,,,,,,,,,,,,,,,"30.05","74","94","0.00",,"+0.03","8","52","30.04","FEW:02 37 SCT:04 180 BKN:07 250","30.02","10.00","80","110","17","10",,,,,,,,,,,,,,,,,,,,,,,,,,,,,,,,,,,,,"MET13306/28/20 12:53:02 METAR KMIA 281753Z 11009G15KT 10SM FEW037 SCT180 BKN250 34/23 A3005 RMK AO2 SLP174 T03440233 10344 20300 58009 (EM)","FM-15","7",,,,,,,,,,,,,,,,,,,,,,,,,,,,"2009-07-14"
"72202012839","2020-06-28T13:00:00","FM-12","4",,,,,,,,,,,,,,,,,,,,,,,,,,,,,,,,,,,,,,,"74","94",,,"+0.03","8","52","30.04","41","30.02","9.94","80","110",,"10",,,,,,,,,,,,,,,,,,,,,,,,,,,,,,,,,,,,,"SYN08672202 32666 61109 10344 20233 30166 40174 58009 91753 333 10344 20300 91015 555 92818=","FM-12","4",,,,,,,,,,,,,,,,,,,,,,,,,,,,"2009-07-14"
"72202012839","2020-06-28T13:53:00","FM-15","7",,,,,,,,,,,,,,,,,,,,,,,,,,,,,,,,,,,,,,"30.04","74","92","0.00",,,,"56","30.03","SCT:04 40 BKN:07 250","30.01","10.00","79","120",,"13",,,,,,,,,,,,,,,,,,,,,,,,,,,,,,,,,,,,,"MET10606/28/20 13:53:02 METAR KMIA 281853Z 12011KT 10SM SCT040 BKN250 33/23 A3004 RMK AO2 SLP171 T03330233 (RDR)","FM-15","7",,,,,,,,,,,,,,,,,,,,,,,,,,,,"2009-07-14"
"72202012839","2020-06-28T14:53:00","FM-15","7",,,,,,,,,,,,,,,,,,,,,,,,,,,,,,,,,,,,,,"30.03","74","92","0.00",,,,"56","30.03","SCT:04 38 BKN:07 250","30.00","10.00","79","130",,"10",,,,,,,,,,,,,,,,,,,,,,,,,,,,,,,,,,,,,"MET10606/28/20 14:53:02 METAR KMIA 281953Z 13009KT 10SM SCT038 BKN250 33/23 A3003 RMK AO2 SLP169 T03330233 (RDR)","FM-15","7",,,,,,,,,,,,,,,,,,,,,,,,,,,,"2009-07-14"
"72202012839","2020-06-28T15:53:00","FM-15","7",,,,,,,,,,,,,,,,,,,,,,,,,,,,,,,,,,,,,,"30.02","73","91","0.00",,"+0.03","8","56","30.02","FEW:02 34 SCT:04 180 BKN:07 250","29.99","10.00","78","140",,"10",,,,,,,,,,,,,,,,,,,,,,,,,,,,,,,,,,,,,"MET11906/28/20 15:53:02 METAR KMIA 282053Z 14009KT 10SM FEW034 SCT180 BKN250 33/23 A3002 RMK AO2 SLP165 T03280228 58009 (RDR)","FM-15","7",,,,,,,,,,,,,,,,,,,,,,,,,,,,"2009-07-14"
"72202012839","2020-06-28T16:00:00","FM-12","4",,,,,,,,,,,,,,,,,,,,,,,,,,,,,,,,,,,,,,,"73","91",,,"+0.03","8","56","30.02","41","29.99","9.94","78","140",,"10",,,,,,,,,,,,,,,,,,,,,,,,,,,,,,,,,,,,,"SYN06472202 32666 61409 10328 20228 30156 40165 58009 92053 555 92821=","FM-12","4",,,,,,,,,,,,,,,,,,,,,,,,,,,,"2009-07-14"
"72202012839","2020-06-28T16:53:00","FM-15","7",,,,,,,,,,,,,,,,,,,,,,,,,,,,,,,,,,,,,,"30.01","75","89","0.00",,,,"63","30.01","FEW:02 32 SCT:04 180 OVC:08 250","29.98","10.00","79","130",,"11",,,,,,,,,,,,,,,,,,,,,,,,,,,,,,,,,,,,,"MET11306/28/20 16:53:02 METAR KMIA 282153Z 13010KT 10SM FEW032 SCT180 OVC250 32/24 A3001 RMK AO2 SLP163 T03170239 (RDR)","FM-15","7",,,,,,,,,,,,,,,,,,,,,,,,,,,,"2009-07-14"
"72202012839","2020-06-28T17:53:00","FM-15","7",,,,,,,,,,,,,,,,,,,,,,,,,,,,,,,,,,,,,,"30.01","75","88","0.00",,,,"66","30.01","FEW:02 32 SCT:04 180 BKN:07 250","29.98","10.00","79","110",,"9",,,,,,,,,,,,,,,,,,,,,,,,,,,,,,,,,,,,,"MET11306/28/20 17:53:02 METAR KMIA 282253Z 11008KT 10SM FEW032 SCT180 BKN250 31/24 A3001 RMK AO2 SLP161 T03110239 (RDR)","FM-15","7",,,,,,,,,,,,,,,,,,,,,,,,,,,,"2009-07-14"
"72202012839","2020-06-28T18:53:00","FM-15","7",,,,,,,,,,,,,,,,,,,,,,,,,,,,,,,,,,,,,,"30.02","74","87","0.00",,"+0.00","5","65","30.02","FEW:02 30 OVC:08 250","29.99","10.00","78","120",,"9",,,,,,,,,,,,,,,,,,,,,,,,,,,,,,,,,,,,,"MET12606/28/20 18:53:02 METAR KMIA 282353Z 12008KT 10SM FEW030 OVC250 31/23 A3002 RMK AO2 SLP165 T03060233 10344 20306 55000 $ (RDR)","FM-15","7",,,,,,,,,,,,,,,,,,,,,,,,,,,,"2009-07-14"
"72202012839","2020-06-28T19:00:00","FM-12","4",,,,,,,,,,,,,,,,,,,,,,,,,,,,,,,,,,,,,,,"74","87",,,"+0.00","5","65","30.02","26","29.99","9.94","78","120",,"9",,,,,,,,,,,,,,,,,,,,,,,,,,,,,,,,,,,,,"SYN08072202 32566 81208 10306 20233 30156 40165 55000 92353 333 10344 20283 555 92900=","FM-12","4",,,,,,,,,,,,,,,,,,,,,,,,,,,,"2009-07-14"
"72202012839","2020-06-28T19:53:00","FM-15","7",,,,,,,,,,,,,,,,,,,,,,,,,,,,,,,,,,,,,,"30.03","74","85","0.00",,,,"70","30.03","BKN:07 250","30.00","10.00","77","130",,"7",,,,,,,,,,,,,,,,,,,,,,,,,,,,,,,,,,,,,"MET10106/28/20 19:53:03 METAR KMIA 290053Z 13006KT 10SM BKN250 29/23 A3003 RMK AO2 SLP171 T02940233 $ (RDR)","FM-15","7",,,,,,,,,,,,,,,,,,,,,,,,,,,,"2009-07-14"
"72202012839","2020-06-28T20:53:00","FM-15","7",,,,,,,,,,,,,,,,,,,,,,,,,,,,,,,,,,,,,,"30.05","75","85","0.00",,,,"72","30.05","BKN:07 250","30.02","10.00","78","120",,"8",,,,,,,,,,,,,,,,,,,,,,,,,,,,,,,,,,,,,"MET10106/28/20 20:53:03 METAR KMIA 290153Z 12007KT 10SM BKN250 29/24 A3005 RMK AO2 SLP176 T02940239 $ (RDR)","FM-15","7",,,,,,,,,,,,,,,,,,,,,,,,,,,,"2009-07-14"
"72202012839","2020-06-28T21:53:00","FM-15","7",,,,,,,,,,,,,,,,,,,,,,,,,,,,,,,,,,,,,,"30.06","75","85","0.00",,"-0.04","1","72","30.06","BKN:07 250","30.03","10.00","78","110",,"8",,,,,,,,,,,,,,,,,,,,,,,,,,,,,,,,,,,,,"MET10606/28/20 21:53:03 METAR KMIA 290253Z 11007KT 10SM BKN250 29/24 A3006 RMK AO2 SLP179 T02940239 51014 $ (GR)","FM-15","7",,,,,,,,,,,,,,,,,,,,,,,,,,,,"2009-07-14"
"72202012839","2020-06-28T22:00:00","FM-12","4",,,,,,,,,,,,,,,,,,,,,,,,,,,,,,,,,,,,,,,"75","85",,,"-0.04","1","72","30.06",,"30.03","9.94","78","110",,"8",,,,,,,,,,,,,,,,,,,,,,,,,,,,,,,,,,,,,"SYN06472202 32966 61107 10294 20239 30169 40179 51014 90253 555 92903=","FM-12","4",,,,,,,,,,,,,,,,,,,,,,,,,,,,"2009-07-14"
"72202012839","2020-06-28T22:53:00","FM-15","7",,,,,,,,,,,,,,,,,,,,,,,,,,,,,,,,,,,,,,"30.06","75","85","0.00",,,,"72","30.06","FEW:02 25 BKN:07 250","30.03","10.00","78","120",,"6",,,,,,,,,,,,,,,,,,,,,,,,,,,,,,,,,,,,,"MET10706/28/20 22:53:03 METAR KMIA 290353Z 12005KT 10SM FEW025 BKN250 29/24 A3006 RMK AO2 SLP178 T02940239 $ (GR)","FM-15","7",,,,,,,,,,,,,,,,,,,,,,,,,,,,"2009-07-14"
"72202012839","2020-06-28T23:53:00","FM-15","7",,,,,,,,,,,,,,,,,,,,,,,,,,,,,,,,,,,,,,"30.04","75","86","0.00",,,,"70","30.04","FEW:02 25 BKN:07 250","30.01","10.00","78","110",,"8",,,,,,,,,,,,,,,,,,,,,,,,,,,,,,,,,,,,,"MET11706/28/20 23:53:03 METAR KMIA 290453Z 11007KT 10SM FEW025 BKN250 30/24 A3004 RMK AO2 SLP172 T03000239 403440283 $ (GR)","FM-15","7",,,,,,,,,,,,,,,,,,,,,,,,,,,,"2009-07-14"
"72202012839","2020-06-28T23:59:00","SOD  ","6",,,,,,,,,,,,,,,"75","89","66","30.04","30.01","78","8.2","24","5.7","0","94","83","110","19","0.00",,,"120","14",,,,,,,,,,,,,,,,,,,,,,,,,,,,,,,,,,,,,,,,,,,,,,,,,,,,,,,,,"SOD73924 HR PRECIPITATION (IN): 0.00 SNOW DEPTH (IN):0     24 HR SNOWFALL (IN):0.0  24 HR MAX TEMP (F): 9424 HR MIN TEMP (F): 83AVERAGE STATION PRESSURE:30.010 MINIMUM SEA LEVEL PRESSURE:30.01 TIME OF OCCURRENCE:1848 PEAK WIND SPEED (MPH): 19 PEAK WIND DIR (DEG):110 PEAK WIND TIME (LST):      FASTEST 2MIN SPEED (MPH): 14FASTEST 2MIN DIR (DEG):120 FASTEST 2MIN TIME (LST):     AVERAGE WIND SPEED (MPH): 8.2 24 HR AVG TEMP (F): 89DEPART FROM NORMAL:  6  HEATING DEGREE DAYS:  0 COOLING DEGREE DAYS: 24 LATEST DAY MAX TEMP (0700-1900 LST):94  LATEST NIGHT MIN TEMP(1900-0800 LST):83 HOURLY INCREMENTAL PRECIPITATION VALUES (IN):.00 0.00 0.00 0.00 0.00 0.00 0.00 0.00 0.00 0.00 0.00 0.00 0.00 0.00 0.00 0.00 0.00 0.00 0.00 0.00 0.00 0.00 0.00 0.00","SOD  ","6",,,,,,,,,,,,,,,,,,,,,,,,,"0533","1917",,"2009-07-14"
"72202012839","2020-06-29T00:53:00","FM-15","7",,,,,,,,,,,,,,,,,,,,,,,,,,,,,,,,,,,,,,"30.03","76","85","0.00",,"+0.03","8","75","30.03","FEW:02 23 BKN:07 250","30.00","10.00","79","100",,"5",,,,,,,,,,,,,,,,,,,,,,,,,,,,,,,,,,,,,"MET12506/29/20 00:53:02 METAR KMIA 290553Z 10004KT 10SM FEW023 BKN250 29/24 A3003 RMK AO2 SLP170 T02940244 10306 20289 58009 $ (GR)","FM-15","7",,,,,,,,,,,,,,,,,,,,,,,,,,,,"2009-07-14"
"72202012839","2020-06-29T01:00:00","FM-12","4",,,,,,,,,,,,,,,,,,,,,,,,,,,,,,,,,,,,,,,"76","85",,,"+0.03","8","75","30.03","26","30.00","9.94","79","100",,"5",,,,,,,,,,,,,,,,,,,,,,,,,,,,,,,,,,,,,"SYN08072202 32566 61004 10294 20244 30159 40170 58009 90553 333 10306 20283 555 92906=","FM-12","4",,,,,,,,,,,,,,,,,,,,,,,,,,,,"2009-07-14"
"72202012839","2020-06-29T01:53:00","FM-15","7",,,,,,,,,,,,,,,,,,,,,,,,,,,,,,,,,,,,,,"30.02","76","85","0.00",,,,"75","30.02","SCT:04 22 SCT:04 28 OVC:08 250","29.99","10.00","79","100",,"5",,,,,,,,,,,,,,,,,,,,,,,,,,,,,,,,,,,,,"MET11406/29/20 01:53:02 METAR KMIA 290653Z 10004KT 10SM SCT022 SCT028 OVC250 29/24 A3002 RMK AO2 SLP166 T02940244 $ (GR)","FM-15","7",,,,,,,,,,,,,,,,,,,,,,,,,,,,"2009-07-14"
"72202012839","2020-06-29T02:53:00","FM-15","7",,,,,,,,,,,,,,,,,,,,,,,,,,,,,,,,,,,,,,"30.01","76","85","0.00",,,,"75","30.01","FEW:02 22 OVC:08 240","29.98","10.00","79","090",,"5",,,,,,,,,,,,,,,,,,,,,,,,,,,,,,,,,,,,,"MET10706/29/20 02:53:02 METAR KMIA 290753Z 09004KT 10SM FEW022 OVC240 29/24 A3001 RMK AO2 SLP161 T02940244 $ (GR)","FM-15","7",,,,,,,,,,,,,,,,,,,,,,,,,,,,"2009-07-14"
"72202012839","2020-06-29T03:53:00","FM-15","7",,,,,,,,,,,,,,,,,,,,,,,,,,,,,,,,,,,,,,"30.00","75","85","0.00",,"+0.03","6","72","30.00","FEW:02 23 FEW:02 35 BKN:07 250","29.97","10.00","78","000",,"0",,,,,,,,,,,,,,,,,,,,,,,,,,,,,,,,,,,,,"MET12006/29/20 03:53:02 METAR KMIA 290853Z 00000KT 10SM FEW023 FEW035 BKN250 29/24 A3000 RMK AO2 SLP160 T02940239 56010 $ (GR)","FM-15","7",,,,,,,,,,,,,,,,,,,,,,,,,,,,"2009-07-14"
"72202012839","2020-06-29T04:00:00","FM-12","4",,,,,,,,,,,,,,,,,,,,,,,,,,,,,,,,,,,,,,,"75","85",,,"+0.03","6","72","30.00","26","29.97","9.94","78","000",,"0",,,,,,,,,,,,,,,,,,,,,,,,,,,,,,,,,,,,,"SYN06472202 32566 60000 10294 20239 30149 40160 56010 90853 555 92909=","FM-12","4",,,,,,,,,,,,,,,,,,,,,,,,,,,,"2009-07-14"
"72202012839","2020-06-29T04:53:00","FM-15","7",,,,,,,,,,,,,,,,,,,,,,,,,,,,,,,,,,,,,,"30.01","76","84","0.00",,,,"77","30.01","FEW:02 23 FEW:02 32 SCT:04 250","29.98","10.00","78","020",,"5",,,,,,,,,,,,,,,,,,,,,,,,,,,,,,,,,,,,,"MET11406/29/20 04:53:02 METAR KMIA 290953Z 02004KT 10SM FEW023 FEW032 SCT250 29/24 A3001 RMK AO2 SLP162 T02890244 $ (GR)","FM-15","7",,,,,,,,,,,,,,,,,,,,,,,,,,,,"2009-07-14"
"72202012839","2020-06-29T05:53:00","FM-15","7",,,,,,,,,,,,,,,,,,,,,,,,,,,,,,,,,,,,,,"30.02","76","84","0.00",,,,"77","30.02","FEW:02 25 SCT:04 250","29.99","10.00","78","000",,"0",,,,,,,,,,,,,,,,,,,,,,,,,,,,,,,,,,,,,"MET10706/29/20 05:53:02 METAR KMIA 291053Z 00000KT 10SM FEW025 SCT250 29/24 A3002 RMK AO2 SLP165 T02890244 $ (EM)","FM-15","7",,,,,,,,,,,,,,,,,,,,,,,,,,,,"2009-07-14"
"72202012839","2020-06-29T06:53:00","FM-15","7",,,,,,,,,,,,,,,,,,,,,,,,,,,,,,,,,,,,,,"30.04","77","86","0.00",,"-0.04","3","75","30.04","FEW:02 24 FEW:02 250","30.01","10.00","80","120",,"5",,,,,,,,,,,,,,,,,,,,,,,,,,,,,,,,,,,,,"MET12506/29/20 06:53:02 METAR KMIA 291153Z 12004KT 10SM FEW024 FEW250 30/25 A3004 RMK AO2 SLP172 T03000250 10300 20289 53012 $ (EM)","FM-15","7",,,,,,,,,,,,,,,,,,,,,,,,,,,,"2009-07-14"
"72202012839","2020-06-29T07:00:00","FM-12","4",,,,,,,,,,,,,,,,,,,,,,,,,,,,,,,,,,,,,,,"77","86",,,"-0.04","3","75","30.04","26","30.01","9.94","80","120",,"5",,,,,,,,,,,,,,,,,,,,,,,,,,,,,,,,,,,,,"SYN08072202 32566 21204 10300 20250 30163 40172 53012 91153 333 10344 20289 555 92912=","FM-12","4",,,,,,,,,,,,,,,,,,,,,,,,,,,,"2009-07-14"
"72202012839","2020-06-29T07:53:00","FM-15","7",,,,,,,,,,,,,,,,,,,,,,,,,,,,,,,,,,,,,,"30.05","76","88","0.00",,,,"68","30.05","FEW:02 25 SCT:04 250","30.02","10.00","79","170",,"3",,,,,,,,,,,,,,,,,,,,,,,,,,,,,,,,,,,,,"MET10506/29/20 07:53:02 METAR KMIA 291253Z 17003KT 10SM FEW025 SCT250 31/24 A3005 RMK AO2 SLP176 T03110244 (EM)","FM-15","7",,,,,,,,,,,,,,,,,,,,,,,,,,,,"2009-07-14"
"72202012839","2020-06-29T08:53:00","FM-15","7",,,,,,,,,,,,,,,,,,,,,,,,,,,,,,,,,,,,,,"30.05","74","89","0.00",,,,"61","30.05","FEW:02 28 SCT:04 250","30.02","10.00","78","100",,"5",,,,,,,,,,,,,,,,,,,,,,,,,,,,,,,,,,,,,"MET10506/29/20 08:53:02 METAR KMIA 291353Z 10004KT 10SM FEW028 SCT250 32/23 A3005 RMK AO2 SLP177 T03170233 (EM)","FM-15","7",,,,,,,,,,,,,,,,,,,,,,,,,,,,"2009-07-14"
"72202012839","2020-06-29T09:53:00","FM-15","7",,,,,,,,,,,,,,,,,,,,,,,,,,,,,,,,,,,,,,"30.06","75","90","0.00",,"-0.02","1","62","30.06","SCT:04 29 SCT:04 250","30.03","10.00","79","VRB",,"3",,,,,,,,,,,,,,,,,,,,,,,,,,,,,,,,,,,,,"MET11106/29/20 09:53:02 METAR KMIA 291453Z VRB03KT 10SM SCT029 SCT250 32/24 A3006 RMK AO2 SLP179 T03220239 51007 (EM)","FM-15","7",,,,,,,,,,,,,,,,,,,,,,,,,,,,"2009-07-14"
"72202012839","2020-06-29T10:00:00","FM-12","4",,,,,,,,,,,,,,,,,,,,,,,,,,,,,,,,,,,,,,,"75","90",,,"-0.02","1","62","30.06","26","30.03","9.94","79",,,"3",,,,,,,,,,,,,,,,,,,,,,,,,,,,,,,,,,,,,"SYN06472202 32566 4//03 10322 20239 30169 40179 51007 91453 555 92915=","FM-12","4",,,,,,,,,,,,,,,,,,,,,,,,,,,,"2009-07-14"
"72202012839","2020-06-29T10:53:00","FM-15","7",,,,,,,,,,,,,,,,,,,,,,,,,,,,,,,,,,,,,,"30.06","75","93","0.00",,,,"56","30.06","BKN:07 35","30.03","10.00","80","140",,"8",,,,,,,,,,,,,,,,,,,,,,,,,,,,,,,,,,,,,"MET09806/29/20 10:53:02 METAR KMIA 291553Z 14007KT 10SM BKN035 34/24 A3006 RMK AO2 SLP181 T03390239 (EM)","FM-15","7",,,,,,,,,,,,,,,,,,,,,,,,,,,,"2009-07-14"
"72202012839","2020-06-29T11:53:00","FM-15","7",,,,,,,,,,,,,,,,,,,,,,,,,,,,,,,,,,,,,,"30.06","75","93","0.00",,,,"56","30.06","SCT:04 35 BKN:07 250","30.03","10.00","80","110",,"8",,,,,,,,,,,,,,,,,,,,,,,,,,,,,,,,,,,,,"MET11706/29/20 11:53:02 METAR KMIA 291653Z 11007KT 10SM SCT035 BKN250 34/24 A3006 RMK AO2 LTG DSNT SW SLP179 T03390239 (EM)","FM-15","7",,,,,,,,,,,,,,,,,,,,,,,,,,,,"2009-07-14"
"72202012839","2020-06-29T12:53:00","FM-15","7",,,,,,,,,,,,,,,,,,,,,,,,,,,,,,,,,,,,,,"30.06","76","94","0.00",,"+0.00","8","56","30.06","FEW:02 25 BKN:07 37 BKN:07 250","30.03","10.00","81","VRB",,"11",,,,,,,,,,,,,,,,,,,,,,,,,,,,,,,,,,,,,"MET15906/29/20 12:53:02 METAR KMIA 291753Z 14010KT 10SM FEW025CB BKN037 BKN250 34/24 A3006 RMK AO2 LTG DSNT SW SLP178 CB SW-W MOV NE T03440244 10344 20300 58001 (EM)","FM-15","7",,,,,,,,,,,,,,,,,,,,,,,,,,,,"2009-07-14"
"72202012839","2020-06-29T13:00:00","FM-12","4",,,,,,,,,,,,,,,,,,,,,,,,,,,,,,,,,,,,,,,"76","94",,,"+0.00","8","56","30.06","26","30.03","9.94","81","140",,"11",,,,,,,,,,,,,,,,,,,,,,,,,,,,,,,,,,,,,"SYN08072202 32566 61410 10344 20244 30169 40178 58001 91753 333 10344 20300 555 92918=","FM-12","4",,,,,,,,,,,,,,,,,,,,,,,,,,,,"2009-07-14"
"72202012839","2020-06-29T13:33:00","FM-16","7",,,,,,,,,,,,,,,,,,,,,,,,,,,,,,,,,,,,,,"30.04","75","94",,"VCTS:7 ||",,,"54",,"FEW:02 25 SCT:04 41 BKN:07 250","30.01","10.00","80","VRB",,"10",,,,,,,,,,,,,,,,,,,,,,,,,,,,,,,,,,,,,"MET15106/29/20 13:33:02 SPECI KMIA 291833Z 11009KT 10SM VCTS FEW025 SCT041 BKN250 34/24 A3004 RMK AO2 LTG DSNT SW-N TSE27 CB DSNT SW AND NW-N T03440239 (RDR)","FM-16","7",,,,,,,,,,,,,,,,,,,,,,,,,,,,"2009-07-14"
"72202012839","2020-06-29T13:53:00","FM-15","7",,,,,,,,,,,,,,,,,,,,,,,,,,,,,,,,,,,,,,"30.03","75","93","0.00","VCTS:7 ||",,,"56","30.03","FEW:02 25 SCT:04 43 BKN:07 250","30.00","10.00","80","110",,"9",,,,,,,,,,,,,,,,,,,,,,,,,,,,,,,,,,,,,"MET16206/29/20 13:53:02 METAR KMIA 291853Z 11008KT 10SM VCTS FEW025 SCT043 BKN250 34/24 A3003 RMK AO2 LTG DSNT N AND NW TSE27 SLP170 CB DSNT SW AND NW-N T03390239 (RDR)","FM-15","7",,,,,,,,,,,,,,,,,,,,,,,,,,,,"2009-07-14"
"72202012839","2020-06-29T14:07:00","FM-16","7",,,,,,,,,,,,,,,,,,,,,,,,,,,,,,,,,,,,,,"30.04","75","92",,,,,"58",,"FEW:02 25 SCT:04 43 BKN:07 250","30.01","10.00","80","130",,"8",,,,,,,,,,,,,,,,,,,,,,,,,,,,,,,,,,,,,"MET14406/29/20 14:07:02 SPECI KMIA 291907Z 13007KT 10SM FEW025 SCT043 BKN250 33/24 A3004 RMK AO2 LTG DSNT N AND NW CB DSNT SW AND NW-N T03330239 (RDR)","FM-16","7",,,,,,,,,,,,,,,,,,,,,,,,,,,,"2009-07-14"
"72202012839","2020-06-29T14:53:00","FM-15","7",,,,,,,,,,,,,,,,,,,,,,,,,,,,,,,,,,,,,,"30.02","75","93","0.00",,,,"56","30.02","FEW:02 25 SCT:04 35 BKN:07 250","29.99","10.00","80","140","16","7",,,,,,,,,,,,,,,,,,,,,,,,,,,,,,,,,,,,,"MET15106/29/20 14:53:02 METAR KMIA 291953Z 14006G14KT 10SM FEW025 SCT035 BKN250 34/24 A3002 RMK AO2 LTG DSNT N AND SW SLP166 CB DSNT N AND SW T03390239 (RDR)","FM-15","7",,,,,,,,,,,,,,,,,,,,,,,,,,,,"2009-07-14"
"72202012839","2020-06-29T15:53:00","FM-15","7",,,,,,,,,,,,,,,,,,,,,,,,,,,,,,,,,,,,,,"30.02","75","93","0.00",,"+0.04","6","56","30.02","FEW:02 25 SCT:04 43 SCT:04 100","29.99","10.00","80","120",,"11",,,,,,,,,,,,,,,,,,,,,,,,,,,,,,,,,,,,,"MET12906/29/20 15:53:02 METAR KMIA 292053Z 12010KT 10SM FEW025 SCT043 SCT100 34/24 A3002 RMK AO2 SLP166 CB DSNT W T03390239 56012 (RDR)","FM-15","7",,,,,,,,,,,,,,,,,,,,,,,,,,,,"2009-07-14"
"72202012839","2020-06-29T16:00:00","FM-12","4",,,,,,,,,,,,,,,,,,,,,,,,,,,,,,,,,,,,,,,"75","93",,,"+0.04","6","56","30.02","26","29.99","9.94","80","120",,"11",,,,,,,,,,,,,,,,,,,,,,,,,,,,,,,,,,,,,"SYN06472202 32566 61210 10339 20239 30156 40166 56012 92053 555 92921=","FM-12","4",,,,,,,,,,,,,,,,,,,,,,,,,,,,"2009-07-14"
"72202012839","2020-06-29T16:53:00","FM-15","7",,,,,,,,,,,,,,,,,,,,,,,,,,,,,,,,,,,,,,"30.00","74","91","0.00",,,,"57","30.00","FEW:02 38 FEW:02 70 BKN:07 250","29.97","10.00","79","100",,"8",,,,,,,,,,,,,,,,,,,,,,,,,,,,,,,,,,,,,"MET11306/29/20 16:53:02 METAR KMIA 292153Z 10007KT 10SM FEW038 FEW070 BKN250 33/23 A3000 RMK AO2 SLP160 T03280233 (RDR)","FM-15","7",,,,,,,,,,,,,,,,,,,,,,,,,,,,"2009-07-14"
"72202012839","2020-06-29T17:53:00","FM-15","7",,,,,,,,,,,,,,,,,,,,,,,,,,,,,,,,,,,,,,"30.01","71","89","0.00",,,,"55","30.01","FEW:02 32 SCT:04 45 SCT:04 130","29.98","10.00","76","130",,"7",,,,,,,,,,,,,,,,,,,,,,,,,,,,,,,,,,,,,"MET11306/29/20 17:53:02 METAR KMIA 292253Z 13006KT 10SM FEW032 SCT045 SCT130 32/22 A3001 RMK AO2 SLP162 T03170217 (RDR)","FM-15","7",,,,,,,,,,,,,,,,,,,,,,,,,,,,"2009-07-14"
"72202012839","2020-06-29T18:53:00","FM-15","7",,,,,,,,,,,,,,,,,,,,,,,,,,,,,,,,,,,,,,"30.02","74","87","0.00",,"+0.00","5","65","30.02","FEW:02 38 FEW:02 130 BKN:07 250","29.99","10.00","78","120",,"8",,,,,,,,,,,,,,,,,,,,,,,,,,,,,,,,,,,,,"MET13106/29/20 18:53:02 METAR KMIA 292353Z 12007KT 10SM FEW038 FEW130 BKN250 31/23 A3002 RMK AO2 SLP165 T03060233 10344 20306 55001 (RDR)","FM-15","7",,,,,,,,,,,,,,,,,,,,,,,,,,,,"2009-07-14"
"72202012839","2020-06-29T19:00:00","FM-12","4",,,,,,,,,,,,,,,,,,,,,,,,,,,,,,,,,,,,,,,"74","87",,,"+0.00","5","65","30.02","41","29.99","9.94","78","120",,"8",,,,,,,,,,,,,,,,,,,,,,,,,,,,,,,,,,,,,"SYN08072202 32666 61207 10306 20233 30156 40165 55001 92353 333 10344 20289 555 93000=","FM-12","4",,,,,,,,,,,,,,,,,,,,,,,,,,,,"2009-07-14"
"72202012839","2020-06-29T19:53:00","FM-15","7",,,,,,,,,,,,,,,,,,,,,,,,,,,,,,,,,,,,,,"30.03","74","86","0.00",,,,"67","30.02","FEW:02 70 BKN:07 250","30.00","10.00","78","140",,"7",,,,,,,,,,,,,,,,,,,,,,,,,,,,,,,,,,,,,"MET10606/29/20 19:53:03 METAR KMIA 300053Z 14006KT 10SM FEW070 BKN250 30/23 A3003 RMK AO2 SLP167 T03000233 (RDR)","FM-15","7",,,,,,,,,,,,,,,,,,,,,,,,,,,,"2009-07-14"
"72202012839","2020-06-29T20:53:00","FM-15","7",,,,,,,,,,,,,,,,,,,,,,,,,,,,,,,,,,,,,,"30.02","74","86","0.00",,,,"67","30.02","BKN:07 250","29.99","10.00","78","140",,"7",,,,,,,,,,,,,,,,,,,,,,,,,,,,,,,,,,,,,"MET09906/29/20 20:53:03 METAR KMIA 300153Z 14006KT 10SM BKN250 30/23 A3002 RMK AO2 SLP166 T03000233 (RDR)","FM-15","7",,,,,,,,,,,,,,,,,,,,,,,,,,,,"2009-07-14"
"72202012839","2020-06-29T21:53:00","FM-15","7",,,,,,,,,,,,,,,,,,,,,,,,,,,,,,,,,,,,,,"30.03","74","85","0.00",,"-0.01","1","70","30.02","SCT:04 250","30.00","10.00","77","140",,"5",,,,,,,,,,,,,,,,,,,,,,,,,,,,,,,,,,,,,"MET10406/29/20 21:53:03 METAR KMIA 300253Z 14004KT 10SM SCT250 29/23 A3003 RMK AO2 SLP167 T02940233 51003 (EM)","FM-15","7",,,,,,,,,,,,,,,,,,,,,,,,,,,,"2009-07-14"
"72202012839","2020-06-29T22:00:00","FM-12","4",,,,,,,,,,,,,,,,,,,,,,,,,,,,,,,,,,,,,,,"74","85",,,"-0.01","1","70","30.02",,"30.00","9.94","77","140",,"5",,,,,,,,,,,,,,,,,,,,,,,,,,,,,,,,,,,,,"SYN06472202 32966 41404 10294 20233 30159 40167 51003 90253 555 93003=","FM-12","4",,,,,,,,,,,,,,,,,,,,,,,,,,,,"2009-07-14"
"72202012839","2020-06-29T22:53:00","FM-15","7",,,,,,,,,,,,,,,,,,,,,,,,,,,,,,,,,,,,,,"30.04","73","85","0.00",,,,"68","30.03","FEW:02 40 FEW:02 250","30.01","10.00","77","000",,"0",,,,,,,,,,,,,,,,,,,,,,,,,,,,,,,,,,,,,"MET10506/29/20 22:53:03 METAR KMIA 300353Z 00000KT 10SM FEW040 FEW250 29/23 A3004 RMK AO2 SLP171 T02940228 (EM)","FM-15","7",,,,,,,,,,,,,,,,,,,,,,,,,,,,"2009-07-14"
"72202012839","2020-06-29T23:53:00","FM-15","7",,,,,,,,,,,,,,,,,,,,,,,,,,,,,,,,,,,,,,"30.03","74","85","0.00",,,,"70","30.03","FEW:02 35 SCT:04 250","30.00","10.00","77","000",,"0",,,,,,,,,,,,,,,,,,,,,,,,,,,,,,,,,,,,,"MET11506/29/20 23:53:03 METAR KMIA 300453Z 00000KT 10SM FEW035 SCT250 29/23 A3003 RMK AO2 SLP168 T02940233 403440289 (EM)","FM-15","7",,,,,,,,,,,,,,,,,,,,,,,,,,,,"2009-07-14"
"72202012839","2020-06-29T23:59:00","SOD  ","6",,,,,,,,,,,,,,,"75","89","65","30.03","30.00","79","5.5","24","5.6","0","94","84","130","21","0.00",,,"120","14","TS",,,,,,,,,,,,,,,,,,,,,,,,,,,,,,,,,,,,,,,,,,,,,,,,,,,,,,,,"SOD75624 HR PRECIPITATION (IN): 0.00 SNOW DEPTH (IN):0     24 HR SNOWFALL (IN):0.0  WEATHER(CODE):3  24 HR MAX TEMP (F): 9424 HR MIN TEMP (F): 84AVERAGE STATION PRESSURE:30.000 MINIMUM SEA LEVEL PRESSURE:30.00 TIME OF OCCURRENCE:1731 PEAK WIND SPEED (MPH): 21 PEAK WIND DIR (DEG):130 PEAK WIND TIME (LST):      FASTEST 2MIN SPEED (MPH): 14FASTEST 2MIN DIR (DEG):120 FASTEST 2MIN TIME (LST):     AVERAGE WIND SPEED (MPH): 5.5 24 HR AVG TEMP (F): 89DEPART FROM NORMAL:  6  HEATING DEGREE DAYS:  0 COOLING DEGREE DAYS: 24 LATEST DAY MAX TEMP (0700-1900 LST):94  LATEST NIGHT MIN TEMP(1900-0800 LST):84 HOURLY INCREMENTAL PRECIPITATION VALUES (IN):.00 0.00 0.00 0.00 0.00 0.00 0.00 0.00 0.00 0.00 0.00 0.00 0.00 0.00 0.00 0.00 0.00 0.00 0.00 0.00 0.00 0.00 0.00 0.00","SOD  ","6",,,,,,,,,,,,,,,,,,,,,,,,,"0533","1917",,"2009-07-14"
"72202012839","2020-06-30T00:53:00","FM-15","7",,,,,,,,,,,,,,,,,,,,,,,,,,,,,,,,,,,,,,"30.02","74","83","0.00",,"+0.01","8","74","30.01","FEW:02 35 SCT:04 250","29.99","10.00","77","000",,"0",,,,,,,,,,,,,,,,,,,,,,,,,,,,,,,,,,,,,"MET12306/30/20 00:53:02 METAR KMIA 300553Z 00000KT 10SM FEW035 SCT250 28/23 A3002 RMK AO2 SLP164 T02830233 10306 20283 58003 (EM)","FM-15","7",,,,,,,,,,,,,,,,,,,,,,,,,,,,"2009-07-14"
"72202012839","2020-06-30T01:00:00","FM-12","4",,,,,,,,,,,,,,,,,,,,,,,,,,,,,,,,,,,,,,,"74","83",,,"+0.01","8","74","30.01","41","29.99","9.94","77","000",,"0",,,,,,,,,,,,,,,,,,,,,,,,,,,,,,,,,,,,,"SYN08072202 32666 40000 10283 20233 30156 40164 58003 90553 333 10306 20283 555 93006=","FM-12","4",,,,,,,,,,,,,,,,,,,,,,,,,,,,"2009-07-14"
"72202012839","2020-06-30T01:53:00","FM-15","7",,,,,,,,,,,,,,,,,,,,,,,,,,,,,,,,,,,,,,"30.00","75","84","0.00",,,,"74","30.00","FEW:02 250","29.97","10.00","78","000",,"0",,,,,,,,,,,,,,,,,,,,,,,,,,,,,,,,,,,,,"MET09806/30/20 01:53:02 METAR KMIA 300653Z 00000KT 10SM FEW250 29/24 A3000 RMK AO2 SLP158 T02890239 (EM)","FM-15","7",,,,,,,,,,,,,,,,,,,,,,,,,,,,"2009-07-14"
"72202012839","2020-06-30T02:53:00","FM-15","7",,,,,,,,,,,,,,,,,,,,,,,,,,,,,,,,,,,,,,"29.98","75","84","0.00",,,,"74","29.98","FEW:02 24 SCT:04 250","29.95","10.00","78","000",,"0",,,,,,,,,,,,,,,,,,,,,,,,,,,,,,,,,,,,,"MET10506/30/20 02:53:02 METAR KMIA 300753Z 00000KT 10SM FEW024 SCT250 29/24 A2998 RMK AO2 SLP154 T02890239 (EM)","FM-15","7",,,,,,,,,,,,,,,,,,,,,,,,,,,,"2009-07-14"
"72202012839","2020-06-30T03:53:00","FM-15","7",,,,,,,,,,,,,,,,,,,,,,,,,,,,,,,,,,,,,,"29.98","75","82","0.00",,"+0.04","6","79","29.98","FEW:02 250","29.95","10.00","77","000",,"0",,,,,,,,,,,,,,,,,,,,,,,,,,,,,,,,,,,,,"MET10406/30/20 03:53:02 METAR KMIA 300853Z 00000KT 10SM FEW250 28/24 A2998 RMK AO2 SLP152 T02780239 56013 (EM)","FM-15","7",,,,,,,,,,,,,,,,,,,,,,,,,,,,"2009-07-14"
"72202012839","2020-06-30T04:00:00","FM-12","4",,,,,,,,,,,,,,,,,,,,,,,,,,,,,,,,,,,,,,,"75","82",,,"+0.04","6","79","29.98",,"29.95","9.94","77","000",,"0",,,,,,,,,,,,,,,,,,,,,,,,,,,,,,,,,,,,,"SYN06472202 32966 20000 10278 20239 30142 40152 56013 90853 555 93009=","FM-12","4",,,,,,,,,,,,,,,,,,,,,,,,,,,,"2009-07-14"
"72202012839","2020-06-30T04:53:00","FM-15","7",,,,,,,,,,,,,,,,,,,,,,,,,,,,,,,,,,,,,,"29.98","75","81","0.00",,,,"82","29.98","FEW:02 250","29.95","10.00","77","000",,"0",,,,,,,,,,,,,,,,,,,,,,,,,,,,,,,,,,,,,"MET09806/30/20 04:53:02 METAR KMIA 300953Z 00000KT 10SM FEW250 27/24 A2998 RMK AO2 SLP154 T02720239 (EM)","FM-15","7",,,,,,,,,,,,,,,,,,,,,,,,,,,,"2009-07-14"
"72202012839","2020-06-30T05:53:00","FM-15","7",,,,,,,,,,,,,,,,,,,,,,,,,,,,,,,,,,,,,,"30.00","75","82","0.00",,,,"79","30.00","FEW:02 250","29.97","10.00","77","200",,"3",,,,,,,,,,,,,,,,,,,,,,,,,,,,,,,,,,,,,"MET09906/30/20 05:53:02 METAR KMIA 301053Z 20003KT 10SM FEW250 28/24 A3000 RMK AO2 SLP159 T02780239 (RLW)","FM-15","7",,,,,,,,,,,,,,,,,,,,,,,,,,,,"2009-07-14"
"72202012839","2020-06-30T06:53:00","FM-15","7",,,,,,,,,,,,,,,,,,,,,,,,,,,,,,,,,,,,,,"30.02","76","84","0.00",,"-0.04","3","77","30.02","FEW:02 250","29.99","10.00","78","000",,"0",,,,,,,,,,,,,,,,,,,,,,,,,,,,,,,,,,,,,"MET11706/30/20 06:53:02 METAR KMIA 301153Z 00000KT 10SM FEW250 29/24 A3002 RMK AO2 SLP166 T02890244 10289 20267 53014 (RLW)","FM-15","7",,,,,,,,,,,,,,,,,,,,,,,,,,,,"2009-07-14"
"72202012839","2020-06-30T07:00:00","FM-12","4",,,,,,,,,,,,,,,,,,,,,,,,,,,,,,,,,,,,,,,"76","84",,,"-0.04","3","77","30.02",,"29.99","9.94","78","000",,"0",,,,,,,,,,,,,,,,,,,,,,,,,,,,,,,,,,,,,"SYN08072202 32966 20000 10289 20244 30156 40166 53014 91153 333 10344 20267 555 93012=","FM-12","4",,,,,,,,,,,,,,,,,,,,,,,,,,,,"2009-07-14"
"72202012839","2020-06-30T07:53:00","FM-15","7",,,,,,,,,,,,,,,,,,,,,,,,,,,,,,,,,,,,,,"30.04","72","87","0.00",,,,"61","30.04","FEW:02 25 FEW:02 250","30.01","10.00","77","270",,"5",,,,,,,,,,,,,,,,,,,,,,,,,,,,,,,,,,,,,"MET10606/30/20 07:53:02 METAR KMIA 301253Z 27004KT 10SM FEW025 FEW250 31/22 A3004 RMK AO2 SLP172 T03060222 (RLW)","FM-15","7",,,,,,,,,,,,,,,,,,,,,,,,,,,,"2009-07-14"
"72202012839","2020-06-30T08:53:00","FM-15","7",,,,,,,,,,,,,,,,,,,,,,,,,,,,,,,,,,,,,,"30.04","70","89","0.00",,,,"53","30.04","FEW:02 30 FEW:02 250","30.01","10.00","76","VRB",,"3",,,,,,,,,,,,,,,,,,,,,,,,,,,,,,,,,,,,,"MET10606/30/20 08:53:02 METAR KMIA 301353Z VRB03KT 10SM FEW030 FEW250 32/21 A3004 RMK AO2 SLP172 T03170211 (RLW)","FM-15","7",,,,,,,,,,,,,,,,,,,,,,,,,,,,"2009-07-14"
"72202012839","2020-06-30T09:53:00","FM-15","7",,,,,,,,,,,,,,,,,,,,,,,,,,,,,,,,,,,,,,"30.04","72","91","0.00",,"-0.02","1","54","30.04","FEW:02 37 FEW:02 250","30.01","10.00","78","VRB",,"6",,,,,,,,,,,,,,,,,,,,,,,,,,,,,,,,,,,,,"MET11206/30/20 09:53:02 METAR KMIA 301453Z VRB05KT 10SM FEW037 FEW250 33/22 A3004 RMK AO2 SLP173 T03280222 51007 (RLW)","FM-15","7",,,,,,,,,,,,,,,,,,,,,,,,,,,,"2009-07-14"
"72202012839","2020-06-30T10:00:00","FM-12","4",,,,,,,,,,,,,,,,,,,,,,,,,,,,,,,,,,,,,,,"72","91",,,"-0.02","1","54","30.04","41","30.01","9.94","78",,,"6",,,,,,,,,,,,,,,,,,,,,,,,,,,,,,,,,,,,,"SYN06472202 32666 2//05 10328 20222 30163 40173 51007 91453 555 93015=","FM-12","4",,,,,,,,,,,,,,,,,,,,,,,,,,,,"2009-07-14"
"72202012839","2020-06-30T10:53:00","FM-15","7",,,,,,,,,,,,,,,,,,,,,,,,,,,,,,,,,,,,,,"30.03","71","92","0.00",,,,"51","30.03","SCT:04 40 SCT:04 250","30.00","10.00","77","150",,"3",,,,,,,,,,,,,,,,,,,,,,,,,,,,,,,,,,,,,"MET10606/30/20 10:53:02 METAR KMIA 301553Z 15003KT 10SM SCT040 SCT250 33/22 A3003 RMK AO2 SLP171 T03330217 (RLW)","FM-15","7",,,,,,,,,,,,,,,,,,,,,,,,,,,,"2009-07-14"
"72202012839","2020-06-30T11:53:00","FM-15","7",,,,,,,,,,,,,,,,,,,,,,,,,,,,,,,,,,,,,,"30.03","69","94","0.00",,,,"44","30.03","FEW:02 42 SCT:04 50 SCT:04 180","30.00","10.00","77","070",,"3",,,,,,,,,,,,,,,,,,,,,,,,,,,,,,,,,,,,,"MET11306/30/20 11:53:02 METAR KMIA 301653Z 07003KT 10SM FEW042 SCT050 SCT180 34/21 A3003 RMK AO2 SLP168 T03440206 (RLW)","FM-15","7",,,,,,,,,,,,,,,,,,,,,,,,,,,,"2009-07-14"
"72202012839","2020-06-30T12:53:00","FM-15","7",,,,,,,,,,,,,,,,,,,,,,,,,,,,,,,,,,,,,,"30.01","69","97","0.00",,"+0.03","8","40","30.01","FEW:02 50","29.98","10.00","77","VRB",,"7",,,,,,,,,,,,,,,,,,,,,,,,,,,,,,,,,,,,,"MET11706/30/20 12:53:02 METAR KMIA 301753Z VRB06KT 10SM FEW050 36/21 A3001 RMK AO2 SLP162 T03610206 10361 20289 58011 (RLW)","FM-15","7",,,,,,,,,,,,,,,,,,,,,,,,,,,,"2009-07-14"
"72202012839","2020-06-30T13:00:00","FM-12","4",,,,,,,,,,,,,,,,,,,,,,,,,,,,,,,,,,,,,,,"69","97",,,"+0.03","8","40","30.01","57","29.98","9.94","77",,,"7",,,,,,,,,,,,,,,,,,,,,,,,,,,,,,,,,,,,,"SYN08072202 32766 2//06 10361 20206 30152 40162 58011 91753 333 10361 20289 555 93018=","FM-12","4",,,,,,,,,,,,,,,,,,,,,,,,,,,,"2009-07-14"
"72202012839","2020-06-30T13:53:00","FM-15","7",,,,,,,,,,,,,,,,,,,,,,,,,,,,,,,,,,,,,,"30.00","68","97","0.00",,,,"39","30.00","SCT:04 60 SCT:04 300","29.97","10.00","77","VRB",,"5",,,,,,,,,,,,,,,,,,,,,,,,,,,,,,,,,,,,,"MET10606/30/20 13:53:02 METAR KMIA 301853Z VRB04KT 10SM SCT060 SCT300 36/20 A3000 RMK AO2 SLP159 T03610200 (RDR)","FM-15","7",,,,,,,,,,,,,,,,,,,,,,,,,,,,"2009-07-14"
"72202012839","2020-06-30T14:53:00","FM-15","7",,,,,,,,,,,,,,,,,,,,,,,,,,,,,,,,,,,,,,"29.98","74","94","0.00",,,,"52","29.98","SCT:04 60 SCT:04 300","29.95","10.00","80","130",,"11",,,,,,,,,,,,,,,,,,,,,,,,,,,,,,,,,,,,,"MET12906/30/20 14:53:02 METAR KMIA 301953Z 13010KT 10SM SCT060 SCT300 34/23 A2998 RMK AO2 LTG DSNT SW SLP151 CB DSNT SW T03440233 (RDR)","FM-15","7",,,,,,,,,,,,,,,,,,,,,,,,,,,,"2009-07-14"
"72202012839","2020-06-30T15:53:00","FM-15","7",,,,,,,,,,,,,,,,,,,,,,,,,,,,,,,,,,,,,,"29.97","74","93","0.00",,"+0.04","6","54","29.97","FEW:02 40 SCT:04 250","29.94","10.00","79","140",,"9",,,,,,,,,,,,,,,,,,,,,,,,,,,,,,,,,,,,,"MET12306/30/20 15:53:02 METAR KMIA 302053Z 14008KT 10SM FEW040 SCT250 34/23 A2997 RMK AO2 SLP149 TCU DSNT W T03390233 56014 (RDR)","FM-15","7",,,,,,,,,,,,,,,,,,,,,,,,,,,,"2009-07-14"
"72202012839","2020-06-30T16:00:00","FM-12","4",,,,,,,,,,,,,,,,,,,,,,,,,,,,,,,,,,,,,,,"74","93",,,"+0.04","6","54","29.97","41","29.94","9.94","79","140",,"9",,,,,,,,,,,,,,,,,,,,,,,,,,,,,,,,,,,,,"SYN06472202 32666 41408 10339 20233 30139 40149 56014 92053 555 93021=","FM-12","4",,,,,,,,,,,,,,,,,,,,,,,,,,,,"2009-07-14"
"72202012839","2020-06-30T16:53:00","FM-15","7",,,,,,,,,,,,,,,,,,,,,,,,,,,,,,,,,,,,,,"29.96","75","91","0.00",,,,"59","29.96","FEW:02 36 FEW:02 250","29.93","10.00","79","120","22","13",,,,,,,,,,,,,,,,,,,,,,,,,,,,,,,,,,,,,"MET13006/30/20 16:53:02 METAR KMIA 302153Z 12011G19KT 10SM FEW036 FEW250 33/24 A2996 RMK AO2 LTG DSNT W SLP145 CB DSNT W T03280239 (RDR)","FM-15","7",,,,,,,,,,,,,,,,,,,,,,,,,,,,"2009-07-14"
"72202012839","2020-06-30T17:53:00","FM-15","7",,,,,,,,,,,,,,,,,,,,,,,,,,,,,,,,,,,,,,"29.96","75","90","0.00",,,,"62","29.96","FEW:02 34 FEW:02 250","29.93","10.00","79","150",,"9",,,,,,,,,,,,,,,,,,,,,,,,,,,,,,,,,,,,,"MET12906/30/20 17:53:02 METAR KMIA 302253Z 15008KT 10SM FEW034 FEW250 32/24 A2996 RMK AO2 LTG DSNT NW SLP146 CB DSNT NW T03220239 (RDR)","FM-15","7",,,,,,,,,,,,,,,,,,,,,,,,,,,,"2009-07-14"
"72202012839","2020-06-30T18:16:00","FM-16","7",,,,,,,,,,,,,,,,,,,,,,,,,,,,,,,,,,,,,,"29.96","74","88",,"VCTS:7 ||",,,"63",,"FEW:02 34 FEW:02 250","29.93","10.00","78","140","22","10",,,,,,,,,,,,,,,,,,,,,,,,,,,,,,,,,,,,,"MET13006/30/20 18:16:02 SPECI KMIA 302316Z 14009G19KT 10SM VCTS FEW034 FEW250 31/23 A2996 RMK AO2 LTG DSNT NW CB DSNT NW T03110233 (RDR)","FM-16","7",,,,,,,,,,,,,,,,,,,,,,,,,,,,"2009-07-14"
"72202012839","2020-06-30T18:53:00","FM-15","7",,,,,,,,,,,,,,,,,,,,,,,,,,,,,,,,,,,,,,"29.97","74","88","0.00","VCTS:7 ||","+0.00","5","63","29.97","FEW:02 32 SCT:04 250","29.94","10.00","78","150",,"9",,,,,,,,,,,,,,,,,,,,,,,,,,,,,,,,,,,,,"MET14006/30/20 18:53:02 METAR KMIA 302353Z 15008KT 10SM VCTS FEW032 SCT250 31/23 A2997 RMK AO2 SLP148 CB DSNT NW T03110233 10367 20311 55001 (RDR)","FM-15","7",,,,,,,,,,,,,,,,,,,,,,,,,,,,"2009-07-14"
"72202012839","2020-06-30T19:00:00","FM-12","4",,,,,,,,,,,,,,,,,,,,,,,,,,,,,,,,,,,,,,,"74","88",,"||TS","+0.00","5","63","29.97","26","29.94","9.94","78","150",,"9",,,,,,,,,,,,,,,,,,,,,,,,,,,,,,,,,,,,,"SYN08672202 31566 41508 10311 20233 30139 40148 55001 717// 92353 333 10367 20289 555 90100=","FM-12","4",,,,,,,,,,,,,,,,,,,,,,,,,,,,"2009-07-14"
"72202012839","2020-06-30T19:08:00","FM-16","7",,,,,,,,,,,,,,,,,,,,,,,,,,,,,,,,,,,,,,"29.97","74","88",,,,,"63",,"FEW:02 32 SCT:04 250","29.94","10.00","78","150",,"10",,,,,,,,,,,,,,,,,,,,,,,,,,,,,,,,,,,,,"MET11006/30/20 19:08:03 SPECI KMIA 010008Z 15009KT 10SM FEW032 SCT250 31/23 A2997 RMK AO2 CB DSNT NW T03110233 (RDR)","FM-16","7",,,,,,,,,,,,,,,,,,,,,,,,,,,,"2009-07-14"
"72202012839","2020-06-30T19:53:00","FM-15","7",,,,,,,,,,,,,,,,,,,,,,,,,,,,,,,,,,,,,,"29.99","74","88","0.00",,,,"63","29.98","SCT:04 32 SCT:04 250","29.96","10.00","78","160",,"8",,,,,,,,,,,,,,,,,,,,,,,,,,,,,,,,,,,,,"MET10606/30/20 19:53:03 METAR KMIA 010053Z 16007KT 10SM SCT032 SCT250 31/23 A2999 RMK AO2 SLP154 T03110233 (RDR)","FM-15","7",,,,,,,,,,,,,,,,,,,,,,,,,,,,"2009-07-14"
"72202012839","2020-06-30T20:53:00","FM-15","7",,,,,,,,,,,,,,,,,,,,,,,,,,,,,,,,,,,,,,"30.00","74","88","0.00",,,,"63","30.00","BKN:07 37 BKN:07 45 BKN:07 250","29.97","10.00","78","200",,"7",,,,,,,,,,,,,,,,,,,,,,,,,,,,,,,,,,,,,"MET11306/30/20 20:53:03 METAR KMIA 010153Z 20006KT 10SM BKN037 BKN045 BKN250 31/23 A3000 RMK AO2 SLP160 T03110233 (RDR)","FM-15","7",,,,,,,,,,,,,,,,,,,,,,,,,,,,"2009-07-14"
"72202012839","2020-06-30T21:15:00","FM-16","7",,,,,,,,,,,,,,,,,,,,,,,,,,,,,,,,,,,,,,"30.01","74","87",,"VCTS:7 ||",,,"65",,"SCT:04 37 BKN:07 48 BKN:07 250","29.98","10.00","78","200",,"6",,,,,,,,,,,,,,,,,,,,,,,,,,,,,,,,,,,,,"MET17206/30/20 21:15:03 SPECI KMIA 010215Z 20005KT 10SM VCTS SCT037 BKN048 BKN250 31/23 A3001 RMK AO2 LTG DSNT N AND NW OCNL LTGICCC DSNT N AND NW CB DSNT N AND NW T03060233 (AM)","FM-16","7",,,,,,,,,,,,,,,,,,,,,,,,,,,,"2009-07-14"
"72202012839","2020-06-30T21:37:00","FM-16","7",,,,,,,,,,,,,,,,,,,,,,,,,,,,,,,,,,,,,,"30.02","74","87",,"TS:7 |TS TS |",,,"65",,"SCT:04 37 BKN:07 45","29.99","10.00","78","210",,"7",,,,,,,,,,,,,,,,,,,,,,,,,,,,,,,,,,,,,"MET17106/30/20 21:37:03 SPECI KMIA 010237Z 21006KT 10SM TS SCT037CB BKN045 BKN1 31/23 A3002 RMK AO2 LTG DSNT N AND NW TSB31 FRQ LTGICCG N AND NW TS N AND NW MOV E T03060233 (AM)","FM-16","7",,,,,,,,,,,,,,,,,,,,,,,,,,,,"2009-07-14"
"72202012839","2020-06-30T21:53:00","FM-15","7",,,,,,,,,,,,,,,,,,,,,,,,,,,,,,,,,,,,,,"30.02","74","87","0.00","TS:7 |TS TS |","-0.06","3","65","30.02","SCT:04 34 BKN:07 45","29.99","10.00","78","210",,"7",,,,,,,,,,,,,,,,,,,,,,,,,,,,,,,,,,,,,"MET20306/30/20 21:53:03 METAR KMIA 010253Z 21006KT 10SM TS SCT034CB BKN045 BKN1 31/23 A3002 RMK AO2 LTG DSNT N AND W TSB31E46B47 SLP167 FRQ LTGICCG W-NW AND DSNT N TS W-NW MOV E CB DSNT N MOV E T03060233 53019","FM-15","7",,,,,,,,,,,,,,,,,,,,,,,,,,,,"2009-07-14"
"72202012839","2020-06-30T22:00:00","FM-12","4",,,,,,,,,,,,,,,,,,,,,,,,,,,,,,,,,,,,,,,"74","87",,"||TS","-0.06","3","65","30.02","41","29.99","9.94","78","210",,"7",,,,,,,,,,,,,,,,,,,,,,,,,,,,,,,,,,,,,"SYN07072202 31666 62106 10306 20233 30156 40167 53019 795// 90253 555 90103=","FM-12","4",,,,,,,,,,,,,,,,,,,,,,,,,,,,"2009-07-14"
"72202012839","2020-06-30T22:31:00","FM-16","7",,,,,,,,,,,,,,,,,,,,,,,,,,,,,,,,,,,,,,"30.01","73","86",,,,,"65",,"SCT:04 30 BKN:07 55 BKN:07 120","29.98","10.00","77","000",,"0",,,,,,,,,,,,,,,,,,,,,,,,,,,,,,,,,,,,,"MET11106/30/20 22:31:03 SPECI KMIA 010331Z 00000KT 10SM SCT030 BKN055 BKN120 30/23 A3001 RMK AO2 TSE31 T03000228 (AM)","FM-16","7",,,,,,,,,,,,,,,,,,,,,,,,,,,,"2009-07-14"
"72202012839","2020-06-30T22:53:00","FM-15","7",,,,,,,,,,,,,,,,,,,,,,,,,,,,,,,,,,,,,,"30.01","74","85","0.00",,,,"70","30.01","FEW:02 28 SCT:04 70 SCT:04 120","29.98","10.00","77","230",,"5",,,,,,,,,,,,,,,,,,,,,,,,,,,,,,,,,,,,,"MET11806/30/20 22:53:03 METAR KMIA 010353Z 23004KT 10SM FEW028 SCT070 SCT120 29/23 A3001 RMK AO2 TSE31 SLP161 T02940233 (AM)","FM-15","7",,,,,,,,,,,,,,,,,,,,,,,,,,,,"2009-07-14"
"72202012839","2020-06-30T23:53:00","FM-15","7",,,,,,,,,,,,,,,,,,,,,,,,,,,,,,,,,,,,,,"29.99","76","85","0.00",,,,"75","29.99","FEW:02 23 FEW:02 250","29.96","10.00","79","000",,"0",,,,,,,,,,,,,,,,,,,,,,,,,,,,,,,,,,,,,"MET11506/30/20 23:53:03 METAR KMIA 010453Z 00000KT 10SM FEW023 FEW250 29/24 A2999 RMK AO2 SLP157 T02940244 403670267 (AM)","FM-15","7",,,,,,,,,,,,,,,,,,,,,,,,,,,,"2009-07-14"
"72202012839","2020-06-30T23:59:00","SOD  ","6",,,,,,,,,,,,,,,,"89",,,"29.96",,"4.8","24","5.6","0","98","80","130","22","0.00",,,"120","16","TS",,,,,,,,,,,,,,,,,,,,,,,,,,,,,,,,,,,,,,,,,,,,,,,,,,,,,,,,"SOD75624 HR PRECIPITATION (IN): 0.00 SNOW DEPTH (IN):0     24 HR SNOWFALL (IN):0.0  WEATHER(CODE):3  24 HR MAX TEMP (F): 9824 HR MIN TEMP (F): 80AVERAGE STATION PRESSURE:29.965 MINIMUM SEA LEVEL PRESSURE:29.95 TIME OF OCCURRENCE:1724 PEAK WIND SPEED (MPH): 22 PEAK WIND DIR (DEG):130 PEAK WIND TIME (LST):      FASTEST 2MIN SPEED (MPH): 16FASTEST 2MIN DIR (DEG):120 FASTEST 2MIN TIME (LST):     AVERAGE WIND SPEED (MPH): 4.8 24 HR AVG TEMP (F): 89DEPART FROM NORMAL:  6  HEATING DEGREE DAYS:  0 COOLING DEGREE DAYS: 24 LATEST DAY MAX TEMP (0700-1900 LST):98  LATEST NIGHT MIN TEMP(1900-0800 LST):80 HOURLY INCREMENTAL PRECIPITATION VALUES (IN):.00 0.00 0.00 0.00 0.00 0.00 0.00 0.00 0.00 0.00 0.00 0.00 0.00 0.00 0.00 0.00 0.00 0.00 0.00 0.00 0.00 0.00 0.00 0.00","SOD  ","6",,,,,,,,,,,,,,,,,,,,,,,,,"0533","1917",,"2009-07-14"
"72202012839","2020-06-30T23:59:00","SOM  ","6","7.4",,,,,,,,,,,"2384","582","0",,,,,,,,,,,,,,,,,,,,,"46","0",,,,,,,,,,,,,,,,,,,"13","10","0","17","0","0","1.7","50","0","0.9","2.4","-2.56",,"1.87","03-04",,,,,"30.18","26","1117","90.4","84.4","29.90","13","1706","78.4","30.02","29.99","7.11",,,"532","0","SOM792PCP MTOT:7.11 PCP GT 24HRS:1.87 DATE(S):3-4 DAYS W/PCP >=.01:13 DAYS W/PCP >=.10:10 DAYS W/ PCP >=.50:6 DAYS W/PCP >=1.00:3 MSDP AMTS W/DATE-TIME TAGS:MIN:5 0.35  03/0908 MIN:10 0.55  04/0347 MIN:15 0.69  04/0352 MIN:20 0.81  04/0356 MIN:30 0.92  04/0403 MIN:45 0.94  04/0411 MIN:60 0.98  19/1912 MIN:80 1.04  04/0454 MIN:100 1.07  04/0506 MIN:120 1.08  04/0528 MIN:150 1.08  04/0528 MIN:180 1.08  04/0528 AVG DLY MIN:78.5  AVG DLY MAX:90.8  AVG MLY TMP:84.7  MIN TMP:71 DATE(S):04 MAX TMP:98  DATE(S):30 DAYS MAX <=32:0 DAYS MAX >=90:19 DAYS MIN <=32:0  DAYS MIN  <=0:0  AVG STP:29.990 LWST SLP:29.90 DATE/TIME:131706 HGST SLP:30.18 DATE/TIME:261117 HDD MTH TOT:0 DEP NORM:-2553 SEASON(JUL 1-JUN 30):42 DEP NORM:-25536 CDD MTH TOT:597 DEP NORM:-2553 SEASON(JAN 1-DEC 31):2417 DEP NORM:-25536","SOM  ","6","2020-06-03 09:08","2020-06-04 03:47","2020-06-04 03:52","2020-06-04 03:56","2020-06-04 04:03","2020-06-04 04:11","2020-06-19 19:12","2020-06-04 04:54","2020-06-04 05:06","2020-06-04 05:28","2020-06-04 05:28","2020-06-04 05:28","0.35","0.55","0.69","0.81","0.92","0.94","0.98","1.04","1.07","1.08","1.08","1.08",,,,"2009-07-14"
