"STATION","DATE","REPORT_TYPE","SOURCE","AWND","BackupDirection","BackupDistance","BackupDistanceUnit","BackupElements","BackupElevation","BackupElevationUnit","BackupEquipment","BackupLatitude","BackupLongitude","BackupName","CDSD","CLDD","DSNW","DailyAverageDewPointTemperature","DailyAverageDryBulbTemperature","DailyAverageRelativeHumidity","DailyAverageSeaLevelPressure","DailyAverageStationPressure","DailyAverageWetBulbTemperature","DailyAverageWindSpeed","DailyCoolingDegreeDays","DailyDepartureFromNormalAverageTemperature","DailyHeatingDegreeDays","DailyMaximumDryBulbTemperature","DailyMinimumDryBulbTemperature","DailyPeakWindDirection","DailyPeakWindSpeed","DailyPrecipitation","DailySnowDepth","DailySnowfall","DailySustainedWindDirection","DailySustainedWindSpeed","DailyWeather","HDSD","HTDD","HeavyFog","HourlyAltimeterSetting","HourlyDewPointTemperature","HourlyDryBulbTemperature","HourlyPrecipitation","HourlyPresentWeatherType","HourlyPressureChange","HourlyPressureTendency","HourlyRelativeHumidity","HourlySeaLevelPressure","HourlySkyConditions","HourlyStationPressure","HourlyVisibility","HourlyWetBulbTemperature","HourlyWindDirection","HourlyWindGustSpeed","HourlyWindSpeed","MonthlyAverageRH","MonthlyDaysWithGT001Precip","MonthlyDaysWithGT010Precip","MonthlyDaysWithGT32Temp","MonthlyDaysWithGT90Temp","MonthlyDaysWithLT0Temp","MonthlyDaysWithLT32Temp","MonthlyDepartureFromNormalAverageTemperature","MonthlyDepartureFromNormalCoolingDegreeDays","MonthlyDepartureFromNormalHeatingDegreeDays","MonthlyDepartureFromNormalMaximumTemperature","MonthlyDepartureFromNormalMinimumTemperature","MonthlyDepartureFromNormalPrecipitation","MonthlyDewpointTemperature","MonthlyGreatestPrecip","MonthlyGreatestPrecipDate","MonthlyGreatestSnowDepth","MonthlyGreatestSnowDepthDate","MonthlyGreatestSnowfall","MonthlyGreatestSnowfallDate","MonthlyMaxSeaLevelPressureValue","MonthlyMaxSeaLevelPressureValueDate","MonthlyMaxSeaLevelPressureValueTime","MonthlyMaximumTemperature","MonthlyMeanTemperature","MonthlyMinSeaLevelPressureValue","MonthlyMinSeaLevelPressureValueDate","MonthlyMinSeaLevelPressureValueTime","MonthlyMinimumTemperature","MonthlySeaLevelPressure","MonthlyStationPressure","MonthlyTotalLiquidPrecipitation","MonthlyTotalSnowfall","MonthlyWetBulb","NormalsCoolingDegreeDay","NormalsHeatingDegreeDay","REM","REPORT_TYPE","SOURCE","ShortDurationEndDate005","ShortDurationEndDate010","ShortDurationEndDate015","ShortDurationEndDate020","ShortDurationEndDate030","ShortDurationEndDate045","ShortDurationEndDate060","ShortDurationEndDate080","ShortDurationEndDate100","ShortDurationEndDate120","ShortDurationEndDate150","ShortDurationEndDate180","ShortDurationPrecipitationValue005","ShortDurationPrecipitationValue010","ShortDurationPrecipitationValue015","ShortDurationPrecipitationValue020","ShortDurationPrecipitationValue030","ShortDurationPrecipitationValue045","ShortDurationPrecipitationValue060","ShortDurationPrecipitationValue080","ShortDurationPrecipitationValue100","ShortDurationPrecipitationValue120","ShortDurationPrecipitationValue150","ShortDurationPrecipitationValue180","Sunrise","Sunset","TStorms","WindEquipmentChangeDate"
"72295023174","2020-05-10T00:53:00","FM-15","7",,,,,,,,,,,,,,,,,,,,,,,,,,,,,,,,,,,,,,"29.93","57","63","0.00",,"+0.00","5","81","29.92","OVC:08 7","29.58","10.00","60","270",,"8",,,,,,,,,,,,,,,,,,,,,,,,,,,,,,,,,,,,,"MET10405/10/20 00:53:02 METAR KLAX 100853Z 27007KT 10SM OVC007 17/14 A2993 RMK AO2 SLP132 T01720139 55001 (RA)","FM-15","7",,,,,,,,,,,,,,,,,,,,,,,,,,,,
"72295023174","2020-05-10T01:53:00","FM-15","7",,,,,,,,,,,,,,,,,,,,,,,,,,,,,,,,,,,,,,"29.92","57","64","0.00",,,,"78","29.91","OVC:08 8","29.57","10.00","60","250",,"8",,,,,,,,,,,,,,,,,,,,,,,,,,,,,,,,,,,,,"MET09805/10/20 01:53:02 METAR KLAX 100953Z 25007KT 10SM OVC008 18/14 A2992 RMK AO2 SLP130 T01780139 (RA)","FM-15","7",,,,,,,,,,,,,,,,,,,,,,,,,,,,
"72295023174","2020-05-10T02:53:00","FM-15","7",,,,,,,,,,,,,,,,,,,,,,,,,,,,,,,,,,,,,,"29.93","57","64","0.00",,,,"78","29.93","OVC:08 8","29.58","9.00","60","240",,"7",,,,,,,,,,,,,,,,,,,,,,,,,,,,,,,,,,,,,"MET09705/10/20 02:53:02 METAR KLAX 101053Z 24006KT 9SM OVC008 18/14 A2993 RMK AO2 SLP134 T01780139 (RA)","FM-15","7",,,,,,,,,,,,,,,,,,,,,,,,,,,,
"72295023174","2020-05-10T03:53:00","FM-15","7",,,,,,,,,,,,,,,,,,,,,,,,,,,,,,,,,,,,,,"29.94","57","63","0.00",,"-0.01","3","81","29.93","OVC:08 8","29.59","7.00","60","270",,"7",,,,,,,,,,,,,,,,,,,,,,,,,,,,,,,,,,,,,"MET11505/10/20 03:53:02 METAR KLAX 101153Z 27006KT 7SM OVC008 17/14 A2994 RMK AO2 SLP136 T01720139 10183 20172 53004 (RA)","FM-15","7",,,,,,,,,,,,,,,,,,,,,,,,,,,,
"72295023174","2020-05-10T04:00:00","FM-12","4",,,,,,,,,,,,,,,,,,,,,,,,,,,,,,,,,,,,,,,"57","63",,,"-0.01","3","81","29.93","8",,"6.84",,"270",,"7",,,,,,,,,,,,,,,,,,,,,,,,,,,,,,,,,,,,,"SYN08072295 32361 82706 10172 20139 30083 40136 53004 91153 333 10233 20172 555 91012=","FM-12","4",,,,,,,,,,,,,,,,,,,,,,,,,,,,
"72295023174","2020-05-10T04:53:00","FM-15","7",,,,,,,,,,,,,,,,,,,,,,,,,,,,,,,,,,,,,,"29.95","59","63","T","BR:1 ||",,,"87","29.94","OVC:08 6","29.60","3.00","61","260",,"5",,,,,,,,,,,,,,,,,,,,,,,,,,,,,,,,,,,,,"MET11505/10/20 04:53:02 METAR KLAX 101253Z 26004KT 3SM BR OVC006 17/15 A2995 RMK AO2 RAB27E36 SLP138 P0000 T01720150 (RA)","FM-15","7",,,,,,,,,,,,,,,,,,,,,,,,,,,,
"72295023174","2020-05-10T05:53:00","FM-15","7",,,,,,,,,,,,,,,,,,,,,,,,,,,,,,,,,,,,,,"29.96","59","63","T","-DZ:01 BR:1 |DZ |DZ",,,"87","29.96","OVC:08 6","29.61","3.00","61","300",,"5",,,,,,,,,,,,,,,,,,,,,,,,,,,,,,,,,,,,,"MET11605/10/20 05:53:02 METAR KLAX 101353Z 30004KT 3SM -DZ BR OVC006 17/15 A2996 RMK AO2 DZB22 SLP144 P0000 T01720150 (RD)","FM-15","7",,,,,,,,,,,,,,,,,,,,,,,,,,,,
"72295023174","2020-05-10T06:53:00","FM-15","7",,,,,,,,,,,,,,,,,,,,,,,,,,,,,,,,,,,,,,"29.98","58","64","T","HZ:7 |FU |HZ","-0.04","3","81","29.97","BKN:07 8 OVC:08 16","29.63","6.00","60","240",,"6",,,,,,,,,,,,,,,,,,,,,,,,,,,,,,,,,,,,,"MET13105/10/20 06:53:02 METAR KLAX 101453Z 24005KT 6SM HZ BKN008 OVC016 18/14 A2998 RMK AO2 DZE40 SLP149 P0000 60000 T01780144 53013 (RD)","FM-15","7",,,,,,,,,,,,,,,,,,,,,,,,,,,,
"72295023174","2020-05-10T07:16:00","FM-16","7",,,,,,,,,,,,,,,,,,,,,,,,,,,,,,,,,,,,,,"29.98","58","64",,,,,"81",,"SCT:04 9 OVC:08 16","29.63","7.00","60","250",,"7",,,,,,,,,,,,,,,,,,,,,,,,,,,,,,,,,,,,,"MET09705/10/20 07:16:02 SPECI KLAX 101516Z 25006KT 7SM SCT009 OVC016 18/14 A2998 RMK AO2 T01780144 (RD)","FM-16","7",,,,,,,,,,,,,,,,,,,,,,,,,,,,
"72295023174","2020-05-10T07:53:00","FM-15","7",,,,,,,,,,,,,,,,,,,,,,,,,,,,,,,,,,,,,,"29.99","57","65","0.00",,,,"76","29.98","FEW:02 9 OVC:08 16","29.64","8.00","60","260",,"6",,,,,,,,,,,,,,,,,,,,,,,,,,,,,,,,,,,,,"MET10405/10/20 07:53:02 METAR KLAX 101553Z 26005KT 8SM FEW009 OVC016 18/14 A2999 RMK AO2 SLP152 T01830139 (RD)","FM-15","7",,,,,,,,,,,,,,,,,,,,,,,,,,,,
"72295023174","2020-05-10T08:53:00","FM-15","7",,,,,,,,,,,,,,,,,,,,,,,,,,,,,,,,,,,,,,"30.00","57","65","0.00",,,,"76","29.99","FEW:02 9 OVC:08 15","29.65","8.00","60","260",,"9",,,,,,,,,,,,,,,,,,,,,,,,,,,,,,,,,,,,,"MET10405/10/20 08:53:02 METAR KLAX 101653Z 26008KT 8SM FEW009 OVC015 18/14 A3000 RMK AO2 SLP155 T01830139 (RD)","FM-15","7",,,,,,,,,,,,,,,,,,,,,,,,,,,,
"72295023174","2020-05-10T09:14:00","FM-16","7",,,,,,,,,,,,,,,,,,,,,,,,,,,,,,,,,,,,,,"30.00","57","66",,,,,"73",,"SCT:04 9 OVC:08 14","29.65","10.00","61","270",,"9",,,,,,,,,,,,,,,,,,,,,,,,,,,,,,,,,,,,,"MET09805/10/20 09:14:02 SPECI KLAX 101714Z 27008KT 10SM SCT009 OVC014 19/14 A3000 RMK AO2 T01890139 (RD)","FM-16","7",,,,,,,,,,,,,,,,,,,,,,,,,,,,
"72295023174","2020-05-10T09:53:00","FM-15","7",,,,,,,,,,,,,,,,,,,,,,,,,,,,,,,,,,,,,,"30.00","57","65","0.00",,"-0.02","1","76","29.99","SCT:04 9 OVC:08 14","29.65","10.00","60","260",,"7",,,,,,,,,,,,,,,,,,,,,,,,,,,,,,,,,,,,,"MET12905/10/20 09:53:02 METAR KLAX 101753Z 26006KT 10SM SCT009 OVC014 18/14 A3000 RMK AO2 SLP157 60000 T01830139 10189 20167 51008 (RD)","FM-15","7",,,,,,,,,,,,,,,,,,,,,,,,,,,,
"72295023174","2020-05-10T10:00:00","FM-12","4",,,,,,,,,,,,,,,,,,,,,,,,,,,,,,,,,,,,,,,"57","65",,,"-0.02","1","76","29.99","8",,"9.94",,"260",,"7",,,,,,,,,,,,,,,,,,,,,,,,,,,,,,,,,,,,,"SYN08672295 12366 82606 10183 20139 30103 40157 51008 69901 91753 333 10189 20167 555 91018=","FM-12","4",,,,,,,,,,,,,,,,,,,,,,,,,,,,
"72295023174","2020-05-10T10:53:00","FM-15","7",,,,,,,,,,,,,,,,,,,,,,,,,,,,,,,,,,,,,,"30.00","57","66","0.00",,,,"73","29.99","FEW:02 8 BKN:07 11 BKN:07 19","29.65","10.00","61","290",,"9",,,,,,,,,,,,,,,,,,,,,,,,,,,,,,,,,,,,,"MET11205/10/20 10:53:02 METAR KLAX 101853Z 29008KT 10SM FEW008 BKN011 BKN019 19/14 A3000 RMK AO2 SLP156 T01890139 (RD)","FM-15","7",,,,,,,,,,,,,,,,,,,,,,,,,,,,
"72295023174","2020-05-10T11:40:00","FM-16","7",,,,,,,,,,,,,,,,,,,,,,,,,,,,,,,,,,,,,,"29.98","58","70",,,,,"66",,"SCT:04 12 BKN:07 21","29.63","10.00","63","280",,"6",,,,,,,,,,,,,,,,,,,,,,,,,,,,,,,,,,,,,"MET09805/10/20 11:40:02 SPECI KLAX 101940Z 28005KT 10SM SCT012 BKN021 21/14 A2998 RMK AO2 T02110144 (RD)","FM-16","7",,,,,,,,,,,,,,,,,,,,,,,,,,,,
"72295023174","2020-05-10T11:53:00","FM-15","7",,,,,,,,,,,,,,,,,,,,,,,,,,,,,,,,,,,,,,"29.98","57","70","0.00",,,,"64","29.98","SCT:04 12 BKN:07 20","29.63","10.00","62","270",,"9",,,,,,,,,,,,,,,,,,,,,,,,,,,,,,,,,,,,,"MET10505/10/20 11:53:02 METAR KLAX 101953Z 27008KT 10SM SCT012 BKN020 21/14 A2998 RMK AO2 SLP152 T02110139 (RD)","FM-15","7",,,,,,,,,,,,,,,,,,,,,,,,,,,,
"72295023174","2020-05-10T12:22:00","FM-16","7",,,,,,,,,,,,,,,,,,,,,,,,,,,,,,,,,,,,,,"29.98","57","71",,,,,"61",,"SCT:04 18 BKN:07 230 BKN:07 300","29.63","10.00","63","240",,"9",,,,,,,,,,,,,,,,,,,,,,,,,,,,,,,,,,,,,"MET10505/10/20 12:22:02 SPECI KLAX 102022Z 24008KT 10SM SCT018 BKN230 BKN300 22/14 A2998 RMK AO2 T02170139 (RD)","FM-16","7",,,,,,,,,,,,,,,,,,,,,,,,,,,,
"72295023174","2020-05-10T12:53:00","FM-15","7",,,,,,,,,,,,,,,,,,,,,,,,,,,,,,,,,,,,,,"29.97","57","71","0.00",,"+0.03","8","61","29.97","FEW:02 18 FEW:02 230 SCT:04 300","29.62","10.00","63","250",,"13",,,,,,,,,,,,,,,,,,,,,,,,,,,,,,,,,,,,,"MET11805/10/20 12:53:02 METAR KLAX 102053Z 25011KT 10SM FEW018 FEW230 SCT300 22/14 A2997 RMK AO2 SLP148 T02170139 58009 (RD)","FM-15","7",,,,,,,,,,,,,,,,,,,,,,,,,,,,
"72295023174","2020-05-10T13:53:00","FM-15","7",,,,,,,,,,,,,,,,,,,,,,,,,,,,,,,,,,,,,,"29.97","56","69","0.00",,,,"63","29.96","FEW:02 16","29.62","10.00","61","260","23","16",,,,,,,,,,,,,,,,,,,,,,,,,,,,,,,,,,,,,"MET10105/10/20 13:53:02 METAR KLAX 102153Z 26014G20KT 10SM FEW016 21/13 A2997 RMK AO2 SLP147 T02060133 (AR)","FM-15","7",,,,,,,,,,,,,,,,,,,,,,,,,,,,
"72295023174","2020-05-10T14:53:00","FM-15","7",,,,,,,,,,,,,,,,,,,,,,,,,,,,,,,,,,,,,,"29.95","56","69","0.00",,,,"63","29.95","FEW:02 16 FEW:02 250","29.60","10.00","61","260",,"15",,,,,,,,,,,,,,,,,,,,,,,,,,,,,,,,,,,,,"MET10505/10/20 14:53:02 METAR KLAX 102253Z 26013KT 10SM FEW016 FEW250 21/13 A2995 RMK AO2 SLP141 T02060133 (AR)","FM-15","7",,,,,,,,,,,,,,,,,,,,,,,,,,,,
"72295023174","2020-05-10T15:53:00","FM-15","7",,,,,,,,,,,,,,,,,,,,,,,,,,,,,,,,,,,,,,"29.95","56","69","0.00",,"+0.03","8","63","29.94","FEW:02 15 FEW:02 150 SCT:04 250","29.60","10.00","61","240",,"17",,,,,,,,,,,,,,,,,,,,,,,,,,,,,,,,,,,,,"MET13005/10/20 15:53:02 METAR KLAX 102353Z 24015KT 10SM FEW015 FEW150 SCT250 21/13 A2995 RMK AO2 SLP139 T02060133 10217 20183 58009 (AR)","FM-15","7",,,,,,,,,,,,,,,,,,,,,,,,,,,,
"72295023174","2020-05-10T16:00:00","FM-12","4",,,,,,,,,,,,,,,,,,,,,,,,,,,,,,,,,,,,,,,"56","69",,,"+0.03","8","63","29.94","15",,"9.94",,"240",,"17",,,,,,,,,,,,,,,,,,,,,,,,,,,,,,,,,,,,,"SYN08072295 32466 42415 10206 20133 30087 40139 58009 92353 333 10217 20172 555 91100=","FM-12","4",,,,,,,,,,,,,,,,,,,,,,,,,,,,
"72295023174","2020-05-10T16:53:00","FM-15","7",,,,,,,,,,,,,,,,,,,,,,,,,,,,,,,,,,,,,,"29.93","56","67","0.00",,,,"68","29.93","FEW:02 14 FEW:02 150","29.58","10.00","61","260",,"14",,,,,,,,,,,,,,,,,,,,,,,,,,,,,,,,,,,,,"MET10005/10/20 16:53:01 METAR KLAX 110053Z 26012KT 10SM FEW014 FEW150 19/13 A2993 RMK AO2 SLP135 T01940133","FM-15","7",,,,,,,,,,,,,,,,,,,,,,,,,,,,
"72295023174","2020-05-10T17:53:00","FM-15","7",,,,,,,,,,,,,,,,,,,,,,,,,,,,,,,,,,,,,,"29.94","54","64","0.00",,,,"70","29.94","FEW:02 12 FEW:02 150","29.59","10.00","58","250",,"14",,,,,,,,,,,,,,,,,,,,,,,,,,,,,,,,,,,,,"MET10005/10/20 17:53:01 METAR KLAX 110153Z 25012KT 10SM FEW012 FEW150 18/12 A2994 RMK AO2 SLP138 T01780122","FM-15","7",,,,,,,,,,,,,,,,,,,,,,,,,,,,
"72295023174","2020-05-10T18:53:00","FM-15","7",,,,,,,,,,,,,,,,,,,,,,,,,,,,,,,,,,,,,,"29.96","54","63","0.00",,"-0.01","3","73","29.96","SCT:04 22","29.61","10.00","58","240",,"13",,,,,,,,,,,,,,,,,,,,,,,,,,,,,,,,,,,,,"MET09905/10/20 18:53:01 METAR KLAX 110253Z 24011KT 10SM SCT022 17/12 A2996 RMK AO2 SLP144 T01720122 53004","FM-15","7",,,,,,,,,,,,,,,,,,,,,,,,,,,,
"72295023174","2020-05-10T19:37:00","FM-16","7",,,,,,,,,,,,,,,,,,,,,,,,,,,,,,,,,,,,,,"29.97","54","62",,,,,"75",,"BKN:07 21","29.62","10.00","57","250",,"9",,,,,,,,,,,,,,,,,,,,,,,,,,,,,,,,,,,,,"MET08605/10/20 19:37:02 SPECI KLAX 110337Z 25008KT 10SM BKN021 17/12 A2997 RMK AO2 T01670122","FM-16","7",,,,,,,,,,,,,,,,,,,,,,,,,,,,
"72295023174","2020-05-10T19:53:00","FM-15","7",,,,,,,,,,,,,,,,,,,,,,,,,,,,,,,,,,,,,,"29.97","54","63","0.00",,,,"73","29.97","BKN:07 21","29.62","10.00","58","250",,"9",,,,,,,,,,,,,,,,,,,,,,,,,,,,,,,,,,,,,"MET09305/10/20 19:53:02 METAR KLAX 110353Z 25008KT 10SM BKN021 17/12 A2997 RMK AO2 SLP148 T01720122","FM-15","7",,,,,,,,,,,,,,,,,,,,,,,,,,,,
"72295023174","2020-05-10T20:29:00","FM-16","7",,,,,,,,,,,,,,,,,,,,,,,,,,,,,,,,,,,,,,"29.98","54","63",,,,,"73",,"BKN:07 13 OVC:08 20","29.63","10.00","58","240",,"10",,,,,,,,,,,,,,,,,,,,,,,,,,,,,,,,,,,,,"MET09305/10/20 20:29:02 SPECI KLAX 110429Z 24009KT 10SM BKN013 OVC020 17/12 A2998 RMK AO2 T01720122","FM-16","7",,,,,,,,,,,,,,,,,,,,,,,,,,,,
"72295023174","2020-05-10T20:51:00","FM-16","7",,,,,,,,,,,,,,,,,,,,,,,,,,,,,,,,,,,,,,"29.99","54","63",,,,,"73",,"SCT:04 13 OVC:08 18","29.64","10.00","58","250",,"11",,,,,,,,,,,,,,,,,,,,,,,,,,,,,,,,,,,,,"MET09705/10/20 20:51:02 SPECI KLAX 110451Z 25010KT 10SM SCT013 OVC018 17/12 A2999 RMK AO2 CIG 013 RWY24","FM-16","7",,,,,,,,,,,,,,,,,,,,,,,,,,,,
"72295023174","2020-05-10T20:53:00","FM-15","7",,,,,,,,,,,,,,,,,,,,,,,,,,,,,,,,,,,,,,"29.99","53","62","0.00",,,,"73","29.98","SCT:04 13 OVC:08 18","29.64","10.00","57","260",,"11",,,,,,,,,,,,,,,,,,,,,,,,,,,,,,,,,,,,,"MET11405/10/20 20:53:02 METAR KLAX 110453Z 26010KT 10SM SCT013 OVC018 17/12 A2999 RMK AO2 CIG 013 RWY24 SLP153 T01670117","FM-15","7",,,,,,,,,,,,,,,,,,,,,,,,,,,,
"72295023174","2020-05-10T21:53:00","FM-15","7",,,,,,,,,,,,,,,,,,,,,,,,,,,,,,,,,,,,,,"30.00","54","63","0.00",,"-0.03","1","73","29.99","BKN:07 15 OVC:08 18","29.65","10.00","58","250",,"7",,,,,,,,,,,,,,,,,,,,,,,,,,,,,,,,,,,,,"MET11805/10/20 21:53:02 METAR KLAX 110553Z 25006KT 10SM BKN015 OVC018 17/12 A3000 RMK AO2 SLP157 T01720122 10200 20167 51009","FM-15","7",,,,,,,,,,,,,,,,,,,,,,,,,,,,
"72295023174","2020-05-10T22:00:00","FM-12","4",,,,,,,,,,,,,,,,,,,,,,,,,,,,,,,,,,,,,,,"54","63",,,"-0.03","1","73","29.99","15",,"9.94",,"250",,"7",,,,,,,,,,,,,,,,,,,,,,,,,,,,,,,,,,,,,"SYN08072295 32466 82506 10172 20122 30103 40157 51009 90553 333 10200 20167 555 91106=","FM-12","4",,,,,,,,,,,,,,,,,,,,,,,,,,,,
"72295023174","2020-05-10T22:53:00","FM-15","7",,,,,,,,,,,,,,,,,,,,,,,,,,,,,,,,,,,,,,"30.00","54","63","0.00",,,,"73","29.99","BKN:07 16 OVC:08 19","29.65","10.00","58","240",,"6",,,,,,,,,,,,,,,,,,,,,,,,,,,,,,,,,,,,,"MET10005/10/20 22:53:02 METAR KLAX 110653Z 24005KT 10SM BKN016 OVC019 17/12 A3000 RMK AO2 SLP156 T01720122","FM-15","7",,,,,,,,,,,,,,,,,,,,,,,,,,,,
"72295023174","2020-05-10T23:53:00","FM-15","7",,,,,,,,,,,,,,,,,,,,,,,,,,,,,,,,,,,,,,"29.99","54","63","0.00",,,,"73","29.98","FEW:02 16 OVC:08 21","29.64","10.00","58","250",,"6",,,,,,,,,,,,,,,,,,,,,,,,,,,,,,,,,,,,,"MET11005/10/20 23:53:02 METAR KLAX 110753Z 25005KT 10SM FEW016 OVC021 17/12 A2999 RMK AO2 SLP153 T01720122 402170167","FM-15","7",,,,,,,,,,,,,,,,,,,,,,,,,,,,
"72295023174","2020-05-10T23:59:00","SOD  ","6",,,,,,,,,,,,,,,"56","67","73","29.96","29.62","60","9.4","2","4.6","0","71","62","260","25","T","0","0.0","260","18","DZ BR HZ",,,,,,,,,,,,,,,,,,,,,,,,,,,,,,,,,,,,,,,,,,,,,,,,,,,,,,,,"SOD75724 HR PRECIPITATION (IN):    T SNOW DEPTH (IN):0     24 HR SNOWFALL (IN):0.0  WEATHER(CODE):18  24 HR MAX TEMP (F): 7124 HR MIN TEMP (F): 62AVERAGE STATION PRESSURE:29.620 MINIMUM SEA LEVEL PRESSURE:29.91 TIME OF OCCURRENCE:0203 PEAK WIND SPEED (MPH): 25 PEAK WIND DIR (DEG):260 PEAK WIND TIME (LST):      FASTEST 2MIN SPEED (MPH): 18FASTEST 2MIN DIR (DEG):260 FASTEST 2MIN TIME (LST):     AVERAGE WIND SPEED (MPH): 9.4 24 HR AVG TEMP (F): 67DEPART FROM NORMAL:  5  HEATING DEGREE DAYS:  0 COOLING DEGREE DAYS:  2 LATEST DAY MAX TEMP (0700-1900 LST):71  LATEST NIGHT MIN TEMP(1900-0800 LST):62 HOURLY INCREMENTAL PRECIPITATION VALUES (IN):.00 0.00 0.00 0.00 T    T    T    0.00 0.00 0.00 0.00 0.00 0.00 0.00 0.00 0.00 0.00 0.00 0.00 0.00 0.00 0.00 0.00 0.00","SOD  ","6",,,,,,,,,,,,,,,,,,,,,,,,,"0455","1845",,
"72295023174","2020-05-11T00:53:00","FM-15","7",,,,,,,,,,,,,,,,,,,,,,,,,,,,,,,,,,,,,,"29.98","54","63","0.00",,"+0.02","8","73","29.97","FEW:02 16 OVC:08 22","29.63","10.00","58","260",,"6",,,,,,,,,,,,,,,,,,,,,,,,,,,,,,,,,,,,,"MET11205/11/20 00:53:02 METAR KLAX 110853Z 26005KT 10SM FEW016 OVC022 17/12 A2998 RMK AO2 SLP150 T01720122 58007 (RPA)","FM-15","7",,,,,,,,,,,,,,,,,,,,,,,,,,,,
"72295023174","2020-05-11T01:53:00","FM-15","7",,,,,,,,,,,,,,,,,,,,,,,,,,,,,,,,,,,,,,"29.97","54","63","0.00",,,,"73","29.97","FEW:02 18 OVC:08 25","29.62","10.00","58","250",,"6",,,,,,,,,,,,,,,,,,,,,,,,,,,,,,,,,,,,,"MET10605/11/20 01:53:02 METAR KLAX 110953Z 25005KT 10SM FEW018 OVC025 17/12 A2997 RMK AO2 SLP148 T01720122 (RPA)","FM-15","7",,,,,,,,,,,,,,,,,,,,,,,,,,,,
"72295023174","2020-05-11T02:53:00","FM-15","7",,,,,,,,,,,,,,,,,,,,,,,,,,,,,,,,,,,,,,"29.97","55","63","0.00",,,,"75","29.97","FEW:02 12 OVC:08 26","29.62","10.00","58","260",,"6",,,,,,,,,,,,,,,,,,,,,,,,,,,,,,,,,,,,,"MET10605/11/20 02:53:02 METAR KLAX 111053Z 26005KT 10SM FEW012 OVC026 17/13 A2997 RMK AO2 SLP148 T01720128 (RPA)","FM-15","7",,,,,,,,,,,,,,,,,,,,,,,,,,,,
"72295023174","2020-05-11T03:53:00","FM-15","7",,,,,,,,,,,,,,,,,,,,,,,,,,,,,,,,,,,,,,"29.98","54","64","0.00",,"+0.00","5","70","29.97","FEW:02 12 OVC:08 26","29.63","10.00","58","270",,"8",,,,,,,,,,,,,,,,,,,,,,,,,,,,,,,,,,,,,"MET12405/11/20 03:53:02 METAR KLAX 111153Z 27007KT 10SM FEW012 OVC026 18/12 A2998 RMK AO2 SLP149 T01780122 10183 20167 55001 (RPA)","FM-15","7",,,,,,,,,,,,,,,,,,,,,,,,,,,,
"72295023174","2020-05-11T03:59:00","FM-16","7",,,,,,,,,,,,,,,,,,,,,,,,,,,,,,,,,,,,,,"29.98","54","64",,,,,"70",,"FEW:02 12 OVC:08 30","29.63","10.00","58","270",,"6",,,,,,,,,,,,,,,,,,,,,,,,,,,,,,,,,,,,,"MET09905/11/20 03:59:02 SPECI KLAX 111159Z 27005KT 10SM FEW012 OVC030 18/12 A2998 RMK AO2 T01780122 (RPA)","FM-16","7",,,,,,,,,,,,,,,,,,,,,,,,,,,,
"72295023174","2020-05-11T04:00:00","FM-12","4",,,,,,,,,,,,,,,,,,,,,,,,,,,,,,,,,,,,,,,"54","64",,,"+0.00","5","70","29.97","15",,"9.94",,"270",,"8",,,,,,,,,,,,,,,,,,,,,,,,,,,,,,,,,,,,,"SYN08072295 32466 82707 10178 20122 30097 40149 55001 91153 333 10217 20167 555 91112=","FM-12","4",,,,,,,,,,,,,,,,,,,,,,,,,,,,
"72295023174","2020-05-11T04:21:00","FM-16","7",,,,,,,,,,,,,,,,,,,,,,,,,,,,,,,,,,,,,,"29.98","55","64",,,,,"73",,"FEW:02 11 SCT:04 18 OVC:08 29","29.63","10.00","59","270",,"7",,,,,,,,,,,,,,,,,,,,,,,,,,,,,,,,,,,,,"MET10605/11/20 04:21:02 SPECI KLAX 111221Z 27006KT 10SM FEW011 SCT018 OVC029 18/13 A2998 RMK AO2 T01780128 (RPA)","FM-16","7",,,,,,,,,,,,,,,,,,,,,,,,,,,,
"72295023174","2020-05-11T04:53:00","FM-15","7",,,,,,,,,,,,,,,,,,,,,,,,,,,,,,,,,,,,,,"29.98","55","63","0.00",,,,"75","29.97","FEW:02 11 FEW:02 16 BKN:07 27","29.63","9.00","58","290",,"5",,,,,,,,,,,,,,,,,,,,,,,,,,,,,,,,,,,,,"MET11205/11/20 04:53:02 METAR KLAX 111253Z 29004KT 9SM FEW011 FEW016 BKN027 17/13 A2998 RMK AO2 SLP149 T01720128 (RPA)","FM-15","7",,,,,,,,,,,,,,,,,,,,,,,,,,,,
"72295023174","2020-05-11T05:53:00","FM-15","7",,,,,,,,,,,,,,,,,,,,,,,,,,,,,,,,,,,,,,"29.99","55","64","0.00",,,,"73","29.98","FEW:02 13 OVC:08 27","29.64","8.00","59","270",,"7",,,,,,,,,,,,,,,,,,,,,,,,,,,,,,,,,,,,,"MET10505/11/20 05:53:02 METAR KLAX 111353Z 27006KT 8SM FEW013 OVC027 18/13 A2999 RMK AO2 SLP153 T01780128 (DMQ)","FM-15","7",,,,,,,,,,,,,,,,,,,,,,,,,,,,
"72295023174","2020-05-11T06:41:00","FM-16","7",,,,,,,,,,,,,,,,,,,,,,,,,,,,,,,,,,,,,,"30.00","55","65",,,,,"70",,"FEW:02 14 BKN:07 30 BKN:07 140","29.65","8.00","59","260",,"9",,,,,,,,,,,,,,,,,,,,,,,,,,,,,,,,,,,,,"MET10505/11/20 06:41:02 SPECI KLAX 111441Z 26008KT 8SM FEW014 BKN030 BKN140 18/13 A3000 RMK AO2 T01830128 (DMQ)","FM-16","7",,,,,,,,,,,,,,,,,,,,,,,,,,,,
"72295023174","2020-05-11T06:53:00","FM-15","7",,,,,,,,,,,,,,,,,,,,,,,,,,,,,,,,,,,,,,"29.99","54","66","0.00",,"-0.02","3","65","29.99","FEW:02 14 BKN:07 30 BKN:07 140","29.64","8.00","59","280",,"6",,,,,,,,,,,,,,,,,,,,,,,,,,,,,,,,,,,,,"MET11805/11/20 06:53:02 METAR KLAX 111453Z 28005KT 8SM FEW014 BKN030 BKN140 19/12 A2999 RMK AO2 SLP155 T01890122 53006 (DMQ)","FM-15","7",,,,,,,,,,,,,,,,,,,,,,,,,,,,
"72295023174","2020-05-11T07:53:00","FM-15","7",,,,,,,,,,,,,,,,,,,,,,,,,,,,,,,,,,,,,,"30.01","52","67","0.00",,,,"59","30.00","FEW:02 24 BKN:07 30 BKN:07 140","29.66","8.00","59","260",,"7",,,,,,,,,,,,,,,,,,,,,,,,,,,,,,,,,,,,,"MET11205/11/20 07:53:02 METAR KLAX 111553Z 26006KT 8SM FEW024 BKN030 BKN140 19/11 A3001 RMK AO2 SLP160 T01940111 (DMQ)","FM-15","7",,,,,,,,,,,,,,,,,,,,,,,,,,,,
"72295023174","2020-05-11T08:09:00","FM-16","7",,,,,,,,,,,,,,,,,,,,,,,,,,,,,,,,,,,,,,"30.01","52","67",,,,,"59",,"FEW:02 19 BKN:07 29 BKN:07 140","29.66","8.00","59","240",,"8",,,,,,,,,,,,,,,,,,,,,,,,,,,,,,,,,,,,,"MET10505/11/20 08:09:02 SPECI KLAX 111609Z 24007KT 8SM FEW019 BKN029 BKN140 19/11 A3001 RMK AO2 T01940111 (DMQ)","FM-16","7",,,,,,,,,,,,,,,,,,,,,,,,,,,,
"72295023174","2020-05-11T08:53:00","FM-15","7",,,,,,,,,,,,,,,,,,,,,,,,,,,,,,,,,,,,,,"30.02","52","68","0.00",,,,"57","30.01","FEW:02 19 BKN:07 29 BKN:07 140","29.67","8.00","59","260",,"8",,,,,,,,,,,,,,,,,,,,,,,,,,,,,,,,,,,,,"MET11205/11/20 08:53:02 METAR KLAX 111653Z 26007KT 8SM FEW019 BKN029 BKN140 20/11 A3002 RMK AO2 SLP162 T02000111 (DMQ)","FM-15","7",,,,,,,,,,,,,,,,,,,,,,,,,,,,
"72295023174","2020-05-11T09:53:00","FM-15","7",,,,,,,,,,,,,,,,,,,,,,,,,,,,,,,,,,,,,,"30.02","53","68","0.00",,"-0.03","1","59","30.02","FEW:02 19 BKN:07 21 BKN:07 140","29.67","8.00","59","250",,"14",,,,,,,,,,,,,,,,,,,,,,,,,,,,,,,,,,,,,"MET13005/11/20 09:53:02 METAR KLAX 111753Z 25012KT 8SM FEW019 BKN021 BKN140 20/12 A3002 RMK AO2 SLP165 T02000117 10206 20172 51010 (DMQ)","FM-15","7",,,,,,,,,,,,,,,,,,,,,,,,,,,,
"72295023174","2020-05-11T10:00:00","FM-12","4",,,,,,,,,,,,,,,,,,,,,,,,,,,,,,,,,,,,,,,"53","68",,,"-0.03","1","59","30.02","15",,"7.46",,"250",,"14",,,,,,,,,,,,,,,,,,,,,,,,,,,,,,,,,,,,,"SYN08072295 32462 62512 10200 20117 30110 40165 51010 91753 333 10206 20172 555 91118=","FM-12","4",,,,,,,,,,,,,,,,,,,,,,,,,,,,
"72295023174","2020-05-11T10:53:00","FM-15","7",,,,,,,,,,,,,,,,,,,,,,,,,,,,,,,,,,,,,,"30.02","54","69","0.00",,,,"59","30.01","FEW:02 21 SCT:04 27 BKN:07 150","29.67","8.00","60","270","18","11",,,,,,,,,,,,,,,,,,,,,,,,,,,,,,,,,,,,,"MET11505/11/20 10:53:02 METAR KLAX 111853Z 27010G16KT 8SM FEW021 SCT027 BKN150 21/12 A3002 RMK AO2 SLP164 T02060122 (DMQ)","FM-15","7",,,,,,,,,,,,,,,,,,,,,,,,,,,,
"72295023174","2020-05-11T11:53:00","FM-15","7",,,,,,,,,,,,,,,,,,,,,,,,,,,,,,,,,,,,,,"30.00","53","70","0.00",,,,"55","30.00","FEW:02 22 FEW:02 27 SCT:04 160","29.65","8.00","60","260",,"10",,,,,,,,,,,,,,,,,,,,,,,,,,,,,,,,,,,,,"MET11405/11/20 11:53:02 METAR KLAX 111953Z 26009KT 8SM FEW022 FEW027 SCT160 21/12 A3000 RMK AO2 SLP159 T02110117 $ (DMQ)","FM-15","7",,,,,,,,,,,,,,,,,,,,,,,,,,,,
"72295023174","2020-05-11T12:53:00","FM-15","7",,,,,,,,,,,,,,,,,,,,,,,,,,,,,,,,,,,,,,"30.00","54","70","0.00",,"+0.02","8","57","29.99","FEW:02 25 SCT:04 180","29.65","9.00","61","270",,"14",,,,,,,,,,,,,,,,,,,,,,,,,,,,,,,,,,,,,"MET11305/11/20 12:53:02 METAR KLAX 112053Z 27012KT 9SM FEW025 SCT180 21/12 A3000 RMK AO2 SLP157 T02110122 58008 $ (DMQ)","FM-15","7",,,,,,,,,,,,,,,,,,,,,,,,,,,,
"72295023174","2020-05-11T13:53:00","FM-15","7",,,,,,,,,,,,,,,,,,,,,,,,,,,,,,,,,,,,,,"29.99","54","69","0.00",,,,"59","29.98","FEW:02 16","29.64","10.00","60","260",,"16",,,,,,,,,,,,,,,,,,,,,,,,,,,,,,,,,,,,,"MET10005/11/20 13:53:02 METAR KLAX 112153Z 26014KT 10SM FEW016 21/12 A2999 RMK AO2 SLP153 T02060122 $ (AR)","FM-15","7",,,,,,,,,,,,,,,,,,,,,,,,,,,,
"72295023174","2020-05-11T14:53:00","FM-15","7",,,,,,,,,,,,,,,,,,,,,,,,,,,,,,,,,,,,,,"29.98","54","67","0.00",,,,"63","29.97","FEW:02 16","29.63","10.00","60","260",,"18",,,,,,,,,,,,,,,,,,,,,,,,,,,,,,,,,,,,,"MET10005/11/20 14:53:02 METAR KLAX 112253Z 26016KT 10SM FEW016 19/12 A2998 RMK AO2 SLP150 T01940122 $ (AR)","FM-15","7",,,,,,,,,,,,,,,,,,,,,,,,,,,,
"72295023174","2020-05-11T15:53:00","FM-15","7",,,,,,,,,,,,,,,,,,,,,,,,,,,,,,,,,,,,,,"29.97","54","66","0.00",,"+0.03","6","65","29.96","SCT:04 13","29.62","10.00","59","240",,"17",,,,,,,,,,,,,,,,,,,,,,,,,,,,,,,,,,,,,"MET11805/11/20 15:53:02 METAR KLAX 112353Z 24015KT 10SM SCT013 19/12 A2997 RMK AO2 SLP147 T01890122 10217 20189 56010 $ (AR)","FM-15","7",,,,,,,,,,,,,,,,,,,,,,,,,,,,
"72295023174","2020-05-11T16:00:00","FM-12","4",,,,,,,,,,,,,,,,,,,,,,,,,,,,,,,,,,,,,,,"54","66",,,"+0.03","6","65","29.96","15",,"9.94",,"240",,"17",,,,,,,,,,,,,,,,,,,,,,,,,,,,,,,,,,,,,"SYN08072295 32466 42415 10189 20122 30093 40147 56010 92353 333 10217 20167 555 91200=","FM-12","4",,,,,,,,,,,,,,,,,,,,,,,,,,,,
"72295023174","2020-05-11T16:08:00","FM-16","7",,,,,,,,,,,,,,,,,,,,,,,,,,,,,,,,,,,,,,"29.97","55","67",,,,,"66",,"BKN:07 14","29.62","10.00","60","260",,"18",,,,,,,,,,,,,,,,,,,,,,,,,,,,,,,,,,,,,"MET08805/11/20 16:08:01 SPECI KLAX 120008Z 26016KT 10SM BKN014 19/13 A2997 RMK AO2 T01940128 $","FM-16","7",,,,,,,,,,,,,,,,,,,,,,,,,,,,
"72295023174","2020-05-11T16:53:00","FM-15","7",,,,,,,,,,,,,,,,,,,,,,,,,,,,,,,,,,,,,,"29.97","54","65","0.00",,,,"68","29.96","BKN:07 13","29.62","10.00","59","270",,"18",,,,,,,,,,,,,,,,,,,,,,,,,,,,,,,,,,,,,"MET09505/11/20 16:53:01 METAR KLAX 120053Z 27016KT 10SM BKN013 18/12 A2997 RMK AO2 SLP146 T01830122 $","FM-15","7",,,,,,,,,,,,,,,,,,,,,,,,,,,,
"72295023174","2020-05-11T17:39:00","FM-16","7",,,,,,,,,,,,,,,,,,,,,,,,,,,,,,,,,,,,,,"29.97","55","65",,,,,"70",,"FEW:02 13","29.62","10.00","59","250",,"15",,,,,,,,,,,,,,,,,,,,,,,,,,,,,,,,,,,,,"MET08805/11/20 17:39:01 SPECI KLAX 120139Z 25013KT 10SM FEW013 18/13 A2997 RMK AO2 T01830128 $","FM-16","7",,,,,,,,,,,,,,,,,,,,,,,,,,,,
"72295023174","2020-05-11T17:53:00","FM-15","7",,,,,,,,,,,,,,,,,,,,,,,,,,,,,,,,,,,,,,"29.97","55","65","0.00",,,,"70","29.96","FEW:02 13","29.62","10.00","59","260",,"15",,,,,,,,,,,,,,,,,,,,,,,,,,,,,,,,,,,,,"MET09505/11/20 17:53:01 METAR KLAX 120153Z 26013KT 10SM FEW013 18/13 A2997 RMK AO2 SLP145 T01830128 $","FM-15","7",,,,,,,,,,,,,,,,,,,,,,,,,,,,
"72295023174","2020-05-11T18:53:00","FM-15","7",,,,,,,,,,,,,,,,,,,,,,,,,,,,,,,,,,,,,,"29.97","52","63","0.00",,"+0.00","5","68","29.96","FEW:02 15","29.62","10.00","57","270",,"15",,,,,,,,,,,,,,,,,,,,,,,,,,,,,,,,,,,,,"MET10105/11/20 18:53:01 METAR KLAX 120253Z 27013KT 10SM FEW015 17/11 A2997 RMK AO2 SLP146 T01720111 55000 $","FM-15","7",,,,,,,,,,,,,,,,,,,,,,,,,,,,
"72295023174","2020-05-11T19:53:00","FM-15","7",,,,,,,,,,,,,,,,,,,,,,,,,,,,,,,,,,,,,,"29.98","53","63","0.00",,,,"70","29.98","FEW:02 15","29.63","10.00","57","250",,"15",,,,,,,,,,,,,,,,,,,,,,,,,,,,,,,,,,,,,"MET09505/11/20 19:53:02 METAR KLAX 120353Z 25013KT 10SM FEW015 17/12 A2998 RMK AO2 SLP151 T01720117 $","FM-15","7",,,,,,,,,,,,,,,,,,,,,,,,,,,,
"72295023174","2020-05-11T20:53:00","FM-15","7",,,,,,,,,,,,,,,,,,,,,,,,,,,,,,,,,,,,,,"29.99","49","63","0.00",,,,"60","29.98","CLR:00","29.64","10.00","55","250",,"11",,,,,,,,,,,,,,,,,,,,,,,,,,,,,,,,,,,,,"MET09205/11/20 20:53:02 METAR KLAX 120453Z 25010KT 10SM CLR 17/09 A2999 RMK AO2 SLP154 T01720094 $","FM-15","7",,,,,,,,,,,,,,,,,,,,,,,,,,,,
"72295023174","2020-05-11T21:50:00","FM-16","7",,,,,,,,,,,,,,,,,,,,,,,,,,,,,,,,,,,,,,"30.00","46","63",,,,,"56",,"FEW:02 9","29.65","10.00","54","260",,"10",,,,,,,,,,,,,,,,,,,,,,,,,,,,,,,,,,,,,"MET08805/11/20 21:50:02 SPECI KLAX 120550Z 26009KT 10SM FEW009 17/08 A3000 RMK AO2 FU FEW009 $","FM-16","7",,,,,,,,,,,,,,,,,,,,,,,,,,,,
"72295023174","2020-05-11T21:53:00","FM-15","7",,,,,,,,,,,,,,,,,,,,,,,,,,,,,,,,,,,,,,"30.00","47","63","0.00",,"-0.03","1","56","29.99","FEW:02 9","29.65","10.00","54","260",,"11",,,,,,,,,,,,,,,,,,,,,,,,,,,,,,,,,,,,,"MET12305/11/20 21:53:02 METAR KLAX 120553Z 26010KT 10SM FEW009 17/08 A3000 RMK AO2 SLP157 FU FEW009 T01720083 10200 20167 51010 $","FM-15","7",,,,,,,,,,,,,,,,,,,,,,,,,,,,
"72295023174","2020-05-11T22:00:00","FM-12","4",,,,,,,,,,,,,,,,,,,,,,,,,,,,,,,,,,,,,,,"46","63",,,"-0.03","1","56","29.99","8",,"9.94",,"260",,"11",,,,,,,,,,,,,,,,,,,,,,,,,,,,,,,,,,,,,"SYN08072295 32366 22610 10170 20080 30103 40157 51010 90553 333 10200 20167 555 91206=","FM-12","4",,,,,,,,,,,,,,,,,,,,,,,,,,,,
"72295023174","2020-05-11T22:53:00","FM-15","7",,,,,,,,,,,,,,,,,,,,,,,,,,,,,,,,,,,,,,"29.99","48","63","0.00",,,,"58","29.98","FEW:02 10","29.64","10.00","55","260",,"13",,,,,,,,,,,,,,,,,,,,,,,,,,,,,,,,,,,,,"MET09505/11/20 22:53:02 METAR KLAX 120653Z 26011KT 10SM FEW010 17/09 A2999 RMK AO2 SLP153 T01720089 $","FM-15","7",,,,,,,,,,,,,,,,,,,,,,,,,,,,
"72295023174","2020-05-11T23:53:00","FM-15","7",,,,,,,,,,,,,,,,,,,,,,,,,,,,,,,,,,,,,,"29.99","49","62","0.00",,,,"62","29.98","FEW:02 10","29.64","10.00","55","250",,"8",,,,,,,,,,,,,,,,,,,,,,,,,,,,,,,,,,,,,"MET10505/11/20 23:53:02 METAR KLAX 120753Z 25007KT 10SM FEW010 17/09 A2999 RMK AO2 SLP151 T01670094 402170167 $","FM-15","7",,,,,,,,,,,,,,,,,,,,,,,,,,,,
"72295023174","2020-05-11T23:59:00","SOD  ","6",,,,,,,,,,,,,,,"53","67","64","29.98","29.64","58","11.1","2","4.6","0","71","62","250","25","0.00","0","0.0","260","21",,,,,,,,,,,,,,,,,,,,,,,,,,,,,,,,,,,,,,,,,,,,,,,,,,,,,,,,,"SOD73924 HR PRECIPITATION (IN): 0.00 SNOW DEPTH (IN):0     24 HR SNOWFALL (IN):0.0  24 HR MAX TEMP (F): 7124 HR MIN TEMP (F): 62AVERAGE STATION PRESSURE:29.640 MINIMUM SEA LEVEL PRESSURE:29.96 TIME OF OCCURRENCE:1859 PEAK WIND SPEED (MPH): 25 PEAK WIND DIR (DEG):250 PEAK WIND TIME (LST):      FASTEST 2MIN SPEED (MPH): 21FASTEST 2MIN DIR (DEG):260 FASTEST 2MIN TIME (LST):     AVERAGE WIND SPEED (MPH):11.1 24 HR AVG TEMP (F): 67DEPART FROM NORMAL:  5  HEATING DEGREE DAYS:  0 COOLING DEGREE DAYS:  2 LATEST DAY MAX TEMP (0700-1900 LST):71  LATEST NIGHT MIN TEMP(1900-0800 LST):62 HOURLY INCREMENTAL PRECIPITATION VALUES (IN):.00 0.00 0.00 0.00 0.00 0.00 0.00 0.00 0.00 0.00 0.00 0.00 0.00 0.00 0.00 0.00 0.00 0.00 0.00 0.00 0.00 0.00 0.00 0.00","SOD  ","6",,,,,,,,,,,,,,,,,,,,,,,,,"0455","1846",,
"72295023174","2020-05-12T00:53:00","FM-15","7",,,,,,,,,,,,,,,,,,,,,,,,,,,,,,,,,,,,,,"29.98","51","61","0.00",,"+0.02","6","70","29.98","FEW:02 10","29.63","10.00","56","250",,"9",,,,,,,,,,,,,,,,,,,,,,,,,,,,,,,,,,,,,"MET10705/12/20 00:53:02 METAR KLAX 120853Z 25008KT 10SM FEW010 16/11 A2998 RMK AO2 SLP151 T01610106 56006 $ (RPA)","FM-15","7",,,,,,,,,,,,,,,,,,,,,,,,,,,,
"72295023174","2020-05-12T01:53:00","FM-15","7",,,,,,,,,,,,,,,,,,,,,,,,,,,,,,,,,,,,,,"29.98","50","61","0.00",,,,"67","29.97","FEW:02 10","29.63","10.00","55","250",,"9",,,,,,,,,,,,,,,,,,,,,,,,,,,,,,,,,,,,,"MET10105/12/20 01:53:02 METAR KLAX 120953Z 25008KT 10SM FEW010 16/10 A2998 RMK AO2 SLP149 T01610100 $ (RPA)","FM-15","7",,,,,,,,,,,,,,,,,,,,,,,,,,,,
"72295023174","2020-05-12T02:53:00","FM-15","7",,,,,,,,,,,,,,,,,,,,,,,,,,,,,,,,,,,,,,"29.98","51","61","0.00",,,,"70","29.97","FEW:02 10","29.63","10.00","56","240",,"6",,,,,,,,,,,,,,,,,,,,,,,,,,,,,,,,,,,,,"MET10105/12/20 02:53:02 METAR KLAX 121053Z 24005KT 10SM FEW010 16/11 A2998 RMK AO2 SLP150 T01610106 $ (RPA)","FM-15","7",,,,,,,,,,,,,,,,,,,,,,,,,,,,
"72295023174","2020-05-12T03:53:00","FM-15","7",,,,,,,,,,,,,,,,,,,,,,,,,,,,,,,,,,,,,,"29.98","51","61","0.00",,"+0.01","7","70","29.97","FEW:02 10","29.63","10.00","56","000",,"0",,,,,,,,,,,,,,,,,,,,,,,,,,,,,,,,,,,,,"MET11905/12/20 03:53:02 METAR KLAX 121153Z 00000KT 10SM FEW010 16/11 A2998 RMK AO2 SLP149 T01610106 10172 20156 57002 $ (RPA)","FM-15","7",,,,,,,,,,,,,,,,,,,,,,,,,,,,
"72295023174","2020-05-12T04:00:00","FM-12","4",,,,,,,,,,,,,,,,,,,,,,,,,,,,,,,,,,,,,,,"51","61",,,"+0.01","7","70","29.97","15",,"9.94",,"000",,"0",,,,,,,,,,,,,,,,,,,,,,,,,,,,,,,,,,,,,"SYN08072295 32466 20000 10161 20106 30097 40149 57002 91153 333 10217 20156 555 91212=","FM-12","4",,,,,,,,,,,,,,,,,,,,,,,,,,,,
"72295023174","2020-05-12T04:44:00","FM-16","7",,,,,,,,,,,,,,,,,,,,,,,,,,,,,,,,,,,,,,"29.99","51","60",,,,,"72",,"FEW:02 11 BKN:07 20 BKN:07 200","29.64","10.00","55","000",,"0",,,,,,,,,,,,,,,,,,,,,,,,,,,,,,,,,,,,,"MET10805/12/20 04:44:02 SPECI KLAX 121244Z 00000KT 10SM FEW011 BKN020 BKN200 16/11 A2999 RMK AO2 T01560106 $ (RPA)","FM-16","7",,,,,,,,,,,,,,,,,,,,,,,,,,,,
"72295023174","2020-05-12T04:53:00","FM-15","7",,,,,,,,,,,,,,,,,,,,,,,,,,,,,,,,,,,,,,"29.99","51","60","0.00",,,,"72","29.98","FEW:02 11 BKN:07 20 BKN:07 42","29.64","10.00","55","000",,"0",,,,,,,,,,,,,,,,,,,,,,,,,,,,,,,,,,,,,"MET11505/12/20 04:53:02 METAR KLAX 121253Z 00000KT 10SM FEW011 BKN020 BKN042 16/11 A2999 RMK AO2 SLP154 T01560106 $ (RPA)","FM-15","7",,,,,,,,,,,,,,,,,,,,,,,,,,,,
"72295023174","2020-05-12T05:51:00","FM-16","6",,,,,,,,,,,,,,,,,,,,,,,,,,,,,,,,,,,,,,"30.00","54","63",,,,,"73",,"FEW:02 10 SCT:04 20 BKN:07 30","29.65","8.00","58","110",,"6",,,,,,,,,,,,,,,,,,,,,,,,,,,,,,,,,,,,,"MET10205/12/20 05:51:02 SPECI KLAX 121351Z 11005KT 8SM FEW010 SCT020 BKN030 17/12 A3000 RMK AO2 $ FIBI (DMQ)","FM-16","6",,,,,,,,,,,,,,,,,,,,,,,,,,,,
"72295023174","2020-05-12T05:53:00","FM-15","7",,,,,,,,,,,,,,,,,,,,,,,,,,,,,,,,,,,,,,"30.00","53","62","0.00",,,,"73","30.00","FEW:02 10 SCT:04 20 BKN:07 30","29.65","8.00","57","110",,"6",,,,,,,,,,,,,,,,,,,,,,,,,,,,,,,,,,,,,"MET11405/12/20 05:53:02 METAR KLAX 121353Z 11005KT 8SM FEW010 SCT020 BKN030 17/12 A3000 RMK AO2 SLP158 T01670117 $ (DMQ)","FM-15","7",,,,,,,,,,,,,,,,,,,,,,,,,,,,
"72295023174","2020-05-12T06:34:00","FM-16","7",,,,,,,,,,,,,,,,,,,,,,,,,,,,,,,,,,,,,,"30.01","53","63",,,,,"70",,"SCT:04 20 BKN:07 29 BKN:07 140","29.66","8.00","57","110",,"5",,,,,,,,,,,,,,,,,,,,,,,,,,,,,,,,,,,,,"MET10705/12/20 06:34:02 SPECI KLAX 121434Z 11004KT 8SM SCT020 BKN029 BKN140 17/12 A3001 RMK AO2 T01720117 $ (DMQ)","FM-16","7",,,,,,,,,,,,,,,,,,,,,,,,,,,,
"72295023174","2020-05-12T06:53:00","FM-15","7",,,,,,,,,,,,,,,,,,,,,,,,,,,,,,,,,,,,,,"30.01","52","64","0.00",,"-0.04","1","65","30.01","SCT:04 20 BKN:07 27 BKN:07 140","29.66","8.00","57","120",,"6",,,,,,,,,,,,,,,,,,,,,,,,,,,,,,,,,,,,,"MET12005/12/20 06:53:02 METAR KLAX 121453Z 12005KT 8SM SCT020 BKN027 BKN140 18/11 A3001 RMK AO2 SLP161 T01780111 51012 $ (DMQ)","FM-15","7",,,,,,,,,,,,,,,,,,,,,,,,,,,,
"72295023174","2020-05-12T07:53:00","FM-15","7",,,,,,,,,,,,,,,,,,,,,,,,,,,,,,,,,,,,,,"30.02","52","64","0.00",,,,"65","30.01","SCT:04 19 BKN:07 24 OVC:08 140","29.67","8.00","57","090",,"3",,,,,,,,,,,,,,,,,,,,,,,,,,,,,,,,,,,,,"MET11405/12/20 07:53:02 METAR KLAX 121553Z 09003KT 8SM SCT019 BKN024 OVC140 18/11 A3002 RMK AO2 SLP164 T01780111 $ (DMQ)","FM-15","7",,,,,,,,,,,,,,,,,,,,,,,,,,,,
"72295023174","2020-05-12T08:53:00","FM-15","7",,,,,,,,,,,,,,,,,,,,,,,,,,,,,,,,,,,,,,"30.02","53","65","0.00",,,,"66","30.02","SCT:04 18 BKN:07 22 OVC:08 140","29.67","8.00","58","VRB",,"3",,,,,,,,,,,,,,,,,,,,,,,,,,,,,,,,,,,,,"MET11405/12/20 08:53:02 METAR KLAX 121653Z VRB03KT 8SM SCT018 BKN022 OVC140 18/12 A3002 RMK AO2 SLP165 T01830117 $ (DMQ)","FM-15","7",,,,,,,,,,,,,,,,,,,,,,,,,,,,
"72295023174","2020-05-12T09:53:00","FM-15","7",,,,,,,,,,,,,,,,,,,,,,,,,,,,,,,,,,,,,,"30.02","54","66","0.00",,"-0.01","1","65","30.02","SCT:04 17 BKN:07 21 OVC:08 27","29.67","8.00","59","250",,"5",,,,,,,,,,,,,,,,,,,,,,,,,,,,,,,,,,,,,"MET13205/12/20 09:53:02 METAR KLAX 121753Z 25004KT 8SM SCT017 BKN021 OVC027 19/12 A3002 RMK AO2 SLP165 T01890122 10189 20150 51005 $ (DMQ)","FM-15","7",,,,,,,,,,,,,,,,,,,,,,,,,,,,
"72295023174","2020-05-12T10:00:00","FM-12","4",,,,,,,,,,,,,,,,,,,,,,,,,,,,,,,,,,,,,,,"54","66",,,"-0.01","1","65","30.02","15",,"7.46",,"250",,"5",,,,,,,,,,,,,,,,,,,,,,,,,,,,,,,,,,,,,"SYN08072295 32462 82504 10189 20122 30110 40165 51005 91753 333 10189 20150 555 91218=","FM-12","4",,,,,,,,,,,,,,,,,,,,,,,,,,,,
"72295023174","2020-05-12T10:30:00","FM-16","7",,,,,,,,,,,,,,,,,,,,,,,,,,,,,,,,,,,,,,"30.02","55","67",,,,,"66",,"SCT:04 19 BKN:07 37 BKN:07 45","29.67","8.00","60","000",,"0",,,,,,,,,,,,,,,,,,,,,,,,,,,,,,,,,,,,,"MET10705/12/20 10:30:02 SPECI KLAX 121830Z 00000KT 8SM SCT019 BKN037 BKN045 19/13 A3002 RMK AO2 T01940128 $ (DMQ)","FM-16","7",,,,,,,,,,,,,,,,,,,,,,,,,,,,
"72295023174","2020-05-12T10:53:00","FM-15","7",,,,,,,,,,,,,,,,,,,,,,,,,,,,,,,,,,,,,,"30.02","54","68","0.00",,,,"61","30.01","FEW:02 24 BKN:07 46 BKN:07 60","29.67","8.00","60","200",,"6",,,,,,,,,,,,,,,,,,,,,,,,,,,,,,,,,,,,,"MET11405/12/20 10:53:02 METAR KLAX 121853Z 20005KT 8SM FEW024 BKN046 BKN060 20/12 A3002 RMK AO2 SLP164 T02000122 $ (DMQ)","FM-15","7",,,,,,,,,,,,,,,,,,,,,,,,,,,,
"72295023174","2020-05-12T11:16:00","FM-16","7",,,,,,,,,,,,,,,,,,,,,,,,,,,,,,,,,,,,,,"30.02","56","71",,,,,"59",,"BKN:07 22 BKN:07 48 BKN:07 60","29.67","9.00","62","240",,"13",,,,,,,,,,,,,,,,,,,,,,,,,,,,,,,,,,,,,"MET12005/12/20 11:16:02 SPECI KLAX 121916Z 24011KT 9SM BKN022 BKN048 BKN060 22/13 A3002 RMK AO2 BKN022 V SCT T02170133 $ (DMQ)","FM-16","7",,,,,,,,,,,,,,,,,,,,,,,,,,,,
"72295023174","2020-05-12T11:53:00","FM-15","7",,,,,,,,,,,,,,,,,,,,,,,,,,,,,,,,,,,,,,"30.02","56","71","0.00",,,,"59","30.01","SCT:04 18 SCT:04 27 BKN:07 33","29.67","9.00","62","230",,"14",,,,,,,,,,,,,,,,,,,,,,,,,,,,,,,,,,,,,"MET11405/12/20 11:53:02 METAR KLAX 121953Z 23012KT 9SM SCT018 SCT027 BKN033 22/13 A3002 RMK AO2 SLP164 T02170133 $ (DMQ)","FM-15","7",,,,,,,,,,,,,,,,,,,,,,,,,,,,
"72295023174","2020-05-12T12:53:00","FM-15","7",,,,,,,,,,,,,,,,,,,,,,,,,,,,,,,,,,,,,,"30.01","57","71","0.00",,"+0.01","8","61","30.01","SCT:04 15 BKN:07 32 BKN:07 70","29.66","9.00","63","230","21","13",,,,,,,,,,,,,,,,,,,,,,,,,,,,,,,,,,,,,"MET12305/12/20 12:53:02 METAR KLAX 122053Z 23011G18KT 9SM SCT015 BKN032 BKN070 22/14 A3001 RMK AO2 SLP162 T02170139 58003 $ (DMQ)","FM-15","7",,,,,,,,,,,,,,,,,,,,,,,,,,,,
"72295023174","2020-05-12T13:53:00","FM-15","7",,,,,,,,,,,,,,,,,,,,,,,,,,,,,,,,,,,,,,"30.00","58","70","0.00",,,,"66","30.00","SCT:04 14 BKN:07 70","29.65","10.00","63","250",,"15",,,,,,,,,,,,,,,,,,,,,,,,,,,,,,,,,,,,,"MET10705/12/20 13:53:02 METAR KLAX 122153Z 25013KT 10SM SCT014 BKN070 21/14 A3000 RMK AO2 SLP158 T02110144 $ (AR)","FM-15","7",,,,,,,,,,,,,,,,,,,,,,,,,,,,
"72295023174","2020-05-12T14:53:00","FM-15","7",,,,,,,,,,,,,,,,,,,,,,,,,,,,,,,,,,,,,,"29.98","58","70","0.00",,,,"66","29.98","BKN:07 13 BKN:07 70","29.63","10.00","63","230",,"15",,,,,,,,,,,,,,,,,,,,,,,,,,,,,,,,,,,,,"MET10705/12/20 14:53:02 METAR KLAX 122253Z 23013KT 10SM BKN013 BKN070 21/14 A2998 RMK AO2 SLP152 T02110144 $ (AR)","FM-15","7",,,,,,,,,,,,,,,,,,,,,,,,,,,,
"72295023174","2020-05-12T15:53:00","FM-15","7",,,,,,,,,,,,,,,,,,,,,,,,,,,,,,,,,,,,,,"29.98","58","69","0.00",,"+0.04","6","68","29.97","SCT:04 12 SCT:04 70","29.63","10.00","62","250",,"18",,,,,,,,,,,,,,,,,,,,,,,,,,,,,,,,,,,,,"MET12505/12/20 15:53:02 METAR KLAX 122353Z 25016KT 10SM SCT012 SCT070 21/14 A2998 RMK AO2 SLP149 T02060144 10222 20189 56013 $ (AR)","FM-15","7",,,,,,,,,,,,,,,,,,,,,,,,,,,,
"72295023174","2020-05-12T16:00:00","FM-12","4",,,,,,,,,,,,,,,,,,,,,,,,,,,,,,,,,,,,,,,"58","69",,,"+0.04","6","68","29.97","15",,"9.94",,"250",,"18",,,,,,,,,,,,,,,,,,,,,,,,,,,,,,,,,,,,,"SYN08072295 32466 42516 10206 20144 30097 40149 56013 92353 333 10222 20156 555 91300=","FM-12","4",,,,,,,,,,,,,,,,,,,,,,,,,,,,
"72295023174","2020-05-12T16:53:00","FM-15","7",,,,,,,,,,,,,,,,,,,,,,,,,,,,,,,,,,,,,,"29.96","57","69","0.00",,,,"66","29.96","FEW:02 15 SCT:04 55","29.61","10.00","62","260",,"18",,,,,,,,,,,,,,,,,,,,,,,,,,,,,,,,,,,,,"MET10205/12/20 16:53:01 METAR KLAX 130053Z 26016KT 10SM FEW015 SCT055 21/14 A2996 RMK AO2 SLP144 T02060139 $","FM-15","7",,,,,,,,,,,,,,,,,,,,,,,,,,,,
"72295023174","2020-05-12T17:53:00","FM-15","7",,,,,,,,,,,,,,,,,,,,,,,,,,,,,,,,,,,,,,"29.97","54","65","0.00",,,,"68","29.96","FEW:02 24 FEW:02 60 SCT:04 250","29.62","10.00","59","270",,"15",,,,,,,,,,,,,,,,,,,,,,,,,,,,,,,,,,,,,"MET10905/12/20 17:53:01 METAR KLAX 130153Z 27013KT 10SM FEW024 FEW060 SCT250 18/12 A2997 RMK AO2 SLP147 T01830122 $","FM-15","7",,,,,,,,,,,,,,,,,,,,,,,,,,,,
"72295023174","2020-05-12T18:53:00","FM-15","7",,,,,,,,,,,,,,,,,,,,,,,,,,,,,,,,,,,,,,"29.97","54","64","0.00",,"+0.00","5","70","29.97","FEW:02 24 FEW:02 60 SCT:04 250","29.62","10.00","58","230",,"11",,,,,,,,,,,,,,,,,,,,,,,,,,,,,,,,,,,,,"MET11505/12/20 18:53:01 METAR KLAX 130253Z 23010KT 10SM FEW024 FEW060 SCT250 18/12 A2997 RMK AO2 SLP148 T01780122 55001 $","FM-15","7",,,,,,,,,,,,,,,,,,,,,,,,,,,,
"72295023174","2020-05-12T19:53:00","FM-15","7",,,,,,,,,,,,,,,,,,,,,,,,,,,,,,,,,,,,,,"29.98","51","64","0.00",,,,"63","29.98","FEW:02 24 FEW:02 60","29.63","10.00","57","240",,"10",,,,,,,,,,,,,,,,,,,,,,,,,,,,,,,,,,,,,"MET10205/12/20 19:53:02 METAR KLAX 130353Z 24009KT 10SM FEW024 FEW060 18/11 A2998 RMK AO2 SLP151 T01780106 $","FM-15","7",,,,,,,,,,,,,,,,,,,,,,,,,,,,
"72295023174","2020-05-12T20:53:00","FM-15","7",,,,,,,,,,,,,,,,,,,,,,,,,,,,,,,,,,,,,,"29.99","49","65","0.00",,,,"56","29.99","FEW:02 60","29.64","10.00","56","270",,"16",,,,,,,,,,,,,,,,,,,,,,,,,,,,,,,,,,,,,"MET09505/12/20 20:53:02 METAR KLAX 130453Z 27014KT 10SM FEW060 18/09 A2999 RMK AO2 SLP155 T01830094 $","FM-15","7",,,,,,,,,,,,,,,,,,,,,,,,,,,,
"72295023174","2020-05-12T21:53:00","FM-15","7",,,,,,,,,,,,,,,,,,,,,,,,,,,,,,,,,,,,,,"30.00","47","63","0.00",,"-0.03","1","56","29.99","FEW:02 21 FEW:02 60 SCT:04 90","29.65","10.00","54","270",,"10",,,,,,,,,,,,,,,,,,,,,,,,,,,,,,,,,,,,,"MET12705/12/20 21:53:02 METAR KLAX 130553Z 27009KT 10SM FEW021 FEW060 SCT090 17/08 A3000 RMK AO2 SLP156 T01720083 10206 20172 51009 $","FM-15","7",,,,,,,,,,,,,,,,,,,,,,,,,,,,
"72295023174","2020-05-12T22:00:00","FM-12","4",,,,,,,,,,,,,,,,,,,,,,,,,,,,,,,,,,,,,,,"47","63",,,"-0.03","1","56","29.99","26",,"9.94",,"270",,"10",,,,,,,,,,,,,,,,,,,,,,,,,,,,,,,,,,,,,"SYN08072295 32566 42709 10172 20083 30103 40156 51009 90553 333 10206 20156 555 91306=","FM-12","4",,,,,,,,,,,,,,,,,,,,,,,,,,,,
"72295023174","2020-05-12T22:53:00","FM-15","7",,,,,,,,,,,,,,,,,,,,,,,,,,,,,,,,,,,,,,"30.00","51","63","0.00",,,,"65","29.99","FEW:02 14 FEW:02 60 SCT:04 90","29.65","10.00","56","270",,"11",,,,,,,,,,,,,,,,,,,,,,,,,,,,,,,,,,,,,"MET10905/12/20 22:53:02 METAR KLAX 130653Z 27010KT 10SM FEW014 FEW060 SCT090 17/11 A3000 RMK AO2 SLP155 T01720106 $","FM-15","7",,,,,,,,,,,,,,,,,,,,,,,,,,,,
"72295023174","2020-05-12T23:53:00","FM-15","7",,,,,,,,,,,,,,,,,,,,,,,,,,,,,,,,,,,,,,"29.98","52","62","0.00",,,,"70","29.98","FEW:02 15 FEW:02 60 SCT:04 150","29.63","10.00","56","260",,"10",,,,,,,,,,,,,,,,,,,,,,,,,,,,,,,,,,,,,"MET11905/12/20 23:53:02 METAR KLAX 130753Z 26009KT 10SM FEW015 FEW060 SCT150 17/11 A2998 RMK AO2 SLP151 T01670111 402220150 $","FM-15","7",,,,,,,,,,,,,,,,,,,,,,,,,,,,
"72295023174","2020-05-12T23:59:00","SOD  ","6",,,,,,,,,,,,,,,"53","66","66","29.99","29.64","58","9.6","1","3.5","0","72","59","230","24","0.00","0","0.0","250","20",,,,,,,,,,,,,,,,,,,,,,,,,,,,,,,,,,,,,,,,,,,,,,,,,,,,,,,,,"SOD73924 HR PRECIPITATION (IN): 0.00 SNOW DEPTH (IN):0     24 HR SNOWFALL (IN):0.0  24 HR MAX TEMP (F): 7224 HR MIN TEMP (F): 59AVERAGE STATION PRESSURE:29.640 MINIMUM SEA LEVEL PRESSURE:29.95 TIME OF OCCURRENCE:1723 PEAK WIND SPEED (MPH): 24 PEAK WIND DIR (DEG):230 PEAK WIND TIME (LST):      FASTEST 2MIN SPEED (MPH): 20FASTEST 2MIN DIR (DEG):250 FASTEST 2MIN TIME (LST):     AVERAGE WIND SPEED (MPH): 9.6 24 HR AVG TEMP (F): 66DEPART FROM NORMAL:  4  HEATING DEGREE DAYS:  0 COOLING DEGREE DAYS:  1 LATEST DAY MAX TEMP (0700-1900 LST):72  LATEST NIGHT MIN TEMP(1900-0800 LST):59 HOURLY INCREMENTAL PRECIPITATION VALUES (IN):.00 0.00 0.00 0.00 0.00 0.00 0.00 0.00 0.00 0.00 0.00 0.00 0.00 0.00 0.00 0.00 0.00 0.00 0.00 0.00 0.00 0.00 0.00 0.00","SOD  ","6",,,,,,,,,,,,,,,,,,,,,,,,,"0454","1846",,
"72295023174","2020-05-13T00:53:00","FM-15","7",,,,,,,,,,,,,,,,,,,,,,,,,,,,,,,,,,,,,,"29.98","53","62","0.00",,"+0.02","8","73","29.97","FEW:02 15 FEW:02 60 SCT:04 150","29.63","10.00","57","260",,"8",,,,,,,,,,,,,,,,,,,,,,,,,,,,,,,,,,,,,"MET12105/13/20 00:53:02 METAR KLAX 130853Z 26007KT 10SM FEW015 FEW060 SCT150 17/12 A2998 RMK AO2 SLP150 T01670117 58006 $ (RPA)","FM-15","7",,,,,,,,,,,,,,,,,,,,,,,,,,,,
"72295023174","2020-05-13T01:53:00","FM-15","7",,,,,,,,,,,,,,,,,,,,,,,,,,,,,,,,,,,,,,"29.97","51","61","0.00",,,,"70","29.96","FEW:02 10 FEW:02 18 SCT:04 150","29.62","10.00","56","270",,"7",,,,,,,,,,,,,,,,,,,,,,,,,,,,,,,,,,,,,"MET11505/13/20 01:53:02 METAR KLAX 130953Z 27006KT 10SM FEW010 FEW018 SCT150 16/11 A2997 RMK AO2 SLP146 T01610106 $ (RPA)","FM-15","7",,,,,,,,,,,,,,,,,,,,,,,,,,,,
"72295023174","2020-05-13T02:53:00","FM-15","7",,,,,,,,,,,,,,,,,,,,,,,,,,,,,,,,,,,,,,"29.96","52","60","0.00",,,,"75","29.96","FEW:02 10 FEW:02 18 SCT:04 150","29.61","10.00","56","260",,"7",,,,,,,,,,,,,,,,,,,,,,,,,,,,,,,,,,,,,"MET11505/13/20 02:53:02 METAR KLAX 131053Z 26006KT 10SM FEW010 FEW018 SCT150 16/11 A2996 RMK AO2 SLP144 T01560111 $ (RPA)","FM-15","7",,,,,,,,,,,,,,,,,,,,,,,,,,,,
"72295023174","2020-05-13T03:53:00","FM-15","7",,,,,,,,,,,,,,,,,,,,,,,,,,,,,,,,,,,,,,"29.96","52","60","0.00",,"+0.02","6","75","29.95","FEW:02 10 FEW:02 150","29.61","10.00","56","250",,"6",,,,,,,,,,,,,,,,,,,,,,,,,,,,,,,,,,,,,"MET12605/13/20 03:53:02 METAR KLAX 131153Z 25005KT 10SM FEW010 FEW150 16/11 A2996 RMK AO2 SLP141 T01560111 10178 20150 56008 $ (RPA)","FM-15","7",,,,,,,,,,,,,,,,,,,,,,,,,,,,
"72295023174","2020-05-13T04:00:00","FM-12","4",,,,,,,,,,,,,,,,,,,,,,,,,,,,,,,,,,,,,,,"52","60",,,"+0.02","6","75","29.95","15",,"9.94",,"250",,"6",,,,,,,,,,,,,,,,,,,,,,,,,,,,,,,,,,,,,"SYN08072295 32466 22505 10156 20111 30090 40141 56008 91153 333 10222 20150 555 91312=","FM-12","4",,,,,,,,,,,,,,,,,,,,,,,,,,,,
"72295023174","2020-05-13T04:36:00","FM-16","7",,,,,,,,,,,,,,,,,,,,,,,,,,,,,,,,,,,,,,"29.96","52","59",,,,,"78",,"FEW:02 8 FEW:02 11 SCT:04 200","29.61","10.00","55","260",,"5",,,,,,,,,,,,,,,,,,,,,,,,,,,,,,,,,,,,,"MET10805/13/20 04:36:02 SPECI KLAX 131236Z 26004KT 10SM FEW008 FEW011 SCT200 15/11 A2996 RMK AO2 T01500111 $ (RPA)","FM-16","7",,,,,,,,,,,,,,,,,,,,,,,,,,,,
"72295023174","2020-05-13T04:53:00","FM-15","7",,,,,,,,,,,,,,,,,,,,,,,,,,,,,,,,,,,,,,"29.96","52","60","0.00",,,,"75","29.95","FEW:02 8 FEW:02 17 SCT:04 160","29.61","10.00","56","260",,"5",,,,,,,,,,,,,,,,,,,,,,,,,,,,,,,,,,,,,"MET11505/13/20 04:53:02 METAR KLAX 131253Z 26004KT 10SM FEW008 FEW017 SCT160 16/11 A2996 RMK AO2 SLP142 T01560111 $ (RPA)","FM-15","7",,,,,,,,,,,,,,,,,,,,,,,,,,,,
"72295023174","2020-05-13T05:53:00","FM-15","7",,,,,,,,,,,,,,,,,,,,,,,,,,,,,,,,,,,,,,"29.97","53","62","0.00",,,,"73","29.97","FEW:02 9 SCT:04 13 SCT:04 160","29.62","7.00","57","020",,"3",,,,,,,,,,,,,,,,,,,,,,,,,,,,,,,,,,,,,"MET11405/13/20 05:53:02 METAR KLAX 131353Z 02003KT 7SM FEW009 SCT013 SCT160 17/12 A2997 RMK AO2 SLP149 T01670117 $ (DMQ)","FM-15","7",,,,,,,,,,,,,,,,,,,,,,,,,,,,
"72295023174","2020-05-13T06:53:00","FM-15","7",,,,,,,,,,,,,,,,,,,,,,,,,,,,,,,,,,,,,,"29.99","51","63","0.00",,"-0.04","3","65","29.99","FEW:02 14 FEW:02 160 SCT:04 250","29.64","7.00","56","000",,"0",,,,,,,,,,,,,,,,,,,,,,,,,,,,,,,,,,,,,"MET12005/13/20 06:53:02 METAR KLAX 131453Z 00000KT 7SM FEW014 FEW160 SCT250 17/11 A2999 RMK AO2 SLP156 T01720106 53013 $ (DMQ)","FM-15","7",,,,,,,,,,,,,,,,,,,,,,,,,,,,
"72295023174","2020-05-13T07:53:00","FM-15","7",,,,,,,,,,,,,,,,,,,,,,,,,,,,,,,,,,,,,,"30.00","50","66","0.00",,,,"56","29.99","FEW:02 11 SCT:04 15 SCT:04 160","29.65","7.00","57","160",,"6",,,,,,,,,,,,,,,,,,,,,,,,,,,,,,,,,,,,,"MET11405/13/20 07:53:02 METAR KLAX 131553Z 16005KT 7SM FEW011 SCT015 SCT160 19/10 A3000 RMK AO2 SLP157 T01890100 $ (DMQ)","FM-15","7",,,,,,,,,,,,,,,,,,,,,,,,,,,,
"72295023174","2020-05-13T08:53:00","FM-15","7",,,,,,,,,,,,,,,,,,,,,,,,,,,,,,,,,,,,,,"30.00","51","67","0.00",,,,"57","29.99","FEW:02 12 SCT:04 19 SCT:04 160","29.65","8.00","58","200",,"3",,,,,,,,,,,,,,,,,,,,,,,,,,,,,,,,,,,,,"MET11405/13/20 08:53:02 METAR KLAX 131653Z 20003KT 8SM FEW012 SCT019 SCT160 19/11 A3000 RMK AO2 SLP157 T01940106 $ (DMQ)","FM-15","7",,,,,,,,,,,,,,,,,,,,,,,,,,,,
"72295023174","2020-05-13T09:53:00","FM-15","7",,,,,,,,,,,,,,,,,,,,,,,,,,,,,,,,,,,,,,"30.01","53","70","0.00",,"-0.02","3","55","30.01","FEW:02 12 FEW:02 25 SCT:04 160","29.66","9.00","60","240",,"11",,,,,,,,,,,,,,,,,,,,,,,,,,,,,,,,,,,,,"MET13205/13/20 09:53:02 METAR KLAX 131753Z 24010KT 9SM FEW012 FEW025 SCT160 21/12 A3001 RMK AO2 SLP162 T02110117 10211 20150 53007 $ (DMQ)","FM-15","7",,,,,,,,,,,,,,,,,,,,,,,,,,,,
"72295023174","2020-05-13T10:00:00","FM-12","4",,,,,,,,,,,,,,,,,,,,,,,,,,,,,,,,,,,,,,,"53","70",,,"-0.02","3","55","30.01","15",,"8.70",,"240",,"11",,,,,,,,,,,,,,,,,,,,,,,,,,,,,,,,,,,,,"SYN08072295 32464 42410 10211 20117 30107 40162 53007 91753 333 10211 20150 555 91318=","FM-12","4",,,,,,,,,,,,,,,,,,,,,,,,,,,,
"72295023174","2020-05-13T10:53:00","FM-15","7",,,,,,,,,,,,,,,,,,,,,,,,,,,,,,,,,,,,,,"30.02","50","70","0.00",,,,"49","30.01","FEW:02 14 FEW:02 32 SCT:04 160","29.67","9.00","59","250","24","14",,,,,,,,,,,,,,,,,,,,,,,,,,,,,,,,,,,,,"MET11705/13/20 10:53:02 METAR KLAX 131853Z 25012G21KT 9SM FEW014 FEW032 SCT160 21/10 A3002 RMK AO2 SLP164 T02110100 $ (DMQ)","FM-15","7",,,,,,,,,,,,,,,,,,,,,,,,,,,,
"72295023174","2020-05-13T11:53:00","FM-15","7",,,,,,,,,,,,,,,,,,,,,,,,,,,,,,,,,,,,,,"30.01","50","71","0.00",,,,"47","30.01","FEW:02 18 SCT:04 35 SCT:04 160","29.66","9.00","59","240",,"13",,,,,,,,,,,,,,,,,,,,,,,,,,,,,,,,,,,,,"MET11405/13/20 11:53:02 METAR KLAX 131953Z 24011KT 9SM FEW018 SCT035 SCT160 22/10 A3001 RMK AO2 SLP161 T02170100 $ (DMQ)","FM-15","7",,,,,,,,,,,,,,,,,,,,,,,,,,,,
"72295023174","2020-05-13T12:53:00","FM-15","7",,,,,,,,,,,,,,,,,,,,,,,,,,,,,,,,,,,,,,"30.00","51","71","0.00",,"+0.01","8","49","29.99","FEW:02 19 SCT:04 37","29.65","10.00","60","250",,"15",,,,,,,,,,,,,,,,,,,,,,,,,,,,,,,,,,,,,"MET11405/13/20 12:53:02 METAR KLAX 132053Z 25013KT 10SM FEW019 SCT037 22/11 A3000 RMK AO2 SLP157 T02170106 58005 $ (DMQ)","FM-15","7",,,,,,,,,,,,,,,,,,,,,,,,,,,,
"72295023174","2020-05-13T13:53:00","FM-15","7",,,,,,,,,,,,,,,,,,,,,,,,,,,,,,,,,,,,,,"29.99","53","70","0.00",,,,"55","29.99","FEW:02 20 FEW:02 37","29.64","10.00","60","260",,"16",,,,,,,,,,,,,,,,,,,,,,,,,,,,,,,,,,,,,"MET10705/13/20 13:53:02 METAR KLAX 132153Z 26014KT 10SM FEW020 FEW037 21/12 A2999 RMK AO2 SLP156 T02110117 $ (AR)","FM-15","7",,,,,,,,,,,,,,,,,,,,,,,,,,,,
"72295023174","2020-05-13T14:53:00","FM-15","7",,,,,,,,,,,,,,,,,,,,,,,,,,,,,,,,,,,,,,"29.98","52","69","0.00",,,,"55","29.98","FEW:02 60 FEW:02 250","29.63","10.00","59","250",,"16",,,,,,,,,,,,,,,,,,,,,,,,,,,,,,,,,,,,,"MET10705/13/20 14:53:02 METAR KLAX 132253Z 25014KT 10SM FEW060 FEW250 21/11 A2998 RMK AO2 SLP152 T02060111 $ (AR)","FM-15","7",,,,,,,,,,,,,,,,,,,,,,,,,,,,
"72295023174","2020-05-13T15:53:00","FM-15","7",,,,,,,,,,,,,,,,,,,,,,,,,,,,,,,,,,,,,,"29.98","51","69","0.00",,"+0.02","8","53","29.97","FEW:02 60","29.63","10.00","59","250",,"15",,,,,,,,,,,,,,,,,,,,,,,,,,,,,,,,,,,,,"MET11805/13/20 15:53:02 METAR KLAX 132353Z 25013KT 10SM FEW060 21/11 A2998 RMK AO2 SLP150 T02060106 10217 20200 58007 $ (AR)","FM-15","7",,,,,,,,,,,,,,,,,,,,,,,,,,,,
"72295023174","2020-05-13T16:00:00","FM-12","4",,,,,,,,,,,,,,,,,,,,,,,,,,,,,,,,,,,,,,,"51","69",,,"+0.02","8","53","29.97","57",,"9.94",,"250",,"15",,,,,,,,,,,,,,,,,,,,,,,,,,,,,,,,,,,,,"SYN08072295 32766 22513 10206 20106 30097 40150 58007 92353 333 10217 20150 555 91400=","FM-12","4",,,,,,,,,,,,,,,,,,,,,,,,,,,,
"72295023174","2020-05-13T16:53:00","FM-15","7",,,,,,,,,,,,,,,,,,,,,,,,,,,,,,,,,,,,,,"29.97","48","68","0.00",,,,"49","29.96","FEW:02 50","29.62","10.00","57","260",,"20",,,,,,,,,,,,,,,,,,,,,,,,,,,,,,,,,,,,,"MET09505/13/20 16:53:01 METAR KLAX 140053Z 26017KT 10SM FEW050 20/09 A2997 RMK AO2 SLP147 T02000089 $","FM-15","7",,,,,,,,,,,,,,,,,,,,,,,,,,,,
"72295023174","2020-05-13T17:53:00","FM-15","7",,,,,,,,,,,,,,,,,,,,,,,,,,,,,,,,,,,,,,"29.96","51","67","0.00",,,,"57","29.96","CLR:00","29.61","10.00","58","260",,"20",,,,,,,,,,,,,,,,,,,,,,,,,,,,,,,,,,,,,"MET09205/13/20 17:53:01 METAR KLAX 140153Z 26017KT 10SM CLR 19/11 A2996 RMK AO2 SLP144 T01940106 $","FM-15","7",,,,,,,,,,,,,,,,,,,,,,,,,,,,
"72295023174","2020-05-13T18:53:00","FM-15","7",,,,,,,,,,,,,,,,,,,,,,,,,,,,,,,,,,,,,,"29.97","52","66","0.00",,"+0.01","5","61","29.97","CLR:00","29.62","10.00","58","260",,"20",,,,,,,,,,,,,,,,,,,,,,,,,,,,,,,,,,,,,"MET09805/13/20 18:53:01 METAR KLAX 140253Z 26017KT 10SM CLR 19/11 A2997 RMK AO2 SLP148 T01890111 55002 $","FM-15","7",,,,,,,,,,,,,,,,,,,,,,,,,,,,
"72295023174","2020-05-13T19:53:00","FM-15","7",,,,,,,,,,,,,,,,,,,,,,,,,,,,,,,,,,,,,,"29.99","53","65","0.00",,,,"66","29.98","CLR:00","29.64","10.00","58","280",,"11",,,,,,,,,,,,,,,,,,,,,,,,,,,,,,,,,,,,,"MET09205/13/20 19:53:02 METAR KLAX 140353Z 28010KT 10SM CLR 18/12 A2999 RMK AO2 SLP152 T01830117 $","FM-15","7",,,,,,,,,,,,,,,,,,,,,,,,,,,,
"72295023174","2020-05-13T20:53:00","FM-15","7",,,,,,,,,,,,,,,,,,,,,,,,,,,,,,,,,,,,,,"29.99","53","65","0.00",,,,"66","29.99","CLR:00","29.64","10.00","58","260",,"9",,,,,,,,,,,,,,,,,,,,,,,,,,,,,,,,,,,,,"MET09205/13/20 20:53:02 METAR KLAX 140453Z 26008KT 10SM CLR 18/12 A2999 RMK AO2 SLP155 T01830117 $","FM-15","7",,,,,,,,,,,,,,,,,,,,,,,,,,,,
"72295023174","2020-05-13T21:53:00","FM-15","7",,,,,,,,,,,,,,,,,,,,,,,,,,,,,,,,,,,,,,"30.00","52","63","0.00",,"-0.03","1","68","29.99","CLR:00","29.65","10.00","57","270",,"9",,,,,,,,,,,,,,,,,,,,,,,,,,,,,,,,,,,,,"MET11005/13/20 21:53:02 METAR KLAX 140553Z 27008KT 10SM CLR 17/11 A3000 RMK AO2 SLP157 T01720111 10206 20172 51009 $","FM-15","7",,,,,,,,,,,,,,,,,,,,,,,,,,,,
"72295023174","2020-05-13T22:00:00","FM-12","4",,,,,,,,,,,,,,,,,,,,,,,,,,,,,,,,,,,,,,,"52","63",,,"-0.03","1","68","29.99",,,"9.94",,"270",,"9",,,,,,,,,,,,,,,,,,,,,,,,,,,,,,,,,,,,,"SYN08072295 32966 02708 10172 20111 30103 40157 51009 90553 333 10206 20150 555 91406=","FM-12","4",,,,,,,,,,,,,,,,,,,,,,,,,,,,
"72295023174","2020-05-13T22:53:00","FM-15","7",,,,,,,,,,,,,,,,,,,,,,,,,,,,,,,,,,,,,,"29.99","53","63","0.00",,,,"70","29.98","FEW:02 160","29.64","10.00","57","260",,"5",,,,,,,,,,,,,,,,,,,,,,,,,,,,,,,,,,,,,"MET09505/13/20 22:53:02 METAR KLAX 140653Z 26004KT 10SM FEW160 17/12 A2999 RMK AO2 SLP154 T01720117 $","FM-15","7",,,,,,,,,,,,,,,,,,,,,,,,,,,,
"72295023174","2020-05-13T23:53:00","FM-15","7",,,,,,,,,,,,,,,,,,,,,,,,,,,,,,,,,,,,,,"30.00","53","64","0.00",,,,"68","29.99","FEW:02 18 FEW:02 160","29.65","10.00","58","000",,"0",,,,,,,,,,,,,,,,,,,,,,,,,,,,,,,,,,,,,"MET11205/13/20 23:53:02 METAR KLAX 140753Z 00000KT 10SM FEW018 FEW160 18/12 A3000 RMK AO2 SLP155 T01780117 402170150 $","FM-15","7",,,,,,,,,,,,,,,,,,,,,,,,,,,,
"72295023174","2020-05-13T23:59:00","SOD  ","6",,,,,,,,,,,,,,,"52","65","61","29.98","29.64","58","9.9","0","2.5","0","71","59","240","24","0.00","0","0.0","260","21",,,,,,,,,,,,,,,,,,,,,,,,,,,,,,,,,,,,,,,,,,,,,,,,,,,,,,,,,"SOD73924 HR PRECIPITATION (IN): 0.00 SNOW DEPTH (IN):0     24 HR SNOWFALL (IN):0.0  24 HR MAX TEMP (F): 7124 HR MIN TEMP (F): 59AVERAGE STATION PRESSURE:29.635 MINIMUM SEA LEVEL PRESSURE:29.95 TIME OF OCCURRENCE:1801 PEAK WIND SPEED (MPH): 24 PEAK WIND DIR (DEG):240 PEAK WIND TIME (LST):      FASTEST 2MIN SPEED (MPH): 21FASTEST 2MIN DIR (DEG):260 FASTEST 2MIN TIME (LST):     AVERAGE WIND SPEED (MPH): 9.9 24 HR AVG TEMP (F): 65DEPART FROM NORMAL:  3  HEATING DEGREE DAYS:  0 COOLING DEGREE DAYS:  0 LATEST DAY MAX TEMP (0700-1900 LST):71  LATEST NIGHT MIN TEMP(1900-0800 LST):59 HOURLY INCREMENTAL PRECIPITATION VALUES (IN):.00 0.00 0.00 0.00 0.00 0.00 0.00 0.00 0.00 0.00 0.00 0.00 0.00 0.00 0.00 0.00 0.00 0.00 0.00 0.00 0.00 0.00 0.00 0.00","SOD  ","6",,,,,,,,,,,,,,,,,,,,,,,,,"0453","1847",,
"72295023174","2020-05-14T00:53:00","FM-15","7",,,,,,,,,,,,,,,,,,,,,,,,,,,,,,,,,,,,,,"29.99","52","61","0.00",,"+0.01","7","72","29.98","FEW:02 18","29.64","10.00","56","090",,"6",,,,,,,,,,,,,,,,,,,,,,,,,,,,,,,,,,,,,"MET10705/14/20 00:53:02 METAR KLAX 140853Z 09005KT 10SM FEW018 16/11 A2999 RMK AO2 SLP152 T01610111 57005 $ (RPA)","FM-15","7",,,,,,,,,,,,,,,,,,,,,,,,,,,,
"72295023174","2020-05-14T01:53:00","FM-15","7",,,,,,,,,,,,,,,,,,,,,,,,,,,,,,,,,,,,,,"29.98","52","60","0.00",,,,"75","29.97","FEW:02 15","29.63","10.00","56","080",,"5",,,,,,,,,,,,,,,,,,,,,,,,,,,,,,,,,,,,,"MET10105/14/20 01:53:02 METAR KLAX 140953Z 08004KT 10SM FEW015 16/11 A2998 RMK AO2 SLP150 T01560111 $ (RPA)","FM-15","7",,,,,,,,,,,,,,,,,,,,,,,,,,,,
"72295023174","2020-05-14T02:53:00","FM-15","7",,,,,,,,,,,,,,,,,,,,,,,,,,,,,,,,,,,,,,"29.98","52","60","0.00",,,,"75","29.97","FEW:02 15","29.63","10.00","56","070",,"5",,,,,,,,,,,,,,,,,,,,,,,,,,,,,,,,,,,,,"MET10105/14/20 02:53:02 METAR KLAX 141053Z 07004KT 10SM FEW015 16/11 A2998 RMK AO2 SLP149 T01560111 $ (RPA)","FM-15","7",,,,,,,,,,,,,,,,,,,,,,,,,,,,
"72295023174","2020-05-14T03:53:00","FM-15","7",,,,,,,,,,,,,,,,,,,,,,,,,,,,,,,,,,,,,,"29.98","53","61","0.00",,"+0.00","5","75","29.98","FEW:02 11 FEW:02 17","29.63","10.00","57","VRB",,"3",,,,,,,,,,,,,,,,,,,,,,,,,,,,,,,,,,,,,"MET12605/14/20 03:53:02 METAR KLAX 141153Z VRB03KT 10SM FEW011 FEW017 16/12 A2998 RMK AO2 SLP151 T01610117 10178 20150 55001 $ (RPA)","FM-15","7",,,,,,,,,,,,,,,,,,,,,,,,,,,,
"72295023174","2020-05-14T04:00:00","FM-12","4",,,,,,,,,,,,,,,,,,,,,,,,,,,,,,,,,,,,,,,"53","61",,,"+0.00","5","75","29.98","15",,"9.94",,,,"3",,,,,,,,,,,,,,,,,,,,,,,,,,,,,,,,,,,,,"SYN08072295 32466 2//03 10161 20117 30097 40151 55001 91153 333 10217 20150 555 91412=","FM-12","4",,,,,,,,,,,,,,,,,,,,,,,,,,,,
"72295023174","2020-05-14T04:53:00","FM-15","7",,,,,,,,,,,,,,,,,,,,,,,,,,,,,,,,,,,,,,"29.98","52","60","0.00",,,,"75","29.98","FEW:02 11 FEW:02 18 SCT:04 150","29.63","10.00","56","090",,"6",,,,,,,,,,,,,,,,,,,,,,,,,,,,,,,,,,,,,"MET11505/14/20 04:53:02 METAR KLAX 141253Z 09005KT 10SM FEW011 FEW018 SCT150 16/11 A2998 RMK AO2 SLP152 T01560111 $ (RPA)","FM-15","7",,,,,,,,,,,,,,,,,,,,,,,,,,,,
"72295023174","2020-05-14T05:53:00","FM-15","7",,,,,,,,,,,,,,,,,,,,,,,,,,,,,,,,,,,,,,"30.00","52","61","0.00",,,,"72","30.00","FEW:02 12 FEW:02 19 SCT:04 180","29.65","7.00","56","090",,"6",,,,,,,,,,,,,,,,,,,,,,,,,,,,,,,,,,,,,"MET11405/14/20 05:53:02 METAR KLAX 141353Z 09005KT 7SM FEW012 FEW019 SCT180 16/11 A3000 RMK AO2 SLP158 T01610111 $ (DMQ)","FM-15","7",,,,,,,,,,,,,,,,,,,,,,,,,,,,
"72295023174","2020-05-14T06:53:00","FM-15","7",,,,,,,,,,,,,,,,,,,,,,,,,,,,,,,,,,,,,,"30.02","54","66","0.00",,"-0.04","3","65","30.01","FEW:02 11 SCT:04 17 SCT:04 180","29.67","7.00","59","080",,"6",,,,,,,,,,,,,,,,,,,,,,,,,,,,,,,,,,,,,"MET13305/14/20 06:53:02 METAR KLAX 141453Z 08005KT 7SM FEW011 SCT017 SCT180 19/12 A3002 RMK AO2 SLP164 SCT017 V BKN T01890122 53013 $ (DMQ)","FM-15","7",,,,,,,,,,,,,,,,,,,,,,,,,,,,
"72295023174","2020-05-14T07:53:00","FM-15","7",,,,,,,,,,,,,,,,,,,,,,,,,,,,,,,,,,,,,,"30.02","54","68","0.00",,,,"61","30.01","FEW:02 12 SCT:04 18 SCT:04 180","29.67","7.00","60","VRB",,"3",,,,,,,,,,,,,,,,,,,,,,,,,,,,,,,,,,,,,"MET12705/14/20 07:53:02 METAR KLAX 141553Z VRB03KT 7SM FEW012 SCT018 SCT180 20/12 A3002 RMK AO2 SLP163 SCT017 V BKN T02000122 $ (DMQ)","FM-15","7",,,,,,,,,,,,,,,,,,,,,,,,,,,,
"72295023174","2020-05-14T08:53:00","FM-15","7",,,,,,,,,,,,,,,,,,,,,,,,,,,,,,,,,,,,,,"30.01","52","71","0.00",,,,"51","30.01","FEW:02 14 SCT:04 19 BKN:07 180","29.66","8.00","60","040",,"3",,,,,,,,,,,,,,,,,,,,,,,,,,,,,,,,,,,,,"MET12605/14/20 08:53:02 METAR KLAX 141653Z 04003KT 8SM FEW014 SCT019 BKN180 22/11 A3001 RMK AO2 SLP162 T02170111 VISNO RWY24 $ (DMQ)","FM-15","7",,,,,,,,,,,,,,,,,,,,,,,,,,,,
"72295023174","2020-05-14T09:53:00","FM-15","7",,,,,,,,,,,,,,,,,,,,,,,,,,,,,,,,,,,,,,"30.01","56","70","0.00",,"+0.01","6","61","30.01","FEW:02 15 SCT:04 40 BKN:07 180","29.66","8.00","62","250",,"13",,,,,,,,,,,,,,,,,,,,,,,,,,,,,,,,,,,,,"MET13205/14/20 09:53:02 METAR KLAX 141753Z 25011KT 8SM FEW015 SCT040 BKN180 21/13 A3001 RMK AO2 SLP161 T02110133 10228 20144 56003 $ (DMQ)","FM-15","7",,,,,,,,,,,,,,,,,,,,,,,,,,,,
"72295023174","2020-05-14T10:00:00","FM-12","4",,,,,,,,,,,,,,,,,,,,,,,,,,,,,,,,,,,,,,,"56","70",,,"+0.01","6","61","30.01","15",,"7.46",,"250",,"13",,,,,,,,,,,,,,,,,,,,,,,,,,,,,,,,,,,,,"SYN08072295 32462 62511 10211 20133 30107 40161 56003 91753 333 10228 20144 555 91418=","FM-12","4",,,,,,,,,,,,,,,,,,,,,,,,,,,,
"72295023174","2020-05-14T10:53:00","FM-15","7",,,,,,,,,,,,,,,,,,,,,,,,,,,,,,,,,,,,,,"30.01","55","68","0.00",,,,"63","30.00","FEW:02 16 SCT:04 55 BKN:07 140","29.66","8.00","60","250",,"13",,,,,,,,,,,,,,,,,,,,,,,,,,,,,,,,,,,,,"MET11205/14/20 10:53:02 METAR KLAX 141853Z 25011KT 8SM FEW016 SCT055 BKN140 20/13 A3001 RMK AO2 SLP159 T02000128 (DMQ)","FM-15","7",,,,,,,,,,,,,,,,,,,,,,,,,,,,
"72295023174","2020-05-14T11:53:00","FM-15","7",,,,,,,,,,,,,,,,,,,,,,,,,,,,,,,,,,,,,,"29.99","55","69","0.00",,,,"61","29.99","FEW:02 20 FEW:02 70 SCT:04 140","29.64","9.00","61","260",,"21",,,,,,,,,,,,,,,,,,,,,,,,,,,,,,,,,,,,,"MET11205/14/20 11:53:02 METAR KLAX 141953Z 26018KT 9SM FEW020 FEW070 SCT140 21/13 A2999 RMK AO2 SLP155 T02060128 (DMQ)","FM-15","7",,,,,,,,,,,,,,,,,,,,,,,,,,,,
"72295023174","2020-05-14T12:53:00","FM-15","7",,,,,,,,,,,,,,,,,,,,,,,,,,,,,,,,,,,,,,"29.98","54","71","0.00",,"+0.04","8","55","29.97","FEW:02 25 FEW:02 75 SCT:04 140","29.63","10.00","61","260",,"20",,,,,,,,,,,,,,,,,,,,,,,,,,,,,,,,,,,,,"MET11905/14/20 12:53:02 METAR KLAX 142053Z 26017KT 10SM FEW025 FEW075 SCT140 22/12 A2998 RMK AO2 SLP149 T02170122 58012 (DMQ)","FM-15","7",,,,,,,,,,,,,,,,,,,,,,,,,,,,
"72295023174","2020-05-14T13:53:00","FM-15","7",,,,,,,,,,,,,,,,,,,,,,,,,,,,,,,,,,,,,,"29.96","53","70","0.00",,,,"55","29.95","FEW:02 75 FEW:02 200 SCT:04 250","29.61","10.00","60","250",,"17",,,,,,,,,,,,,,,,,,,,,,,,,,,,,,,,,,,,,"MET11205/14/20 13:53:02 METAR KLAX 142153Z 25015KT 10SM FEW075 FEW200 SCT250 21/12 A2996 RMK AO2 SLP143 T02110117 (AR)","FM-15","7",,,,,,,,,,,,,,,,,,,,,,,,,,,,
"72295023174","2020-05-14T14:53:00","FM-15","7",,,,,,,,,,,,,,,,,,,,,,,,,,,,,,,,,,,,,,"29.93","53","70","0.00",,,,"55","29.93","FEW:02 75 FEW:02 250","29.58","10.00","60","250","30","23",,,,,,,,,,,,,,,,,,,,,,,,,,,,,,,,,,,,,"MET12605/14/20 14:53:02 METAR KLAX 142253Z 25020G26KT 10SM FEW075 FEW250 21/12 A2993 RMK AO2 PK WND 25028/2235 SLP135 T02110117 (AR)","FM-15","7",,,,,,,,,,,,,,,,,,,,,,,,,,,,
"72295023174","2020-05-14T15:53:00","FM-15","7",,,,,,,,,,,,,,,,,,,,,,,,,,,,,,,,,,,,,,"29.92","53","69","0.00",,"+0.06","6","57","29.91","FEW:02 60 FEW:02 250","29.57","10.00","60","240","28","17",,,,,,,,,,,,,,,,,,,,,,,,,,,,,,,,,,,,,"MET14405/14/20 15:53:02 METAR KLAX 142353Z 24015G24KT 10SM FEW060 FEW250 21/12 A2992 RMK AO2 PK WND 24029/2304 SLP130 T02060117 10228 20194 56019 (AR)","FM-15","7",,,,,,,,,,,,,,,,,,,,,,,,,,,,
"72295023174","2020-05-14T16:00:00","FM-12","4",,,,,,,,,,,,,,,,,,,,,,,,,,,,,,,,,,,,,,,"53","69",,,"+0.06","6","57","29.91","57",,"9.94",,"240",,"17",,,,,,,,,,,,,,,,,,,,,,,,,,,,,,,,,,,,,"SYN08672295 32766 22415 10206 20117 30076 40130 56019 92353 333 10228 20150 91024 555 91500=","FM-12","4",,,,,,,,,,,,,,,,,,,,,,,,,,,,
"72295023174","2020-05-14T16:53:00","FM-15","7",,,,,,,,,,,,,,,,,,,,,,,,,,,,,,,,,,,,,,"29.92","53","69","0.00",,,,"57","29.91","FEW:02 150 FEW:02 250","29.57","10.00","60","250",,"13",,,,,,,,,,,,,,,,,,,,,,,,,,,,,,,,,,,,,"MET10005/14/20 16:53:01 METAR KLAX 150053Z 25011KT 10SM FEW150 FEW250 21/12 A2992 RMK AO2 SLP130 T02060117","FM-15","7",,,,,,,,,,,,,,,,,,,,,,,,,,,,
"72295023174","2020-05-14T17:53:00","FM-15","7",,,,,,,,,,,,,,,,,,,,,,,,,,,,,,,,,,,,,,"29.91","53","65","0.00",,,,"66","29.90","FEW:02 150 FEW:02 250","29.56","10.00","58","230",,"11",,,,,,,,,,,,,,,,,,,,,,,,,,,,,,,,,,,,,"MET10005/14/20 17:53:01 METAR KLAX 150153Z 23010KT 10SM FEW150 FEW250 18/12 A2991 RMK AO2 SLP126 T01830117","FM-15","7",,,,,,,,,,,,,,,,,,,,,,,,,,,,
"72295023174","2020-05-14T18:53:00","FM-15","7",,,,,,,,,,,,,,,,,,,,,,,,,,,,,,,,,,,,,,"29.91","54","64","0.00",,"+0.01","6","70","29.90","FEW:02 150 FEW:02 250","29.56","10.00","58","150",,"7",,,,,,,,,,,,,,,,,,,,,,,,,,,,,,,,,,,,,"MET10605/14/20 18:53:01 METAR KLAX 150253Z 15006KT 10SM FEW150 FEW250 18/12 A2991 RMK AO2 SLP125 T01780122 56005","FM-15","7",,,,,,,,,,,,,,,,,,,,,,,,,,,,
"72295023174","2020-05-14T19:53:00","FM-15","7",,,,,,,,,,,,,,,,,,,,,,,,,,,,,,,,,,,,,,"29.92","54","63","0.00",,,,"73","29.91","CLR:00","29.57","10.00","58","110",,"10",,,,,,,,,,,,,,,,,,,,,,,,,,,,,,,,,,,,,"MET09005/14/20 19:53:02 METAR KLAX 150353Z 11009KT 10SM CLR 17/12 A2992 RMK AO2 SLP130 T01720122","FM-15","7",,,,,,,,,,,,,,,,,,,,,,,,,,,,
"72295023174","2020-05-14T20:53:00","FM-15","7",,,,,,,,,,,,,,,,,,,,,,,,,,,,,,,,,,,,,,"29.93","54","64","0.00",,,,"70","29.93","CLR:00","29.58","10.00","58","090",,"8",,,,,,,,,,,,,,,,,,,,,,,,,,,,,,,,,,,,,"MET09005/14/20 20:53:02 METAR KLAX 150453Z 09007KT 10SM CLR 18/12 A2993 RMK AO2 SLP134 T01780122","FM-15","7",,,,,,,,,,,,,,,,,,,,,,,,,,,,
"72295023174","2020-05-14T21:53:00","FM-15","7",,,,,,,,,,,,,,,,,,,,,,,,,,,,,,,,,,,,,,"29.94","54","64","0.00",,"-0.04","1","70","29.94","CLR:00","29.59","10.00","58","110",,"13",,,,,,,,,,,,,,,,,,,,,,,,,,,,,,,,,,,,,"MET10805/14/20 21:53:02 METAR KLAX 150553Z 11011KT 10SM CLR 18/12 A2994 RMK AO2 SLP138 T01780122 10211 20172 51013","FM-15","7",,,,,,,,,,,,,,,,,,,,,,,,,,,,
"72295023174","2020-05-14T22:00:00","FM-12","4",,,,,,,,,,,,,,,,,,,,,,,,,,,,,,,,,,,,,,,"54","64",,,"-0.04","1","70","29.94",,,"9.94",,"110",,"13",,,,,,,,,,,,,,,,,,,,,,,,,,,,,,,,,,,,,"SYN08072295 32966 01111 10178 20122 30083 40138 51013 90553 333 10211 20150 555 91506=","FM-12","4",,,,,,,,,,,,,,,,,,,,,,,,,,,,
"72295023174","2020-05-14T22:53:00","FM-15","7",,,,,,,,,,,,,,,,,,,,,,,,,,,,,,,,,,,,,,"29.94","56","63","0.00",,,,"78","29.93","CLR:00","29.59","10.00","59","090",,"7",,,,,,,,,,,,,,,,,,,,,,,,,,,,,,,,,,,,,"MET09005/14/20 22:53:02 METAR KLAX 150653Z 09006KT 10SM CLR 17/13 A2994 RMK AO2 SLP137 T01720133","FM-15","7",,,,,,,,,,,,,,,,,,,,,,,,,,,,
"72295023174","2020-05-14T23:53:00","FM-15","7",,,,,,,,,,,,,,,,,,,,,,,,,,,,,,,,,,,,,,"29.94","55","62","0.00",,,,"78","29.93","CLR:00","29.59","10.00","58","000",,"0",,,,,,,,,,,,,,,,,,,,,,,,,,,,,,,,,,,,,"MET10005/14/20 23:53:02 METAR KLAX 150753Z 00000KT 10SM CLR 17/13 A2994 RMK AO2 SLP136 T01670128 402280144","FM-15","7",,,,,,,,,,,,,,,,,,,,,,,,,,,,
"72295023174","2020-05-14T23:59:00","SOD  ","6",,,,,,,,,,,,,,,"54","66","66","29.96","29.62","59","9.8","1","3.4","0","73","58","240","33","0.00","0","0.0","240","28",,,,,,,,,,,,,,,,,,,,,,,,,,,,,,,,,,,,,,,,,,,,,,,,,,,,,,,,,"SOD73924 HR PRECIPITATION (IN): 0.00 SNOW DEPTH (IN):0     24 HR SNOWFALL (IN):0.0  24 HR MAX TEMP (F): 7324 HR MIN TEMP (F): 58AVERAGE STATION PRESSURE:29.615 MINIMUM SEA LEVEL PRESSURE:29.90 TIME OF OCCURRENCE:1915 PEAK WIND SPEED (MPH): 33 PEAK WIND DIR (DEG):240 PEAK WIND TIME (LST):      FASTEST 2MIN SPEED (MPH): 28FASTEST 2MIN DIR (DEG):240 FASTEST 2MIN TIME (LST):     AVERAGE WIND SPEED (MPH): 9.8 24 HR AVG TEMP (F): 66DEPART FROM NORMAL:  3  HEATING DEGREE DAYS:  0 COOLING DEGREE DAYS:  1 LATEST DAY MAX TEMP (0700-1900 LST):73  LATEST NIGHT MIN TEMP(1900-0800 LST):58 HOURLY INCREMENTAL PRECIPITATION VALUES (IN):.00 0.00 0.00 0.00 0.00 0.00 0.00 0.00 0.00 0.00 0.00 0.00 0.00 0.00 0.00 0.00 0.00 0.00 0.00 0.00 0.00 0.00 0.00 0.00","SOD  ","6",,,,,,,,,,,,,,,,,,,,,,,,,"0452","1848",,
"72295023174","2020-05-15T00:53:00","FM-15","7",,,,,,,,,,,,,,,,,,,,,,,,,,,,,,,,,,,,,,"29.94","55","62","0.00",,"+0.00","5","78","29.93","CLR:00","29.59","10.00","58","000",,"0",,,,,,,,,,,,,,,,,,,,,,,,,,,,,,,,,,,,,"MET10205/15/20 00:53:02 METAR KLAX 150853Z 00000KT 10SM CLR 17/13 A2994 RMK AO2 SLP137 T01670128 55001 (RPA)","FM-15","7",,,,,,,,,,,,,,,,,,,,,,,,,,,,
"72295023174","2020-05-15T01:53:00","FM-15","7",,,,,,,,,,,,,,,,,,,,,,,,,,,,,,,,,,,,,,"29.93","55","60","0.00",,,,"84","29.93","FEW:02 9 SCT:04 170 SCT:04 250","29.58","10.00","57","080",,"5",,,,,,,,,,,,,,,,,,,,,,,,,,,,,,,,,,,,,"MET11305/15/20 01:53:02 METAR KLAX 150953Z 08004KT 10SM FEW009 SCT170 SCT250 16/13 A2993 RMK AO2 SLP134 T01560128 (RPA)","FM-15","7",,,,,,,,,,,,,,,,,,,,,,,,,,,,
"72295023174","2020-05-15T02:53:00","FM-15","7",,,,,,,,,,,,,,,,,,,,,,,,,,,,,,,,,,,,,,"29.93","55","60","0.00",,,,"84","29.92","FEW:02 9 FEW:02 170 SCT:04 250","29.58","10.00","57","090",,"5",,,,,,,,,,,,,,,,,,,,,,,,,,,,,,,,,,,,,"MET11305/15/20 02:53:02 METAR KLAX 151053Z 09004KT 10SM FEW009 FEW170 SCT250 16/13 A2993 RMK AO2 SLP131 T01560128 (RPA)","FM-15","7",,,,,,,,,,,,,,,,,,,,,,,,,,,,
"72295023174","2020-05-15T03:53:00","FM-15","7",,,,,,,,,,,,,,,,,,,,,,,,,,,,,,,,,,,,,,"29.93","55","60","0.00",,"+0.01","5","84","29.92","FEW:02 9 FEW:02 250","29.58","10.00","57","060",,"3",,,,,,,,,,,,,,,,,,,,,,,,,,,,,,,,,,,,,"MET12405/15/20 03:53:02 METAR KLAX 151153Z 06003KT 10SM FEW009 FEW250 16/13 A2993 RMK AO2 SLP133 T01560128 10178 20150 55004 (RPA)","FM-15","7",,,,,,,,,,,,,,,,,,,,,,,,,,,,
"72295023174","2020-05-15T04:00:00","FM-12","4",,,,,,,,,,,,,,,,,,,,,,,,,,,,,,,,,,,,,,,"55","60",,,"+0.01","5","84","29.92","8",,"9.94",,"060",,"3",,,,,,,,,,,,,,,,,,,,,,,,,,,,,,,,,,,,,"SYN08072295 32366 20603 10156 20128 30080 40133 55004 91153 333 10228 20150 555 91512=","FM-12","4",,,,,,,,,,,,,,,,,,,,,,,,,,,,
"72295023174","2020-05-15T04:53:00","FM-15","7",,,,,,,,,,,,,,,,,,,,,,,,,,,,,,,,,,,,,,"29.93","55","59","0.00",,,,"87","29.93","FEW:02 8 FEW:02 19 SCT:04 200","29.58","8.00","57","VRB",,"3",,,,,,,,,,,,,,,,,,,,,,,,,,,,,,,,,,,,,"MET11205/15/20 04:53:02 METAR KLAX 151253Z VRB03KT 8SM FEW008 FEW019 SCT200 15/13 A2993 RMK AO2 SLP135 T01500128 (RPA)","FM-15","7",,,,,,,,,,,,,,,,,,,,,,,,,,,,
"72295023174","2020-05-15T05:53:00","FM-15","7",,,,,,,,,,,,,,,,,,,,,,,,,,,,,,,,,,,,,,"29.95","57","63","0.00",,,,"81","29.94","SCT:04 11 SCT:04 19 BKN:07 180","29.60","7.00","60","VRB",,"6",,,,,,,,,,,,,,,,,,,,,,,,,,,,,,,,,,,,,"MET11205/15/20 05:53:02 METAR KLAX 151353Z VRB05KT 7SM SCT011 SCT019 BKN180 17/14 A2995 RMK AO2 SLP139 T01720139 (DMQ)","FM-15","7",,,,,,,,,,,,,,,,,,,,,,,,,,,,
"72295023174","2020-05-15T06:53:00","FM-15","7",,,,,,,,,,,,,,,,,,,,,,,,,,,,,,,,,,,,,,"29.96","57","65","0.00",,"-0.02","3","76","29.95","FEW:02 11 SCT:04 13 BKN:07 180","29.61","7.00","60","120",,"6",,,,,,,,,,,,,,,,,,,,,,,,,,,,,,,,,,,,,"MET11805/15/20 06:53:02 METAR KLAX 151453Z 12005KT 7SM FEW011 SCT013 BKN180 18/14 A2996 RMK AO2 SLP142 T01830139 53008 (DMQ)","FM-15","7",,,,,,,,,,,,,,,,,,,,,,,,,,,,
"72295023174","2020-05-15T07:53:00","FM-15","7",,,,,,,,,,,,,,,,,,,,,,,,,,,,,,,,,,,,,,"29.95","56","67","0.00",,,,"68","29.94","FEW:02 14 SCT:04 180","29.60","7.00","61","150",,"5",,,,,,,,,,,,,,,,,,,,,,,,,,,,,,,,,,,,,"MET10505/15/20 07:53:02 METAR KLAX 151553Z 15004KT 7SM FEW014 SCT180 19/13 A2995 RMK AO2 SLP140 T01940133 (DMQ)","FM-15","7",,,,,,,,,,,,,,,,,,,,,,,,,,,,
"72295023174","2020-05-15T08:53:00","FM-15","7",,,,,,,,,,,,,,,,,,,,,,,,,,,,,,,,,,,,,,"29.94","55","69","0.00",,,,"61","29.93","FEW:02 17 SCT:04 180","29.59","8.00","61","230",,"3",,,,,,,,,,,,,,,,,,,,,,,,,,,,,,,,,,,,,"MET10505/15/20 08:53:02 METAR KLAX 151653Z 23003KT 8SM FEW017 SCT180 21/13 A2994 RMK AO2 SLP135 T02060128 (DMQ)","FM-15","7",,,,,,,,,,,,,,,,,,,,,,,,,,,,
"72295023174","2020-05-15T09:53:00","FM-15","7",,,,,,,,,,,,,,,,,,,,,,,,,,,,,,,,,,,,,,"29.94","57","70","0.00",,"+0.01","5","64","29.94","FEW:02 19 SCT:04 200","29.59","8.00","62","220",,"13",,,,,,,,,,,,,,,,,,,,,,,,,,,,,,,,,,,,,"MET12305/15/20 09:53:02 METAR KLAX 151753Z 22011KT 8SM FEW019 SCT200 21/14 A2994 RMK AO2 SLP138 T02110139 10228 20150 55004 (DMQ)","FM-15","7",,,,,,,,,,,,,,,,,,,,,,,,,,,,
"72295023174","2020-05-15T10:00:00","FM-12","4",,,,,,,,,,,,,,,,,,,,,,,,,,,,,,,,,,,,,,,"57","70",,,"+0.01","5","64","29.94","15",,"7.46",,"220",,"13",,,,,,,,,,,,,,,,,,,,,,,,,,,,,,,,,,,,,"SYN08072295 32462 42211 10211 20139 30083 40138 55004 91753 333 10228 20150 555 91518=","FM-12","4",,,,,,,,,,,,,,,,,,,,,,,,,,,,
"72295023174","2020-05-15T10:53:00","FM-15","7",,,,,,,,,,,,,,,,,,,,,,,,,,,,,,,,,,,,,,"29.94","57","68","0.00",,,,"68","29.93","SCT:04 20 SCT:04 200","29.59","8.00","62","230","20","11",,,,,,,,,,,,,,,,,,,,,,,,,,,,,,,,,,,,,"MET10805/15/20 10:53:02 METAR KLAX 151853Z 23010G17KT 8SM SCT020 SCT200 20/14 A2994 RMK AO2 SLP136 T02000139 (DMQ)","FM-15","7",,,,,,,,,,,,,,,,,,,,,,,,,,,,
"72295023174","2020-05-15T11:53:00","FM-15","7",,,,,,,,,,,,,,,,,,,,,,,,,,,,,,,,,,,,,,"29.92","57","70","0.00",,,,"64","29.92","FEW:02 25 FEW:02 32","29.57","8.00","62","240",,"10",,,,,,,,,,,,,,,,,,,,,,,,,,,,,,,,,,,,,"MET10505/15/20 11:53:02 METAR KLAX 151953Z 24009KT 8SM FEW025 FEW032 21/14 A2992 RMK AO2 SLP132 T02110139 (DMQ)","FM-15","7",,,,,,,,,,,,,,,,,,,,,,,,,,,,
"72295023174","2020-05-15T12:53:00","FM-15","7",,,,,,,,,,,,,,,,,,,,,,,,,,,,,,,,,,,,,,"29.91","56","69","0.00",,"+0.03","8","63","29.91","FEW:02 22","29.56","9.00","61","250",,"13",,,,,,,,,,,,,,,,,,,,,,,,,,,,,,,,,,,,,"MET10405/15/20 12:53:02 METAR KLAX 152053Z 25011KT 9SM FEW022 21/13 A2991 RMK AO2 SLP128 T02060133 58009 (DMQ)","FM-15","7",,,,,,,,,,,,,,,,,,,,,,,,,,,,
"72295023174","2020-05-15T13:53:00","FM-15","7",,,,,,,,,,,,,,,,,,,,,,,,,,,,,,,,,,,,,,"29.89","53","70","0.00",,,,"55","29.89","FEW:02 20","29.54","10.00","60","230",,"11",,,,,,,,,,,,,,,,,,,,,,,,,,,,,,,,,,,,,"MET09305/15/20 13:53:02 METAR KLAX 152153Z 23010KT 10SM FEW020 21/12 A2989 RMK AO2 SLP121 T02110117","FM-15","7",,,,,,,,,,,,,,,,,,,,,,,,,,,,
"72295023174","2020-05-15T14:53:00","FM-15","7",,,,,,,,,,,,,,,,,,,,,,,,,,,,,,,,,,,,,,"29.87","54","70","0.00",,,,"57","29.87","FEW:02 20","29.52","10.00","61","240",,"13",,,,,,,,,,,,,,,,,,,,,,,,,,,,,,,,,,,,,"MET09805/15/20 14:53:02 METAR KLAX 152253Z 24011KT 10SM FEW020 21/12 A2987 RMK AO2 SLP115 T02110122 (MN)","FM-15","7",,,,,,,,,,,,,,,,,,,,,,,,,,,,
"72295023174","2020-05-15T15:53:00","FM-15","7",,,,,,,,,,,,,,,,,,,,,,,,,,,,,,,,,,,,,,"29.86","53","70","0.00",,"+0.05","6","55","29.85","CLR:00","29.51","10.00","60","250",,"10",,,,,,,,,,,,,,,,,,,,,,,,,,,,,,,,,,,,,"MET11305/15/20 15:53:02 METAR KLAX 152353Z 25009KT 10SM CLR 21/12 A2986 RMK AO2 SLP110 T02110117 10228 20200 56018 (MN)","FM-15","7",,,,,,,,,,,,,,,,,,,,,,,,,,,,
"72295023174","2020-05-15T16:00:00","FM-12","4",,,,,,,,,,,,,,,,,,,,,,,,,,,,,,,,,,,,,,,"53","70",,,"+0.05","6","55","29.85",,,"9.94",,"250",,"10",,,,,,,,,,,,,,,,,,,,,,,,,,,,,,,,,,,,,"SYN08072295 32966 02509 10211 20117 30056 40110 56018 92353 333 10228 20150 555 91600=","FM-12","4",,,,,,,,,,,,,,,,,,,,,,,,,,,,
"72295023174","2020-05-15T16:53:00","FM-15","7",,,,,,,,,,,,,,,,,,,,,,,,,,,,,,,,,,,,,,"29.85","54","68","0.00",,,,"61","29.85","CLR:00","29.50","10.00","60","270",,"22",,,,,,,,,,,,,,,,,,,,,,,,,,,,,,,,,,,,,"MET09005/15/20 16:53:01 METAR KLAX 160053Z 27019KT 10SM CLR 20/12 A2985 RMK AO2 SLP108 T02000122","FM-15","7",,,,,,,,,,,,,,,,,,,,,,,,,,,,
"72295023174","2020-05-15T17:53:00","FM-15","7",,,,,,,,,,,,,,,,,,,,,,,,,,,,,,,,,,,,,,"29.86","55","66","0.00",,,,"68","29.85","CLR:00","29.51","10.00","60","270",,"13",,,,,,,,,,,,,,,,,,,,,,,,,,,,,,,,,,,,,"MET09005/15/20 17:53:01 METAR KLAX 160153Z 27011KT 10SM CLR 19/13 A2986 RMK AO2 SLP109 T01890128","FM-15","7",,,,,,,,,,,,,,,,,,,,,,,,,,,,
"72295023174","2020-05-15T18:53:00","FM-15","7",,,,,,,,,,,,,,,,,,,,,,,,,,,,,,,,,,,,,,"29.86","55","64","0.00",,"+0.01","6","73","29.85","CLR:00","29.51","10.00","59","240",,"10",,,,,,,,,,,,,,,,,,,,,,,,,,,,,,,,,,,,,"MET09605/15/20 18:53:01 METAR KLAX 160253Z 24009KT 10SM CLR 18/13 A2986 RMK AO2 SLP108 T01780128 56002","FM-15","7",,,,,,,,,,,,,,,,,,,,,,,,,,,,
"72295023174","2020-05-15T19:53:00","FM-15","7",,,,,,,,,,,,,,,,,,,,,,,,,,,,,,,,,,,,,,"29.87","53","64","0.00",,,,"68","29.86","CLR:00","29.52","10.00","58","230",,"7",,,,,,,,,,,,,,,,,,,,,,,,,,,,,,,,,,,,,"MET09005/15/20 19:53:02 METAR KLAX 160353Z 23006KT 10SM CLR 18/12 A2987 RMK AO2 SLP113 T01780117","FM-15","7",,,,,,,,,,,,,,,,,,,,,,,,,,,,
"72295023174","2020-05-15T20:53:00","FM-15","7",,,,,,,,,,,,,,,,,,,,,,,,,,,,,,,,,,,,,,"29.88","53","62","0.00",,,,"73","29.88","CLR:00","29.53","10.00","57","220",,"6",,,,,,,,,,,,,,,,,,,,,,,,,,,,,,,,,,,,,"MET09005/15/20 20:53:02 METAR KLAX 160453Z 22005KT 10SM CLR 17/12 A2988 RMK AO2 SLP117 T01670117","FM-15","7",,,,,,,,,,,,,,,,,,,,,,,,,,,,
"72295023174","2020-05-15T21:53:00","FM-15","7",,,,,,,,,,,,,,,,,,,,,,,,,,,,,,,,,,,,,,"29.89","53","62","0.00",,"-0.03","1","73","29.88","CLR:00","29.54","10.00","57","000",,"0",,,,,,,,,,,,,,,,,,,,,,,,,,,,,,,,,,,,,"MET10805/15/20 21:53:02 METAR KLAX 160553Z 00000KT 10SM CLR 17/12 A2989 RMK AO2 SLP118 T01670117 10211 20161 51010","FM-15","7",,,,,,,,,,,,,,,,,,,,,,,,,,,,
"72295023174","2020-05-15T22:00:00","FM-12","4",,,,,,,,,,,,,,,,,,,,,,,,,,,,,,,,,,,,,,,"53","62",,,"-0.03","1","73","29.88",,,"9.94",,"000",,"0",,,,,,,,,,,,,,,,,,,,,,,,,,,,,,,,,,,,,"SYN08072295 32966 00000 10167 20117 30066 40118 51010 90553 333 10211 20150 555 91606=","FM-12","4",,,,,,,,,,,,,,,,,,,,,,,,,,,,
"72295023174","2020-05-15T22:53:00","FM-15","7",,,,,,,,,,,,,,,,,,,,,,,,,,,,,,,,,,,,,,"29.88","53","63","0.00",,,,"70","29.87","CLR:00","29.53","10.00","57","180",,"5",,,,,,,,,,,,,,,,,,,,,,,,,,,,,,,,,,,,,"MET09005/15/20 22:53:02 METAR KLAX 160653Z 18004KT 10SM CLR 17/12 A2988 RMK AO2 SLP116 T01720117","FM-15","7",,,,,,,,,,,,,,,,,,,,,,,,,,,,
"72295023174","2020-05-15T23:53:00","FM-15","7",,,,,,,,,,,,,,,,,,,,,,,,,,,,,,,,,,,,,,"29.88","54","64","0.00",,,,"70","29.88","CLR:00","29.53","10.00","58","000",,"0",,,,,,,,,,,,,,,,,,,,,,,,,,,,,,,,,,,,,"MET10005/15/20 23:53:02 METAR KLAX 160753Z 00000KT 10SM CLR 18/12 A2988 RMK AO2 SLP117 T01780122 402280150","FM-15","7",,,,,,,,,,,,,,,,,,,,,,,,,,,,
"72295023174","2020-05-15T23:59:00","SOD  ","6",,,,,,,,,,,,,,,"55","66","70","29.90","29.55","59","7.5","1","3.3","0","73","59","270","28","0.00","0","0.0","270","24",,,,,,,,,,,,,,,,,,,,,,,,,,,,,,,,,,,,,,,,,,,,,,,,,,,,,,,,,"SOD73924 HR PRECIPITATION (IN): 0.00 SNOW DEPTH (IN):0     24 HR SNOWFALL (IN):0.0  24 HR MAX TEMP (F): 7324 HR MIN TEMP (F): 59AVERAGE STATION PRESSURE:29.555 MINIMUM SEA LEVEL PRESSURE:29.85 TIME OF OCCURRENCE:1936 PEAK WIND SPEED (MPH): 28 PEAK WIND DIR (DEG):270 PEAK WIND TIME (LST):      FASTEST 2MIN SPEED (MPH): 24FASTEST 2MIN DIR (DEG):270 FASTEST 2MIN TIME (LST):     AVERAGE WIND SPEED (MPH): 7.5 24 HR AVG TEMP (F): 66DEPART FROM NORMAL:  3  HEATING DEGREE DAYS:  0 COOLING DEGREE DAYS:  1 LATEST DAY MAX TEMP (0700-1900 LST):73  LATEST NIGHT MIN TEMP(1900-0800 LST):59 HOURLY INCREMENTAL PRECIPITATION VALUES (IN):.00 0.00 0.00 0.00 0.00 0.00 0.00 0.00 0.00 0.00 0.00 0.00 0.00 0.00 0.00 0.00 0.00 0.00 0.00 0.00 0.00 0.00 0.00 0.00","SOD  ","6",,,,,,,,,,,,,,,,,,,,,,,,,"0452","1849",,
"72295023174","2020-05-16T00:53:00","FM-15","7",,,,,,,,,,,,,,,,,,,,,,,,,,,,,,,,,,,,,,"29.87","53","61","0.00",,"+0.01","8","75","29.86","CLR:00","29.52","10.00","57","080",,"3",,,,,,,,,,,,,,,,,,,,,,,,,,,,,,,,,,,,,"MET10105/16/20 00:53:02 METAR KLAX 160853Z 08003KT 10SM CLR 16/12 A2987 RMK AO2 SLP113 T01610117 58005 (RA)","FM-15","7",,,,,,,,,,,,,,,,,,,,,,,,,,,,
"72295023174","2020-05-16T01:53:00","FM-15","7",,,,,,,,,,,,,,,,,,,,,,,,,,,,,,,,,,,,,,"29.85","54","60","0.00",,,,"80","29.85","FEW:02 200","29.50","10.00","57","100",,"5",,,,,,,,,,,,,,,,,,,,,,,,,,,,,,,,,,,,,"MET09805/16/20 01:53:02 METAR KLAX 160953Z 10004KT 10SM FEW200 16/12 A2985 RMK AO2 SLP107 T01560122 (RA)","FM-15","7",,,,,,,,,,,,,,,,,,,,,,,,,,,,
"72295023174","2020-05-16T02:53:00","FM-15","7",,,,,,,,,,,,,,,,,,,,,,,,,,,,,,,,,,,,,,"29.85","53","60","0.00",,,,"78","29.84","FEW:02 200","29.50","10.00","56","080",,"3",,,,,,,,,,,,,,,,,,,,,,,,,,,,,,,,,,,,,"MET09805/16/20 02:53:02 METAR KLAX 161053Z 08003KT 10SM FEW200 16/12 A2985 RMK AO2 SLP104 T01560117 (RA)","FM-15","7",,,,,,,,,,,,,,,,,,,,,,,,,,,,
"72295023174","2020-05-16T03:53:00","FM-15","7",,,,,,,,,,,,,,,,,,,,,,,,,,,,,,,,,,,,,,"29.84","53","61","0.00",,"+0.03","6","75","29.83","CLR:00","29.49","10.00","57","000",,"0",,,,,,,,,,,,,,,,,,,,,,,,,,,,,,,,,,,,,"MET11305/16/20 03:53:02 METAR KLAX 161153Z 00000KT 10SM CLR 16/12 A2984 RMK AO2 SLP102 T01610117 10178 20150 56011 (RA)","FM-15","7",,,,,,,,,,,,,,,,,,,,,,,,,,,,
"72295023174","2020-05-16T04:00:00","FM-12","4",,,,,,,,,,,,,,,,,,,,,,,,,,,,,,,,,,,,,,,"53","61",,,"+0.03","6","75","29.83",,,"9.94",,"000",,"0",,,,,,,,,,,,,,,,,,,,,,,,,,,,,,,,,,,,,"SYN08072295 32966 00000 10161 20117 30049 40102 56011 91153 333 10228 20150 555 91612=","FM-12","4",,,,,,,,,,,,,,,,,,,,,,,,,,,,
"72295023174","2020-05-16T04:53:00","FM-15","7",,,,,,,,,,,,,,,,,,,,,,,,,,,,,,,,,,,,,,"29.85","53","61","0.00",,,,"75","29.84","FEW:02 250","29.50","10.00","57","320",,"3",,,,,,,,,,,,,,,,,,,,,,,,,,,,,,,,,,,,,"MET09805/16/20 04:53:02 METAR KLAX 161253Z 32003KT 10SM FEW250 16/12 A2985 RMK AO2 SLP105 T01610117 (RA)","FM-15","7",,,,,,,,,,,,,,,,,,,,,,,,,,,,
"72295023174","2020-05-16T05:53:00","FM-15","7",,,,,,,,,,,,,,,,,,,,,,,,,,,,,,,,,,,,,,"29.86","54","63","0.00",,,,"73","29.86","FEW:02 250","29.51","10.00","58","340",,"3",,,,,,,,,,,,,,,,,,,,,,,,,,,,,,,,,,,,,"MET09805/16/20 05:53:02 METAR KLAX 161353Z 34003KT 10SM FEW250 17/12 A2986 RMK AO2 SLP111 T01720122 (KN)","FM-15","7",,,,,,,,,,,,,,,,,,,,,,,,,,,,
"72295023174","2020-05-16T06:53:00","FM-15","7",,,,,,,,,,,,,,,,,,,,,,,,,,,,,,,,,,,,,,"29.88","55","66","0.00",,"-0.04","3","68","29.87","FEW:02 250","29.53","10.00","60","000",,"0",,,,,,,,,,,,,,,,,,,,,,,,,,,,,,,,,,,,,"MET10405/16/20 06:53:02 METAR KLAX 161453Z 00000KT 10SM FEW250 19/13 A2988 RMK AO2 SLP116 T01890128 53014 (KN)","FM-15","7",,,,,,,,,,,,,,,,,,,,,,,,,,,,
"72295023174","2020-05-16T07:53:00","FM-15","7",,,,,,,,,,,,,,,,,,,,,,,,,,,,,,,,,,,,,,"29.88","56","69","0.00",,,,"63","29.88","FEW:02 250","29.53","10.00","61","VRB",,"3",,,,,,,,,,,,,,,,,,,,,,,,,,,,,,,,,,,,,"MET09805/16/20 07:53:02 METAR KLAX 161553Z VRB03KT 10SM FEW250 21/13 A2988 RMK AO2 SLP118 T02060133 (KN)","FM-15","7",,,,,,,,,,,,,,,,,,,,,,,,,,,,
"72295023174","2020-05-16T08:53:00","FM-15","7",,,,,,,,,,,,,,,,,,,,,,,,,,,,,,,,,,,,,,"29.89","56","72","0.00",,,,"57","29.88","FEW:02 250","29.54","10.00","62","VRB",,"7",,,,,,,,,,,,,,,,,,,,,,,,,,,,,,,,,,,,,"MET09805/16/20 08:53:02 METAR KLAX 161653Z VRB06KT 10SM FEW250 22/13 A2989 RMK AO2 SLP119 T02220133 (KN)","FM-15","7",,,,,,,,,,,,,,,,,,,,,,,,,,,,
"72295023174","2020-05-16T09:53:00","FM-15","7",,,,,,,,,,,,,,,,,,,,,,,,,,,,,,,,,,,,,,"29.89","55","71","0.00",,"-0.01","1","57","29.88","FEW:02 250","29.54","10.00","62","240",,"7",,,,,,,,,,,,,,,,,,,,,,,,,,,,,,,,,,,,,"MET11605/16/20 09:53:02 METAR KLAX 161753Z 24006KT 10SM FEW250 22/13 A2989 RMK AO2 SLP120 T02170128 10228 20161 51004 (KN)","FM-15","7",,,,,,,,,,,,,,,,,,,,,,,,,,,,
"72295023174","2020-05-16T10:00:00","FM-12","4",,,,,,,,,,,,,,,,,,,,,,,,,,,,,,,,,,,,,,,"55","71",,,"-0.01","1","57","29.88",,,"9.94",,"240",,"7",,,,,,,,,,,,,,,,,,,,,,,,,,,,,,,,,,,,,"SYN08072295 32966 22406 10217 20128 30066 40120 51004 91753 333 10228 20161 555 91618=","FM-12","4",,,,,,,,,,,,,,,,,,,,,,,,,,,,
"72295023174","2020-05-16T10:53:00","FM-15","7",,,,,,,,,,,,,,,,,,,,,,,,,,,,,,,,,,,,,,"29.88","55","73","0.00",,,,"53","29.88","FEW:02 250","29.53","10.00","62","260",,"9",,,,,,,,,,,,,,,,,,,,,,,,,,,,,,,,,,,,,"MET09805/16/20 10:53:02 METAR KLAX 161853Z 26008KT 10SM FEW250 23/13 A2988 RMK AO2 SLP118 T02280128 (KN)","FM-15","7",,,,,,,,,,,,,,,,,,,,,,,,,,,,
"72295023174","2020-05-16T11:53:00","FM-15","7",,,,,,,,,,,,,,,,,,,,,,,,,,,,,,,,,,,,,,"29.88","56","73","0.00",,,,"55","29.87","FEW:02 250","29.53","10.00","63","250",,"11",,,,,,,,,,,,,,,,,,,,,,,,,,,,,,,,,,,,,"MET09805/16/20 11:53:02 METAR KLAX 161953Z 25010KT 10SM FEW250 23/13 A2988 RMK AO2 SLP115 T02280133 (KN)","FM-15","7",,,,,,,,,,,,,,,,,,,,,,,,,,,,
"72295023174","2020-05-16T12:53:00","FM-15","7",,,,,,,,,,,,,,,,,,,,,,,,,,,,,,,,,,,,,,"29.86","55","73","0.00",,"+0.03","8","53","29.85","FEW:02 250","29.51","10.00","62","250",,"11",,,,,,,,,,,,,,,,,,,,,,,,,,,,,,,,,,,,,"MET10405/16/20 12:53:02 METAR KLAX 162053Z 25010KT 10SM FEW250 23/13 A2986 RMK AO2 SLP110 T02280128 58010 (KN)","FM-15","7",,,,,,,,,,,,,,,,,,,,,,,,,,,,
"72295023174","2020-05-16T13:53:00","FM-15","7",,,,,,,,,,,,,,,,,,,,,,,,,,,,,,,,,,,,,,"29.85","56","71","0.00",,,,"59","29.84","FEW:02 250","29.50","10.00","62","250",,"13",,,,,,,,,,,,,,,,,,,,,,,,,,,,,,,,,,,,,"MET09805/16/20 13:53:02 METAR KLAX 162153Z 25011KT 10SM FEW250 22/13 A2985 RMK AO2 SLP106 T02170133 (MN)","FM-15","7",,,,,,,,,,,,,,,,,,,,,,,,,,,,
"72295023174","2020-05-16T14:53:00","FM-15","7",,,,,,,,,,,,,,,,,,,,,,,,,,,,,,,,,,,,,,"29.84","57","72","0.00",,,,"59","29.83","FEW:02 150 SCT:04 250","29.49","10.00","63","260",,"11",,,,,,,,,,,,,,,,,,,,,,,,,,,,,,,,,,,,,"MET10505/16/20 14:53:02 METAR KLAX 162253Z 26010KT 10SM FEW150 SCT250 22/14 A2984 RMK AO2 SLP102 T02220139 (MN)","FM-15","7",,,,,,,,,,,,,,,,,,,,,,,,,,,,
"72295023174","2020-05-16T15:53:00","FM-15","7",,,,,,,,,,,,,,,,,,,,,,,,,,,,,,,,,,,,,,"29.83","57","70","0.00",,"+0.03","6","64","29.83","FEW:02 150 SCT:04 250","29.48","10.00","62","260",,"13",,,,,,,,,,,,,,,,,,,,,,,,,,,,,,,,,,,,,"MET12305/16/20 15:53:02 METAR KLAX 162353Z 26011KT 10SM FEW150 SCT250 21/14 A2983 RMK AO2 SLP100 T02110139 10233 20211 56010 (MN)","FM-15","7",,,,,,,,,,,,,,,,,,,,,,,,,,,,
"72295023174","2020-05-16T16:00:00","FM-12","4",,,,,,,,,,,,,,,,,,,,,,,,,,,,,,,,,,,,,,,"57","70",,,"+0.03","6","64","29.83",,,"9.94",,"260",,"13",,,,,,,,,,,,,,,,,,,,,,,,,,,,,,,,,,,,,"SYN08072295 32966 42611 10211 20139 30046 40100 56010 92353 333 10233 20150 555 91700=","FM-12","4",,,,,,,,,,,,,,,,,,,,,,,,,,,,
"72295023174","2020-05-16T16:53:00","FM-15","7",,,,,,,,,,,,,,,,,,,,,,,,,,,,,,,,,,,,,,"29.83","56","68","0.00",,,,"65","29.83","FEW:02 150 SCT:04 250","29.48","10.00","61","250",,"10",,,,,,,,,,,,,,,,,,,,,,,,,,,,,,,,,,,,,"MET10005/16/20 16:53:01 METAR KLAX 170053Z 25009KT 10SM FEW150 SCT250 20/13 A2983 RMK AO2 SLP100 T02000133","FM-15","7",,,,,,,,,,,,,,,,,,,,,,,,,,,,
"72295023174","2020-05-16T17:53:00","FM-15","7",,,,,,,,,,,,,,,,,,,,,,,,,,,,,,,,,,,,,,"29.82","56","67","0.00",,,,"68","29.82","FEW:02 150 SCT:04 250","29.47","10.00","61","240",,"7",,,,,,,,,,,,,,,,,,,,,,,,,,,,,,,,,,,,,"MET10005/16/20 17:53:01 METAR KLAX 170153Z 24006KT 10SM FEW150 SCT250 19/13 A2982 RMK AO2 SLP098 T01940133","FM-15","7",,,,,,,,,,,,,,,,,,,,,,,,,,,,
"72295023174","2020-05-16T18:53:00","FM-15","7",,,,,,,,,,,,,,,,,,,,,,,,,,,,,,,,,,,,,,"29.83","55","66","0.00",,"-0.00","3","68","29.83","FEW:02 150 SCT:04 250","29.48","10.00","60","240",,"7",,,,,,,,,,,,,,,,,,,,,,,,,,,,,,,,,,,,,"MET10605/16/20 18:53:01 METAR KLAX 170253Z 24006KT 10SM FEW150 SCT250 19/13 A2983 RMK AO2 SLP100 T01890128 53001","FM-15","7",,,,,,,,,,,,,,,,,,,,,,,,,,,,
"72295023174","2020-05-16T19:53:00","FM-15","7",,,,,,,,,,,,,,,,,,,,,,,,,,,,,,,,,,,,,,"29.84","57","64","0.00",,,,"78","29.84","FEW:02 150 SCT:04 250","29.49","10.00","60","240",,"6",,,,,,,,,,,,,,,,,,,,,,,,,,,,,,,,,,,,,"MET10005/16/20 19:53:02 METAR KLAX 170353Z 24005KT 10SM FEW150 SCT250 18/14 A2984 RMK AO2 SLP104 T01780139","FM-15","7",,,,,,,,,,,,,,,,,,,,,,,,,,,,
"72295023174","2020-05-16T20:53:00","FM-15","7",,,,,,,,,,,,,,,,,,,,,,,,,,,,,,,,,,,,,,"29.86","55","64","0.00",,,,"73","29.85","FEW:02 250","29.51","10.00","59","250",,"6",,,,,,,,,,,,,,,,,,,,,,,,,,,,,,,,,,,,,"MET09305/16/20 20:53:02 METAR KLAX 170453Z 25005KT 10SM FEW250 18/13 A2986 RMK AO2 SLP108 T01780128","FM-15","7",,,,,,,,,,,,,,,,,,,,,,,,,,,,
"72295023174","2020-05-16T21:53:00","FM-15","7",,,,,,,,,,,,,,,,,,,,,,,,,,,,,,,,,,,,,,"29.86","55","64","0.00",,"-0.02","1","73","29.85","FEW:02 250","29.51","10.00","59","180",,"6",,,,,,,,,,,,,,,,,,,,,,,,,,,,,,,,,,,,,"MET11105/16/20 21:53:02 METAR KLAX 170553Z 18005KT 10SM FEW250 18/13 A2986 RMK AO2 SLP109 T01780128 10211 20178 51008","FM-15","7",,,,,,,,,,,,,,,,,,,,,,,,,,,,
"72295023174","2020-05-16T22:00:00","FM-12","4",,,,,,,,,,,,,,,,,,,,,,,,,,,,,,,,,,,,,,,"55","64",,,"-0.02","1","73","29.85",,,"9.94",,"180",,"6",,,,,,,,,,,,,,,,,,,,,,,,,,,,,,,,,,,,,"SYN08072295 32966 21805 10178 20128 30056 40109 51008 90553 333 10211 20150 555 91706=","FM-12","4",,,,,,,,,,,,,,,,,,,,,,,,,,,,
"72295023174","2020-05-16T22:53:00","FM-15","7",,,,,,,,,,,,,,,,,,,,,,,,,,,,,,,,,,,,,,"29.86","52","63","0.00",,,,"68","29.85","FEW:02 250","29.51","10.00","57","160",,"5",,,,,,,,,,,,,,,,,,,,,,,,,,,,,,,,,,,,,"MET09305/16/20 22:53:02 METAR KLAX 170653Z 16004KT 10SM FEW250 17/11 A2986 RMK AO2 SLP108 T01720111","FM-15","7",,,,,,,,,,,,,,,,,,,,,,,,,,,,
"72295023174","2020-05-16T23:53:00","FM-15","7",,,,,,,,,,,,,,,,,,,,,,,,,,,,,,,,,,,,,,"29.85","53","62","0.00",,,,"73","29.84","FEW:02 350","29.50","10.00","57","VRB",,"5",,,,,,,,,,,,,,,,,,,,,,,,,,,,,,,,,,,,,"MET10305/16/20 23:53:02 METAR KLAX 170753Z VRB04KT 10SM FEW350 17/12 A2985 RMK AO2 SLP106 T01670117 402330150","FM-15","7",,,,,,,,,,,,,,,,,,,,,,,,,,,,
"72295023174","2020-05-16T23:59:00","SOD  ","6",,,,,,,,,,,,,,,"55","67","67","29.85","29.51","60","6.5","2","4.3","0","74","59","270","19","0.00","0","0.0","260","14",,,,,,,,,,,,,,,,,,,,,,,,,,,,,,,,,,,,,,,,,,,,,,,,,,,,,,,,,"SOD73924 HR PRECIPITATION (IN): 0.00 SNOW DEPTH (IN):0     24 HR SNOWFALL (IN):0.0  24 HR MAX TEMP (F): 7424 HR MIN TEMP (F): 59AVERAGE STATION PRESSURE:29.505 MINIMUM SEA LEVEL PRESSURE:29.82 TIME OF OCCURRENCE:1847 PEAK WIND SPEED (MPH): 19 PEAK WIND DIR (DEG):270 PEAK WIND TIME (LST):      FASTEST 2MIN SPEED (MPH): 14FASTEST 2MIN DIR (DEG):260 FASTEST 2MIN TIME (LST):     AVERAGE WIND SPEED (MPH): 6.5 24 HR AVG TEMP (F): 67DEPART FROM NORMAL:  4  HEATING DEGREE DAYS:  0 COOLING DEGREE DAYS:  2 LATEST DAY MAX TEMP (0700-1900 LST):74  LATEST NIGHT MIN TEMP(1900-0800 LST):59 HOURLY INCREMENTAL PRECIPITATION VALUES (IN):.00 0.00 0.00 0.00 0.00 0.00 0.00 0.00 0.00 0.00 0.00 0.00 0.00 0.00 0.00 0.00 0.00 0.00 0.00 0.00 0.00 0.00 0.00 0.00","SOD  ","6",,,,,,,,,,,,,,,,,,,,,,,,,"0451","1849",,
